{"type":"Topology","arcs":[[[4311,26752],[-12,-6],[-20,-28],[-1,0],[-2,-1],[-6,-1],[-5,-5],[-6,-60],[-40,6],[-25,-39],[-33,16],[-35,80],[-48,-34],[34,-54],[-58,-12],[-57,36],[-11,120],[28,51],[37,6],[8,-54],[25,-6],[18,19],[-48,160],[46,5],[111,-194],[16,3],[9,7],[3,2],[2,2],[3,3],[3,3],[10,6],[11,20],[-124,163],[119,72],[31,-29],[38,-4],[-32,-83],[52,-70],[48,8],[21,-16],[40,26],[44,-19],[16,33],[-24,39],[8,26],[-62,0],[-8,25],[119,38],[64,-49],[-5,80],[-172,-8],[-38,-29],[-70,32],[26,48],[-13,17],[123,8],[-1,29],[59,-25],[96,89],[62,31],[52,-45],[31,27],[29,-25],[19,18],[46,-4],[9,35],[93,85],[-11,25],[-58,12],[12,26],[45,-6],[43,38],[-7,-39],[19,-21],[38,6],[30,40],[45,-19],[-3,-22],[-71,-29],[1,-58],[93,-6],[-15,-62],[30,-44],[48,9],[48,-24],[34,54],[54,-17],[-19,-54],[-41,16],[-28,-19],[2,-23],[-60,-15],[-14,29],[-89,48],[4,56],[-71,12],[-15,41],[-39,-11],[-43,-25],[1,-25],[-39,-4],[30,-39],[-40,-57],[-61,8],[-44,-31],[7,-96],[-52,-6],[-43,38],[-32,-28],[47,-25],[16,-34],[45,5],[2,-24],[-43,-63],[21,-40],[-9,-22],[-122,-48],[30,-35],[-22,-57],[-17,8],[22,-15],[-71,-16],[-34,21],[-43,-24],[-14,10],[9,-16],[-33,9],[36,-17],[-24,0],[-18,16],[-1,52],[18,14],[-16,27],[-114,-20],[16,31],[-23,11]],[[6739,27813],[-42,65],[-59,11],[-89,-45],[-4,87],[-26,46],[-193,-35],[-8,-36],[-57,-29],[-28,22],[-29,-18],[-35,10],[-61,69],[47,36],[34,-12],[48,41],[23,-17],[-25,-43],[45,3],[76,93],[65,28],[83,-18],[34,-40],[59,16],[115,-21],[47,18],[13,-13],[-11,-57],[59,-35],[-6,-19],[-37,-7],[18,-91],[-39,-1],[-27,-59],[-27,26],[37,25]],[[7052,22300],[-18,10],[-34,-24],[-13,78],[-42,-12],[-47,40],[-88,4],[-12,21],[21,12],[41,-15],[34,82],[62,-100],[21,44],[66,-23],[58,6],[16,-34],[-49,-10],[-18,-23],[15,-43],[97,-39],[13,14],[-16,19],[22,25],[47,-81],[37,23],[8,-35],[53,-21],[-28,-51],[63,1],[-9,-42],[-34,-17],[5,-57],[-109,1],[1,27],[41,29],[-10,26],[-34,11],[-80,102],[-80,52]],[[3128,29085],[18,21],[-36,23],[4,25],[104,-109],[54,-2],[131,-105],[-1,-53],[-25,-28],[-40,-1],[3,-48],[102,56],[14,-29],[50,-16],[7,-24],[52,-6],[14,18],[-43,37],[4,21],[101,-47],[8,24],[-33,48],[58,-20],[19,15],[-43,93],[33,45],[-166,99],[139,67],[10,-21],[-44,-58],[57,-56],[57,6],[11,50],[32,-7],[6,-32],[29,-11],[-12,-36],[25,-20],[28,26],[23,-4],[11,-47],[-19,-16],[37,0],[20,-20],[-49,-26],[10,-35],[14,-9],[2,-3],[0,-6],[0,-12],[5,-21],[21,-17],[-4,-35],[-35,0],[4,40],[-3,2],[-6,2],[-2,2],[-2,2],[-13,26],[-57,38],[-15,33],[-39,-41],[8,-98],[-18,-4],[111,-6],[5,-8],[1,-2],[0,-7],[-18,-66],[-5,-2],[-5,-1],[-38,13],[-27,0],[-45,-32],[-14,25],[59,42],[-3,17],[-68,25],[-33,-32],[-59,16],[-48,-18],[-51,31],[-31,-24],[71,-36],[-1,-23],[-112,-19],[-17,15],[6,34],[-114,73],[-111,-122],[3,-99],[-9,24],[-37,-15],[37,-15],[-24,-5],[-55,54],[-69,-35],[-38,44],[25,38],[-52,15],[12,39],[65,-24],[21,11],[-18,17],[9,21],[24,1],[22,-36],[-17,-42],[-56,-32],[8,-18],[37,3],[53,30],[0,37],[32,6],[36,58],[-17,15],[-54,-25],[-52,69],[-65,-8],[-14,23],[-10,59],[57,93],[81,-50],[-73,83],[21,2],[13,106],[5,-37],[26,4]],[[6042,22399],[16,-30],[56,16],[31,-28],[19,30],[23,1],[0,-28],[-31,-16],[22,-86],[117,10],[1,-38],[-54,-5],[-41,-75],[-23,8],[0,45],[-56,-11],[-4,-9],[4,-14],[-1,-4],[1,-9],[-3,-7],[0,-5],[-11,-18],[64,-25],[23,-79],[12,3],[11,15],[5,3],[5,1],[4,3],[7,17],[31,5],[61,-91],[-10,-26],[-19,2],[-15,41],[-9,-3],[-8,-5],[-1,0],[-5,-2],[-2,-1],[-6,-3],[-27,-4],[-92,18],[-13,67],[-66,55],[-44,114],[8,32],[-38,18],[-4,44],[-35,24],[-8,46],[-65,21],[-64,-42],[-58,37],[4,60],[-37,-24],[-47,5],[-1,20],[46,8],[43,62],[-57,53],[-28,-8],[-30,41],[24,-13],[7,27],[-2,-35],[29,-7],[-21,94],[8,-16],[43,1],[5,22],[-3,-14],[39,-6],[2,13],[-26,3],[20,17],[-115,-12],[-15,-61],[1,55],[54,26],[61,0],[24,37],[37,14],[-18,110],[-47,-4],[31,30],[-19,39],[-77,25],[-89,-36],[-44,7],[-19,-31],[-40,-1],[-17,-44],[-66,-6],[-6,-17],[-44,4],[3,33],[-23,5],[28,1],[-12,28],[-76,-31],[-27,-37],[-50,4],[-7,23],[45,49],[109,-4],[35,30],[13,105],[48,11],[-40,65],[13,41],[20,-17],[-19,-25],[123,23],[7,18],[-54,21],[-11,26],[54,16],[9,84],[-27,76],[-80,84],[-37,5],[-13,-31],[-44,9],[-71,-39],[-106,125],[-40,0],[2,60],[43,18],[47,-12],[36,42],[95,-59],[4,-64],[25,20],[21,-14],[65,14],[11,23],[-11,23],[-57,6],[-61,35],[59,40],[-1,37],[-80,28],[2,36],[-41,7],[22,120],[-64,18],[22,30],[-30,12],[-12,36],[2,61],[-29,33],[3,83],[-91,24],[131,-13],[21,39],[-53,61],[61,18],[-45,-25],[61,-77],[12,21],[-32,32],[15,10],[37,-30],[35,173],[-50,15],[-28,-69],[-70,-12],[39,124],[-99,40],[75,122],[95,-5],[7,-58],[77,-3],[9,84],[66,22],[26,1],[38,-9],[4,-1],[4,1],[59,111],[144,32],[-50,35],[6,69],[66,54],[58,-15],[-21,87],[83,7],[-34,43],[-34,9],[2,33],[83,-12],[42,-50],[61,19],[-18,120],[-67,55],[20,91],[-35,5],[-13,-65],[-22,-12],[-44,38],[-22,78],[26,3],[9,-49],[20,-11],[114,86],[45,-47],[-15,-46],[19,-107],[91,3],[37,54],[-32,62],[6,30],[24,5],[38,-46],[40,14],[-78,174],[31,7],[42,-76],[19,43],[-31,64],[21,28],[-12,19],[50,16],[35,58],[23,-19],[31,7],[13,-29],[-86,-57],[2,-26],[31,0],[6,-21],[-34,-23],[-22,-62],[-33,-10],[-11,-49],[64,-64],[-53,-42],[-2,-43],[6,-41],[30,-22],[-26,-48],[0,-56],[53,-29],[4,-90],[-40,-15],[-3,44],[-28,0],[-47,-73],[-45,73],[-176,10],[8,58],[-64,-13],[-49,-63],[85,-52],[-6,-32],[36,-59],[38,11],[27,-26],[37,1],[17,34],[32,-10],[13,25],[52,-33],[4,-42],[44,-60],[73,-12],[31,40],[26,-23],[-3,-33],[49,5],[16,-45],[-49,-26],[-43,36],[-22,-12],[3,-25],[73,-89],[97,-13],[-22,-41],[16,-27],[98,-80],[44,-65],[-16,-31],[-31,5],[1,46],[-102,78],[-5,-51],[-32,-10],[-27,-104],[-61,-30],[-10,35],[38,22],[-6,54],[34,38],[-25,51],[30,16],[9,71],[-31,20],[-144,-82],[-5,-37],[-62,-48],[73,-28],[66,9],[13,-55],[-31,-17],[-12,-44],[44,-20],[8,-32],[-44,-32],[15,-132],[-163,-62],[18,-19],[54,-5],[20,-43],[-36,-48],[-43,4],[2,-75],[-114,-38],[13,51],[-34,51],[14,45],[-55,6],[-14,63],[-88,6],[-12,-19],[51,-11],[23,-30],[-34,-31],[16,-66],[-49,9],[-19,-15],[-34,19],[-11,-51],[-41,-7],[-27,-46],[-1,-3],[0,-2],[-1,-2],[-2,-8],[4,-9],[4,-2],[5,-2],[18,-9],[20,-7],[6,-4],[10,-22],[39,-5],[17,-26],[78,9],[-5,-31],[39,-42],[-50,-85],[17,13],[36,-28],[-78,-97],[41,-93],[-37,-62],[72,-9],[24,26],[29,-2],[-6,-24],[-35,-11],[30,-53],[-11,-22],[49,-24],[40,-87],[28,-15],[-14,-29],[98,-109],[-25,-21],[25,-33],[-7,-49],[-17,-5],[-2,40],[-53,60],[14,41],[-114,73],[-22,-6],[8,-44],[51,-2],[43,-79],[-14,-72],[13,-33],[-21,-9],[-20,28],[-39,7],[-4,-48],[130,-31],[75,-114],[-18,-34],[-65,24],[-36,-11],[-11,-51],[-55,19],[-11,-80]],[[686,32484],[23,17],[49,-41],[-5,-45],[155,-47],[33,27],[35,-22],[33,82],[-62,-22],[-106,56],[40,69],[43,5],[27,-18],[3,61],[42,24],[6,2],[14,-5],[4,-17],[-5,-8],[-1,-1],[-2,-2],[-2,-3],[-5,-17],[-33,-21],[0,-17],[35,-13],[-4,-30],[50,-40],[3,1],[5,1],[3,1],[5,5],[1,41],[22,22],[-36,54],[16,22],[45,-40],[19,40],[41,12],[-21,-67],[19,-96],[44,36],[17,84],[170,26],[22,-20],[3,-57],[-39,-15],[20,-73],[-50,-68],[84,-32],[-21,-33],[27,-54],[-34,-56],[23,-26],[-57,-33],[-80,-3],[3,30],[51,51],[0,56],[23,26],[-38,47],[-23,1],[-19,99],[-48,-66],[-45,22],[-55,-4],[-14,-56],[-11,-8],[-14,-3],[-1,0],[-3,-2],[-4,0],[-14,-21],[2,59],[-30,59],[-20,4],[-24,-52],[-39,-25],[-16,-76],[13,-16],[9,14],[6,-31],[-44,-54],[-92,60],[-47,-21],[-88,47],[-37,-70],[-61,-1],[-36,64],[16,25],[64,-19],[17,12],[2,41],[-51,63],[29,37],[-11,35],[32,27]],[[1173,33936],[59,-18],[-26,24],[-19,118],[73,10],[7,24],[30,4],[4,-28],[-35,-14],[9,-73],[-19,-17],[44,-42],[11,-46],[-21,-3],[-18,29],[-42,-8],[-80,24],[9,-57],[-36,-22],[-30,5],[-76,-40],[-53,2],[-28,50],[-30,7],[9,47],[-72,85],[63,46],[-11,89],[83,38],[96,3],[49,34],[-40,-202],[31,-46],[37,4],[22,-27]],[[4222,35188],[35,90],[-33,42],[-95,19],[22,39],[123,-30],[61,-74],[1,-27],[39,-10],[43,25],[-1,38],[73,20],[-4,-66],[-53,1],[9,-34],[26,1],[21,-41],[-27,-41],[41,-36],[-28,-23],[3,-30],[127,62],[116,-142],[50,19],[-20,-94],[18,-48],[-27,-13],[-4,-34],[31,-84],[68,-45],[-17,-31],[-43,-6],[-6,-55],[-21,10],[7,62],[-30,11],[-24,58],[-28,3],[-13,62],[-82,-46],[-29,27],[-50,-2],[-21,-24],[5,-33],[-24,-11],[-73,53],[31,36],[-69,31],[-24,-7],[-9,-41],[5,-29],[33,-13],[22,-159],[-103,-41],[-2,21],[34,18],[-5,32],[-58,-15],[-67,127],[113,48],[15,51],[-21,2],[2,19],[20,23],[66,13],[-8,58],[-60,53],[32,40],[28,5],[9,34],[39,-4],[-2,25],[-44,16],[-24,35],[-188,41],[-68,-66],[-59,-10],[-22,-37],[-22,45],[57,56],[-4,26],[-36,6],[-30,-29],[-17,23],[57,40],[37,-20],[25,34],[18,-51],[133,2]],[[71,34882],[30,-10],[-28,78],[36,-74],[31,47],[-12,21],[-18,-8],[22,13],[-26,26],[-30,-9],[23,12],[-11,54],[83,-45],[14,11],[-35,31],[11,47],[-19,34],[-1,-19],[-23,20],[-8,62],[-33,7],[-49,68],[37,13],[44,56],[50,0],[-4,32],[32,20],[21,-29],[-35,-30],[16,-26],[75,-3],[18,21],[-12,21],[24,19],[23,-48],[-42,-58],[-44,-5],[-34,40],[-20,-2],[-4,-72],[37,-28],[34,25],[29,-24],[47,33],[10,-26],[15,-10],[9,-18],[14,-3],[5,-4],[6,-12],[-12,-17],[-3,-1],[-3,-2],[-9,-7],[-20,-3],[-17,-27],[5,-7],[18,-4],[6,-9],[12,-5],[2,-1],[4,-6],[3,-2],[66,15],[29,72],[42,30],[-5,58],[-28,29],[8,37],[-39,12],[-1,38],[80,-34],[35,17],[22,-25],[51,-12],[-22,-49],[-63,5],[-18,-37],[18,-32],[-22,-36],[31,-7],[2,-20],[-19,-11],[-24,19],[-13,-14],[12,-51],[35,-9],[24,59],[43,11],[5,-41],[-37,-13],[44,-34],[-1,-34],[20,-6],[56,42],[53,-35],[-45,-77],[-45,-23],[-33,7],[15,54],[-25,19],[5,-26],[-34,-15],[-19,-49],[63,-21],[38,22],[59,-12],[-13,-53],[-57,-2],[-10,-20],[48,-4],[12,-35],[34,-9],[0,-40],[40,-3],[25,65],[-57,61],[27,78],[55,-24],[88,47],[12,-18],[-30,-30],[5,-40],[160,92],[53,0],[3,41],[51,14],[11,-54],[-25,-16],[-2,-53],[-38,-65],[13,-107],[80,39],[-8,120],[69,7],[15,41],[58,-43],[-17,-27],[-28,25],[-14,-27],[-55,-19],[23,-55],[60,-30],[-46,-42],[-81,-35],[-27,35],[-64,-32],[-32,48],[-49,6],[38,70],[49,27],[6,57],[-132,-3],[-1,-30],[-36,-9],[6,-39],[-26,-36],[95,-60],[-1,-30],[-53,-30],[-36,16],[0,18],[-38,-8],[-60,28],[-41,-28],[-26,-80],[-72,10],[2,55],[-25,18],[-37,-40],[-22,7],[-6,39],[24,-1],[7,21],[-23,36],[-34,-38],[-44,-16],[-24,13],[23,47],[33,9],[29,68],[-40,17],[-32,104],[-27,9],[4,-52],[-52,-14],[-20,-70],[-64,34],[-7,-1],[-8,-6],[-24,-2],[-4,-3],[0,0],[0,0],[-6,-1],[-6,-4],[2,-61],[2,0],[1,0],[1,0],[2,-1],[4,-2],[3,-8],[24,0],[6,-35],[33,-8],[29,17],[15,-21],[-67,-38],[-21,38],[-24,7],[-7,14],[-1,-1],[-4,-1],[-7,1],[-9,-41],[3,-6],[3,-3],[4,-1],[1,0],[4,-2],[4,-3],[3,-11],[-5,-11],[-5,-3],[-7,-2],[-17,10],[1,60],[-27,-20],[-62,12],[23,26],[7,71],[-25,3],[-26,-26],[-22,19],[-37,-3],[-49,-26],[-41,25],[0,87],[-18,23],[14,114],[40,-12],[-9,-72],[26,-27]],[[18815,5892],[-19,6],[-1,30],[-46,15],[51,95],[-32,19],[-13,50],[-44,27],[2,24],[35,12],[-3,28],[-78,43],[34,67],[80,-85],[182,16],[63,-30],[-28,-86],[27,-54],[-40,-32],[-30,18],[-14,-12],[46,-86],[-60,-26],[-80,6],[-32,-45]],[[16659,4162],[-33,21],[-44,-14],[-20,29],[102,33],[-1,-43],[52,-77],[-5,-46],[68,0],[-28,-88],[-70,5],[-44,-35],[-7,-78],[-28,-21],[-37,-84],[10,-31],[-42,-27],[-28,-76],[-41,-20],[-112,43],[-19,37],[35,44],[4,73],[36,66],[36,15],[5,40],[-51,16],[-95,-176],[-47,4],[-39,31],[76,149],[-95,33],[-13,8],[-2,4],[-1,10],[4,8],[3,4],[1,1],[2,4],[2,3],[4,10],[22,18],[7,22],[27,34],[53,113],[28,26],[120,211],[192,435],[33,202],[31,29],[70,205],[-9,28],[61,232],[19,175],[16,13],[-13,53],[22,23],[3,97],[42,52],[91,-6],[124,-44],[87,2],[8,-66],[-21,-24],[16,-77],[-36,-67],[58,-7],[-3,-26],[44,-22],[28,73],[47,3],[1,-22],[-40,-13],[18,-23],[-5,-66],[-70,-43],[-73,15],[-18,42],[-35,-19],[2,-39],[-52,-50],[19,-29],[-6,-152],[-14,-43],[-42,-5],[-3,-26],[26,-28],[-35,-35],[-96,-255],[7,-34],[-22,-4],[-18,24],[-25,-9],[7,-35],[-27,-58],[-153,19],[-107,-277],[44,-20],[23,37],[91,28],[35,-28],[-24,-132],[-221,-104],[8,-85],[-59,-39],[37,-63],[46,-26],[63,-20],[13,35]],[[19165,3771],[-140,-126],[12,-36],[65,0],[19,-22],[-74,-15],[-23,-68],[71,-26],[-10,-32],[-90,34],[-12,-66],[-22,-8],[3,83],[-72,31],[-5,20],[19,11],[104,-32],[21,58],[-33,39],[-6,62],[45,4],[38,62],[-88,19],[10,48],[-34,22],[-56,-22],[-27,83],[-39,15],[12,43],[99,-16],[10,-27],[58,-23],[33,8],[45,65],[46,4],[47,-25],[3,-41],[24,-7],[34,24],[-28,15],[-13,57],[41,-5],[-3,-29],[29,-10],[-4,-33],[43,-30],[25,-63],[-23,-8],[-24,29],[-29,-25],[-52,16],[-59,-30],[10,-27]],[[13505,15129],[-13,-21],[24,-40],[79,-43],[43,-63],[-93,-35],[-9,-38],[26,-58],[-20,-36],[-84,-12],[-11,74],[-63,-17],[-66,52],[-25,68],[-30,20],[16,46],[70,-8],[24,69],[-143,54],[-52,-25],[-11,19],[22,43],[-34,25],[-61,1],[-11,30],[71,0],[56,-41],[36,29],[13,43],[-36,35],[-36,5],[4,23],[145,-26],[83,45],[61,-29],[19,-147],[-5,52],[21,-3],[2,30],[37,27],[-19,52],[39,17],[14,58],[42,10],[-35,24],[4,40],[113,-30],[-29,-72],[108,15],[5,-54],[-53,-12],[-74,-3],[-11,43],[-18,3],[-23,-75],[12,-13],[37,20],[46,-27],[-7,-63],[22,-17],[33,22],[35,-9],[-3,-97],[-59,30],[-13,-29],[-46,9],[-22,-31],[-60,-8],[-57,52],[-30,-3]],[[13181,11584],[-3,-20],[20,-6],[-25,-54],[-25,-6],[16,123],[69,40],[19,43],[30,-5],[38,30],[18,61],[-56,-46],[4,63],[-75,116],[-40,17],[-73,-21],[10,31],[66,22],[62,-22],[36,-67],[107,5],[43,-53],[-22,-49],[13,-39],[41,59],[94,27],[-27,-86],[56,-76],[-39,-61],[-43,-3],[-38,-117],[-79,-10],[-70,19],[-11,-29],[30,-45],[-10,-71],[-44,-6],[-25,28],[-42,-3],[7,60],[31,14],[-23,75],[32,22],[-25,48],[-47,-8]],[[11325,15865],[33,41],[-46,-9],[-18,47],[84,69],[66,-60],[-48,-33],[30,-41],[-21,-30],[-48,18],[-17,-15],[47,-77],[46,-31],[1,-63],[37,-1],[12,-18],[-17,-14],[-25,12],[-16,-7],[-19,-2],[-5,2],[-1,0],[-4,1],[-4,0],[-6,-4],[43,-94],[-76,-62],[15,-13],[84,50],[21,-8],[8,-73],[-47,-40],[28,-38],[-17,-43],[39,19],[39,-14],[20,23],[2,2],[1,2],[1,0],[2,5],[4,4],[8,7],[66,29],[19,44],[43,-35],[-5,-32],[40,-40],[-24,-39],[33,-27],[-38,-41],[-53,13],[-40,-31],[54,-59],[-51,-84],[-61,0],[-9,-12],[-5,-4],[-7,-4],[-10,-3],[-13,-8],[-5,-37],[-46,-10],[-17,15],[-31,-24],[-16,26],[40,15],[-16,52],[-45,-7],[-23,35],[27,22],[37,-12],[6,103],[37,11],[1,21],[-98,24],[12,85],[-34,26],[-30,-12],[-9,-29],[-23,4],[-16,86],[-35,7],[-67,81],[-33,76],[-40,5],[-11,63],[-50,24],[77,74],[24,-12],[-16,-48],[101,49],[5,40],[-1,3],[-3,3],[-4,14],[-21,14],[0,14],[72,65],[76,-45]],[[7754,20152],[-82,62],[-48,-18],[-12,44],[-68,0],[-1,26],[54,-9],[11,29],[-51,28],[-26,-15],[-42,12],[2,25],[36,3],[0,40],[23,4],[32,-44],[68,-26],[44,-63],[29,-2],[13,15],[-28,34],[48,9],[9,29],[19,1],[-11,58],[37,13],[12,49],[22,6],[14,-53],[-38,-26],[5,-28],[-25,-24],[43,-75],[94,-43],[59,10],[98,-35],[85,15],[27,-41],[-122,-17],[-16,20],[-90,2],[-22,19],[-67,-60],[-70,61],[-54,-41],[9,-21],[52,4],[21,-26],[34,4],[14,-38],[-84,-37],[3,-54],[-59,36],[20,55],[-33,64],[12,19]],[[12763,16106],[-121,-18],[-31,104],[14,41],[-36,9],[-5,43],[-24,20],[2,31],[43,9],[2,46],[25,-7],[27,-63],[109,-33],[49,33],[58,-23],[85,63],[61,-45],[-9,-22],[38,-36],[-44,-108],[50,-69],[-1,-63],[39,-23],[-10,-56],[59,-25],[8,-42],[-88,32],[0,67],[-39,33],[9,56],[-40,52],[-45,-10],[-48,51],[-52,-48],[-37,19],[-29,-12],[67,-44],[-18,-37],[-43,16],[-25,59]],[[13460,24629],[-105,89],[-45,67],[-6,51],[88,9],[69,-24],[91,56],[10,52],[52,59],[10,105],[45,27],[-5,49],[26,-2],[4,-39],[57,-6],[-18,-37],[25,-36],[-52,-60],[-6,-101],[-49,-31],[37,-47],[37,-13],[-29,-15],[5,-29],[-42,-18],[1,-49],[-31,-1],[-16,-36],[-42,8],[-28,-38],[37,-30],[40,2],[27,-48],[-38,-31],[-24,4],[-23,-55],[-139,-123],[-55,36],[94,123],[-52,32],[50,100]],[[12368,19927],[-48,-22],[-19,-92],[-78,8],[-14,72],[75,57],[16,37],[-28,-3],[-102,-82],[-82,53],[-50,-52],[40,-90],[-38,-8],[-28,-38],[-31,3],[-64,51],[13,18],[60,9],[2,32],[112,109],[7,35],[25,6],[76,160],[110,-121],[45,27],[31,86],[42,4],[7,-20],[-43,-44],[-11,-68],[65,-64],[56,55],[14,47],[24,1],[4,-45],[-42,-28],[-15,-82],[59,13],[73,-27],[-47,-62],[-77,-2],[-83,45],[-24,-20],[-32,42]],[[7048,23819],[-30,-45],[-36,2],[14,48],[40,5],[144,165],[44,-39],[56,23],[29,37],[72,-46],[56,-2],[25,40],[-8,34],[30,34],[-17,30],[15,49],[82,45],[-24,72],[28,-1],[34,-56],[49,0],[29,20],[3,79],[53,12],[-14,-35],[17,-72],[-38,-17],[6,-43],[-69,-10],[-4,-58],[-50,-33],[-20,33],[65,86],[-34,23],[-70,-57],[16,-21],[-34,-42],[2,-85],[56,-8],[16,27],[22,0],[28,-110],[-24,2],[-43,65],[-66,-12],[-11,-33],[19,-56],[-41,-10],[-16,-32],[-73,22],[-36,-15],[-99,63],[-59,-4],[-23,-23],[33,-68],[-38,-58],[26,-29],[-17,-18],[-49,63],[-48,-1],[-18,60]],[[10979,30002],[77,31],[15,30],[-12,43],[41,-15],[42,30],[-33,46],[24,45],[37,6],[12,25],[-36,82],[25,19],[29,-30],[18,-88],[25,-21],[27,21],[19,-9],[-26,-35],[10,-28],[82,-26],[-32,-113],[-64,-29],[-2,92],[-13,17],[-25,-5],[-20,-74],[-97,-49],[24,-76],[-69,-62],[-21,44],[-122,-29],[-8,21],[29,30],[-38,18],[-46,-10],[10,24],[90,14],[-1,24],[-71,56],[6,23],[31,-4],[21,-34],[42,-4]],[[4932,29108],[36,25],[23,-12],[-41,-30],[24,-23],[-6,-18],[-48,36],[-14,-39],[-33,3],[-49,41],[-71,-13],[-46,48],[-35,-11],[-22,36],[-98,51],[-18,76],[-52,2],[-65,-66],[-22,3],[-11,-9],[-5,0],[-4,1],[-3,1],[1,-1],[1,-4],[1,-5],[-10,-19],[19,-23],[73,-11],[4,-24],[-47,-36],[18,-19],[80,1],[-3,-51],[-26,-11],[-50,36],[-36,-16],[-31,48],[-3,59],[-10,9],[-7,12],[-3,3],[-17,3],[-5,13],[19,34],[-18,45],[35,26],[-26,8],[5,28],[-37,55],[10,48],[63,31],[38,45],[25,-1],[20,-30],[-7,-24],[14,-12],[4,-9],[3,-2],[2,-2],[2,-3],[0,-12],[-1,-3],[-2,-3],[-2,-2],[-3,-3],[0,-8],[5,-8],[1,-3],[2,-4],[3,-3],[4,-9],[81,-27],[11,-42],[32,-12],[-14,-49],[14,-24],[54,13],[3,-43],[48,-29],[29,14],[24,59],[-41,11],[-15,43],[-22,6],[-31,-44],[-23,0],[30,98],[26,3],[-4,-40],[33,-10],[54,60],[10,-49],[36,-7],[25,71],[23,8],[14,-26],[-20,-59],[-36,-5],[-8,-46],[-39,5],[4,-16],[27,-79],[50,-17],[42,24],[35,-36]],[[9101,25062],[-42,15],[10,58],[-48,37],[-66,0],[-21,-32],[-27,14],[17,27],[-34,18],[-15,37],[-56,-8],[-41,22],[-113,-57],[-6,21],[31,17],[8,45],[-44,66],[-68,-7],[-10,28],[99,15],[6,-40],[67,-74],[63,44],[36,-12],[22,32],[25,-13],[18,-53],[166,37],[27,21],[66,2],[23,-55],[-7,-88],[83,-22],[10,-20],[-179,-75]],[[9406,26372],[-39,-31],[48,-21],[-44,-38],[42,-59],[-8,-33],[41,-43],[-19,-13],[-30,20],[-27,-47],[-35,24],[11,35],[-26,61],[-112,-42],[-51,9],[-8,80],[-39,37],[51,48],[9,47],[-26,6],[-35,-25],[-29,43],[80,15],[92,-48],[2,-35],[28,-8],[66,16],[39,46],[85,47],[7,-35],[-73,-56]],[[6100,26227],[22,21],[25,-14],[13,-43],[73,-9],[53,78],[-31,22],[2,23],[42,35],[71,-25],[-35,76],[50,19],[-1,-32],[26,-24],[-14,-81],[18,-33],[-23,-8],[-35,43],[-14,-15],[6,-64],[44,-4],[19,-34],[4,-38],[-33,-39],[26,-34],[-82,11],[-31,-82],[-55,-38],[-27,17],[53,40],[3,92],[-55,13],[-34,-39],[-52,-19],[-14,32],[41,13],[14,36],[-27,15],[-25,-26],[-18,5],[24,79],[-32,12],[-22,-28],[-132,-34],[-20,-49],[57,-26],[5,-81],[40,-37],[35,-80],[59,15],[-9,-23],[-42,-13],[8,-77],[-92,-56],[-74,88],[-21,73],[-46,25],[76,171],[-29,78],[63,45],[-22,59],[25,34],[71,-2],[-12,-23],[-41,-6],[34,-55],[40,17],[9,33],[49,-29]],[[6139,26737],[-3,17],[-35,4],[-18,-15],[-41,32],[11,24],[54,-17],[30,13],[-69,75],[31,19],[35,-7],[18,48],[51,-5],[11,60],[21,6],[27,-36],[-30,-39],[6,-58],[29,-21],[-47,-40],[-47,-10],[-21,-59],[24,-33],[-39,-9],[-37,-88],[-28,-12],[29,-39],[-44,-51],[1,-29],[43,-31],[6,-28],[-34,-9],[-45,37],[-81,-61],[-13,67],[-56,-37],[-56,15],[3,28],[81,-1],[94,73],[-18,44],[-63,7],[38,74],[58,18],[52,58],[37,-6],[35,22]],[[5469,25456],[29,12],[-7,29],[74,25],[-18,55],[-25,-34],[-23,16],[18,25],[-20,45],[40,37],[66,1],[34,-31],[25,18],[23,-42],[65,17],[-27,-59],[48,-7],[10,-38],[-16,-25],[-56,28],[-18,54],[-33,-1],[-41,-56],[37,-37],[0,-32],[-133,13],[-58,-33],[2,-31],[-63,-26],[-5,-47],[-58,-31],[-8,-1],[-1,0],[-11,2],[-7,-1],[-32,-31],[-19,11],[17,17],[-9,46],[-34,11],[-28,-22],[-3,-48],[-46,-20],[-49,80],[48,60],[-34,7],[-31,-24],[-20,-91],[-59,-1],[-10,-28],[2,-26],[30,-14],[99,17],[-74,-83],[36,-58],[-19,-8],[-50,36],[-22,-11],[-10,-58],[37,-5],[-1,-37],[-58,-26],[5,-35],[-58,-7],[2,59],[-29,23],[11,50],[-27,13],[41,14],[13,52],[-22,47],[-61,36],[6,71],[-18,39],[17,26],[23,-5],[33,-115],[55,52],[84,31],[18,71],[-16,50],[-30,-6],[-29,-56],[-52,28],[-3,32],[42,58],[39,25],[32,-16],[47,39],[35,-21],[6,7],[5,4],[7,3],[3,2],[4,14],[-35,57],[56,16],[45,-49],[-32,-25],[-4,-24],[-17,-10],[-6,-9],[-5,-3],[-8,-3],[-2,-3],[-20,-46],[6,-34],[48,-5],[-4,-29],[17,-5],[35,26],[1,1],[5,2],[5,2],[6,2],[6,3],[8,6],[-10,43],[-52,16],[41,32],[28,-8],[61,-124],[51,-9],[27,77],[49,-3],[13,-18]],[[8072,21950],[34,19],[41,-21],[-12,-34],[-79,10],[-5,-65],[-19,-14],[25,-45],[-26,-8],[43,-78],[-30,-36],[-70,21],[47,38],[-10,54],[-101,-3],[-42,81],[-24,11],[-52,-17],[50,-23],[-2,-32],[30,-35],[-10,-21],[-154,-8],[-2,54],[73,41],[-11,31],[35,34],[37,7],[-26,69],[-133,36],[-1,30],[39,25],[-29,37],[16,55],[-47,13],[-27,-17],[-102,25],[-25,18],[7,34],[-40,2],[-24,24],[56,37],[-2,34],[47,34],[59,-30],[42,3],[14,-59],[55,-13],[21,92],[35,3],[5,-28],[-26,-3],[-16,-49],[15,-63],[143,68],[49,-26],[40,7],[30,53],[40,-48],[75,64],[18,-12],[9,-63],[33,72],[-35,43],[25,12],[41,-41],[-11,-86],[-48,-17],[11,-43],[59,0],[27,-102],[-21,-20],[-81,16],[-16,-71],[-75,-40],[8,-36]],[[4828,26586],[-55,-13],[21,31],[-20,25],[-42,-11],[-11,71],[11,21],[70,22],[16,54],[45,-7],[11,46],[-50,20],[0,24],[46,11],[41,-27],[47,36],[0,-86],[41,-28],[28,33],[24,-2],[-1,-26],[-43,-22],[49,-41],[21,19],[9,75],[26,-2],[-30,-120],[31,-62],[-30,-1],[-19,72],[-50,-36],[18,-116],[-30,-38],[56,-22],[-58,-46],[96,-27],[22,24],[21,-5],[-24,-57],[34,-32],[-14,-36],[48,-42],[-3,-24],[-37,-85],[-52,-52],[-47,-13],[-36,54],[-47,-17],[-10,-33],[30,-25],[-25,-54],[-81,-7],[-83,54],[-14,-11],[1,-1],[-4,-3],[0,4],[2,2],[12,10],[-2,6],[-52,56],[64,54],[58,-39],[42,39],[43,-14],[9,24],[-31,48],[30,1],[3,40],[38,5],[-26,69],[-46,38],[-39,76],[68,26],[1,40],[-48,-9],[-73,62]],[[7521,26153],[-61,-55],[-49,5],[-23,24],[-42,0],[-24,62],[16,14],[36,-11],[9,55],[-24,27],[49,17],[18,-12],[10,-151],[30,11],[8,30],[44,-1],[6,30],[36,9],[7,22],[63,20],[25,-11],[1,-37],[37,-5],[-11,78],[-36,18],[7,41],[-17,9],[-25,-31],[-23,8],[14,46],[-16,26],[24,23],[7,72],[73,20],[17,-49],[-47,23],[-25,-25],[20,-71],[-10,-29],[60,6],[29,-32],[-18,-54],[51,-82],[-51,-18],[15,-29],[42,-2],[5,-23],[-24,-17],[13,-43],[29,-8],[-2,44],[48,20],[79,-23],[-22,-24],[-40,20],[-58,-42],[48,-108],[-21,-5],[-48,46],[-48,-38],[29,-27],[35,3],[-2,-26],[-125,9],[-1,59],[39,21],[-5,42],[-35,39],[21,13],[36,-19],[4,25],[-56,80],[-44,2],[-12,33],[-32,-9],[-1,-37],[-62,2]],[[7004,28773],[-40,14],[-69,-67],[-3,-38],[-64,5],[10,38],[-73,31],[-9,80],[-39,30],[13,24],[64,0],[-5,53],[-45,72],[-101,6],[-10,27],[93,11],[27,21],[2,37],[33,11],[47,-18],[13,-44],[100,17],[4,24],[23,-12],[44,39],[0,73],[46,19],[29,-66],[95,-14],[55,-65],[58,19],[25,-18],[53,10],[-23,-33],[-39,9],[-142,-83],[7,-44],[-164,-119],[-15,-49]],[[4544,28283],[22,28],[-27,21],[5,40],[-31,2],[-9,21],[32,42],[-73,32],[-38,-24],[-28,31],[-27,-26],[-46,2],[5,-40],[-33,-3],[28,58],[-10,106],[36,15],[17,35],[-16,31],[11,125],[89,12],[42,-34],[-13,-29],[-61,19],[-17,-16],[27,-114],[71,38],[21,-11],[4,-33],[-22,-34],[-38,-8],[-6,-32],[24,-44],[90,-47],[-30,-37],[19,-14],[33,23],[53,-12],[8,-20],[54,-1],[18,-45],[-63,-59],[57,-18],[3,-32],[-73,-9],[-30,18],[8,49],[-31,24],[-51,-46],[44,-24],[5,-26],[-71,-14],[-10,-39],[-21,3],[-16,32],[-128,-45],[-45,15],[-17,59],[-70,-21],[-42,10],[33,62],[-35,44],[14,78],[36,53],[19,-13],[-7,-30],[43,-12],[20,-46],[-7,-38],[37,-3],[26,18],[54,-30],[50,58],[84,-75]],[[20060,21200],[2,-81],[45,-32],[-5,-35],[-32,-12],[1,-55],[-20,-6],[-23,124],[17,31],[-104,28],[-21,75],[34,25],[29,-34],[32,9],[8,40],[34,16],[-57,84],[51,40],[50,5],[44,73],[129,-98],[-49,-24],[-30,-73],[49,-23],[50,35],[-10,-93],[134,-37],[10,-18],[-34,-23],[-54,19],[-120,-78],[2,-49],[-31,-34],[24,-69],[-38,-28],[-16,22],[26,29],[-43,23],[-6,37],[48,20],[4,21],[-49,35],[4,58],[-35,10],[-2,36],[-48,7]],[[23073,22844],[40,90],[22,0],[20,-31],[25,57],[42,-27],[-4,-24],[-102,-37],[0,-62],[16,-15],[64,23],[80,-91],[-19,-22],[-37,22],[-2,-30],[-50,-37],[52,-86],[31,-12],[-4,-54],[-17,-2],[-12,57],[-33,13],[-8,40],[-36,5],[-57,-40],[-38,5],[-37,106],[-113,-21],[-43,-28],[-27,24],[31,26],[1,47],[28,41],[-12,69],[22,-5],[12,-67],[49,6],[21,21],[28,-7],[67,46]],[[20769,19200],[7,-28],[20,9],[-4,-44],[-24,-20],[-68,12],[-78,-29],[-34,42],[-7,-32],[-38,-11],[-90,23],[-8,40],[-82,-12],[-118,52],[2,20],[68,25],[20,30],[40,-49],[37,48],[24,-10],[31,-61],[99,-15],[52,77],[65,-8],[36,80],[69,47],[35,-12],[20,-50],[-53,-46],[9,-44],[-28,-10],[-2,-24]],[[19419,19394],[43,-8],[-2,-30],[60,-14],[7,-71],[52,-21],[16,3],[-13,29],[-37,15],[36,25],[-30,70],[28,15],[41,-10],[30,-54],[-35,-41],[-27,-1],[25,-49],[43,-5],[-1,-33],[23,-17],[96,23],[-10,-41],[22,-29],[-53,-70],[-72,17],[-15,29],[-77,-35],[23,-68],[24,3],[26,-35],[-46,-80],[-17,-121],[-48,-55],[-8,-73],[20,-26],[-43,-88],[-26,19],[13,48],[-20,28],[33,84],[-27,52],[35,37],[-28,33],[0,95],[-20,4],[-41,-39],[-31,10],[27,24],[14,51],[48,17],[37,75],[10,136],[-30,14],[-8,-36],[-33,-25],[-3,-121],[-65,14],[-18,33],[10,53],[-26,18],[99,34],[8,24],[-79,70],[-32,-10],[-18,14],[50,44],[60,-23],[-20,69]],[[27474,18769],[-51,-11],[-8,-65],[-26,10],[-11,-157],[-51,-2],[19,26],[-29,79],[17,45],[-78,104],[50,85],[63,7],[16,36],[-24,15],[-118,-20],[-16,20],[61,29],[64,-14],[42,27],[-33,50],[16,50],[-23,38],[28,80],[35,-20],[0,-44],[38,-7],[1,-56],[30,-24],[-12,-26],[33,-14],[54,51],[24,58],[-46,37],[12,70],[21,9],[2,-54],[19,9],[19,-19],[34,-78],[-27,-197],[56,-106],[-58,-29],[4,41],[-81,61],[-12,-29],[52,-43],[-22,-49],[-30,-8],[-19,32],[-35,3]],[[22262,20130],[-62,-4],[-69,-33],[-32,-50],[-41,17],[49,27],[-8,29],[74,106],[77,27],[1,34],[22,-1],[20,31],[-3,27],[-91,1],[-10,27],[53,22],[61,-23],[19,33],[-28,84],[-47,11],[-42,-25],[-11,27],[77,53],[15,35],[27,-9],[-6,-48],[48,-19],[9,63],[-22,25],[1,59],[44,95],[108,10],[-13,52],[30,45],[-8,23],[-58,7],[-35,-45],[-42,23],[27,64],[-51,37],[12,40],[-19,28],[30,30],[34,-32],[26,1],[0,-42],[70,-69],[74,-12],[-29,-51],[-1,-56],[53,-17],[36,46],[28,-8],[-1,-39],[-51,0],[-11,-70],[76,-25],[15,-38],[39,3],[10,-35],[61,-49],[2,-27],[44,-5],[30,-48],[-104,-26],[-126,15],[-10,-37],[-37,10],[-59,65],[-38,8],[-8,-18],[36,3],[73,-66],[43,-6],[102,7],[126,-41],[-97,-46],[-129,-24],[-136,-105],[4,-25],[-32,-47],[59,-49],[118,79],[-2,49],[-58,16],[3,25],[94,-11],[35,30],[46,-16],[41,51],[26,-10],[-100,-121],[2,-47],[-32,-13],[26,-32],[-7,-32],[-88,13],[-21,-51],[-49,-26],[-6,-82],[-17,-14],[-148,-29],[-13,45],[-51,-12],[-15,24],[-27,1],[-56,105],[38,50],[-17,28]],[[17884,8081],[-34,28],[-17,-17],[-38,4],[-34,58],[-5,59],[-24,-9],[-29,31],[-63,-5],[-34,28],[-8,48],[-26,-4],[-40,-62],[11,-26],[-18,-46],[-45,4],[-23,28],[19,38],[-20,19],[-33,-7],[-8,22],[108,66],[121,42],[41,-23],[96,12],[18,-27],[47,-2],[17,58],[48,19],[-6,65],[32,29],[45,1],[11,-47],[-64,-38],[-19,-46],[21,-87],[-49,-51],[52,-45],[-28,-57],[20,-58],[-14,-15],[-28,13]],[[13380,10327],[0,15],[-66,-26],[-29,14],[7,67],[-45,44],[20,28],[-13,74],[-61,74],[-13,65],[-39,2],[-36,53],[-45,119],[-46,8],[5,23],[85,22],[-41,74],[-63,19],[-66,-36],[-110,20],[11,23],[31,-9],[25,16],[64,96],[24,-33],[58,-25],[113,-5],[-12,35],[-71,-12],[-46,58],[13,27],[42,-4],[-20,-31],[22,-29],[33,29],[34,-18],[53,7],[37,-37],[100,21],[3,-26],[-93,-22],[-12,-18],[68,-73],[82,30],[-24,59],[62,11],[15,-92],[22,-25],[-23,-29],[44,-78],[5,-66],[104,-39],[22,-28],[-11,-31],[22,-17],[-9,-52],[-61,-54],[-50,40],[-22,-13],[23,-95],[-73,-39],[53,-249],[-55,-17],[-25,18],[1,42],[-34,-20],[17,-94],[-10,-89],[67,-93],[-38,-72],[13,-47],[-50,-61],[-6,-1],[-12,6],[-5,8],[0,5],[3,7],[1,4],[0,3],[-2,4],[-3,3],[-3,2],[-11,3],[-71,-59],[-43,60],[-40,-1],[-15,54],[19,54],[46,26],[21,64],[4,3],[3,1],[3,2],[7,12],[8,5],[36,48],[-8,52],[71,148],[9,58]],[[16928,8159],[19,14],[56,-23],[87,-167],[-5,-32],[72,-80],[-86,-97],[-33,6],[-60,137],[-84,120],[-26,81],[60,41]],[[13361,12731],[-62,27],[-70,-51],[-147,-1],[-40,-34],[-31,2],[-2,24],[63,59],[42,-19],[14,34],[33,4],[4,26],[-203,154],[-18,75],[26,2],[12,-42],[35,-1],[9,-44],[84,-70],[41,12],[-1,30],[37,5],[1,66],[21,24],[-39,20],[0,19],[52,10],[33,-18],[72,20],[16,-49],[48,-11],[54,21],[30,-11],[28,43],[43,20],[7,-19],[-36,-34],[7,-66],[24,-7],[34,38],[21,-7],[-22,-39],[15,-56],[-129,-5],[16,-44],[-85,-26],[-22,-31],[0,-45],[28,-36],[29,6],[2,44],[24,-4],[-11,-54],[75,-26],[7,-51],[82,21],[13,-32],[69,-46],[-27,-42],[52,-52],[-37,-16],[-41,32],[-64,-32],[-29,11],[-80,-20],[-4,43],[33,40],[32,7],[-4,-41],[23,-6],[43,43],[11,60],[-51,-6],[-54,25],[-21,-23],[-28,9],[-7,43],[-80,98]],[[12031,12248],[-185,-65],[10,23],[-31,107],[21,15],[28,-24],[27,22],[-52,106],[14,66],[-20,26],[33,14],[1,32],[30,27],[39,-23],[28,19],[80,85],[7,7],[8,5],[2,2],[4,49],[16,3],[81,-102],[14,10],[-30,48],[8,22],[73,-58],[-8,-24],[-46,-13],[119,-161],[9,-38],[-20,-50],[23,-20],[36,-13],[29,18],[48,-51],[59,-14],[61,15],[26,-21],[50,3],[-5,40],[29,17],[38,-18],[2,-39],[62,21],[59,-46],[0,-25],[-68,-59],[8,-66],[-40,-62],[43,-58],[-10,-47],[53,-17],[2,-22],[-37,-23],[7,39],[-16,4],[-42,-20],[-16,-46],[-34,4],[6,82],[40,5],[4,29],[-38,24],[-6,38],[-99,15],[-117,138],[-28,-7],[-9,-24],[-16,-11],[-40,-23],[-12,-11],[-10,-4],[-4,-5],[-5,-3],[-49,1],[-109,97],[-33,64],[-98,-3],[-4,-26]],[[15519,12676],[2,53],[-42,23],[-5,68],[-57,12],[-73,-31],[-21,25],[-40,-7],[-53,40],[31,43],[-64,30],[-58,-9],[4,25],[51,0],[24,23],[-22,46],[11,21],[45,-26],[21,28],[21,-7],[2,-46],[-33,-37],[49,-18],[-14,-29],[29,-31],[-24,-25],[47,-7],[-4,61],[51,8],[-19,40],[-36,-7],[-13,15],[65,46],[60,-134],[61,-9],[9,-25],[36,-11],[-35,-61],[59,-44],[-5,-22],[-33,1],[1,-21],[25,-37],[37,-5],[-12,-43],[80,29],[12,39],[23,-5],[-22,-102],[-44,-62],[86,-4],[12,-20],[-47,-25],[-23,13],[-2,-33],[54,-32],[76,33],[5,-55],[-141,-51],[-43,9],[-12,61],[-82,-26],[-9,21],[70,46],[-42,43],[-21,85],[-76,11],[8,30],[65,-8],[-16,55],[11,32]],[[15086,14122],[-67,46],[-30,-57],[-24,-6],[-9,42],[-64,15],[-32,71],[23,9],[35,-30],[35,28],[11,-37],[45,-6],[17,-25],[46,15],[-2,-39],[19,-11],[11,40],[25,-22],[80,-9],[38,-32],[80,38],[14,27],[27,-12],[-3,-43],[-116,-136],[56,-27],[-46,-61],[21,-89],[-89,-14],[-29,-68],[-97,-8],[-25,19],[-8,53],[34,24],[2,46],[-43,27],[34,60],[58,10],[11,18],[5,75],[-43,69]],[[16689,8183],[-33,29],[-32,-6],[-67,144],[-39,10],[-27,59],[-42,20],[-12,43],[24,41],[-4,53],[90,-18],[31,-43],[-8,-26],[52,-53],[-12,-61],[69,-10],[17,-24],[10,1],[4,1],[2,2],[26,33],[48,-27],[-5,-40],[-35,-9],[-1,-66],[-3,-4],[-4,-3],[-2,-1],[-4,-3],[-5,-9],[-8,-6],[-7,-15],[-23,-12]],[[17743,14576],[14,48],[-19,35],[58,36],[33,-45],[-22,-42],[29,-106],[80,70],[55,-32],[95,9],[8,-38],[-77,-194],[-43,-43],[-34,32],[-40,6],[-5,33],[-27,13],[31,70],[-37,12],[-99,-124],[-31,-97],[12,-32],[-18,-19],[28,-43],[-35,-21],[12,-32],[-26,-14],[2,79],[-86,143],[57,65],[16,57],[-18,51],[18,26],[-28,18],[-11,-41],[-35,-18],[-4,-35],[-45,-11],[-25,-46],[-94,20],[-32,-18],[-26,23],[-51,-25],[-27,65],[40,164],[67,43],[-28,24],[-91,-7],[3,19],[76,28],[17,26],[-4,89],[72,28],[109,-26],[-7,46],[-28,22],[40,93],[-16,19],[-4,92],[-23,50],[-30,2],[-12,41],[-23,7],[-2,33],[49,-10],[9,42],[30,-1],[28,27],[8,78],[26,-8],[20,-100],[-5,-19],[-41,-1],[17,-50],[-27,-35],[62,-131],[-23,-28],[21,-27],[-39,-113],[8,-99],[-24,-71],[13,-13],[69,9],[14,-33],[76,-45]],[[17653,13539],[-11,55],[78,67],[-10,122],[15,26],[-26,27],[1,37],[64,-7],[-19,-41],[19,-47],[28,-16],[-8,-46],[54,13],[29,101],[54,39],[-26,-73],[18,-26],[-9,-70],[-61,14],[-39,-32],[21,-31],[-36,-46],[33,-32],[24,5],[2,-42],[-98,-25],[-38,-34],[-14,-62],[29,-18],[-12,-41],[23,-35],[-9,-18],[-95,51],[44,85],[-25,100]],[[20175,11816],[16,-35],[-16,-32],[-49,-10],[-26,-59],[-23,14],[10,49],[65,60],[15,55],[-39,40],[-79,-50],[37,-28],[-2,-29],[-57,15],[-21,33],[-75,-45],[12,-26],[51,7],[-32,-38],[-33,9],[-29,-19],[-17,33],[-23,-2],[-57,-40],[-3,-37],[-44,27],[39,83],[68,-18],[43,15],[-52,85],[119,57],[22,-34],[46,8],[11,-18],[81,68],[52,1],[81,95],[69,21],[82,-16],[17,70],[118,35],[38,50],[41,12],[-26,47],[40,8],[21,48],[25,-4],[16,-41],[-48,-26],[8,-33],[-28,-42],[-28,6],[-19,-23],[-23,-79],[28,-35],[-63,-2],[6,-43],[-21,-43],[-26,-4],[-18,26],[-42,-42],[-49,2],[-20,-32],[24,-39],[-48,-64],[-54,31],[-25,-17],[-36,8],[-21,-22],[-29,9]],[[17469,11150],[45,22],[-43,129],[36,37],[79,-24],[-27,42],[7,29],[58,40],[23,57],[24,5],[-28,-100],[-51,-33],[31,-31],[-1,-28],[75,-60],[-16,-41],[14,-62],[-33,-16],[-37,22],[-26,-14],[-54,49],[-105,-54],[-13,-69],[-35,-7],[5,43],[-22,37],[19,26],[-6,60],[24,4],[57,-63]],[[11812,13170],[22,9],[9,-26],[-56,1],[3,-57],[-65,-47],[-62,6],[0,-98],[-27,-19],[-3,-28],[42,-35],[27,10],[20,-51],[40,17],[82,-94],[-75,-52],[-75,-18],[-69,74],[-20,82],[-73,19],[4,51],[53,37],[-23,40],[45,36],[-22,36],[53,25],[-58,82],[94,-4],[9,-35],[34,-10],[32,93],[-21,87],[-33,-59],[-31,10],[50,62],[4,71],[-61,10],[17,37],[-50,14],[-12,52],[24,29],[-5,70],[-54,29],[-17,76],[-81,27],[0,55],[-55,100],[40,31],[-16,40],[4,139],[-49,0],[-22,48],[48,54],[12,99],[30,10],[16,35],[-12,32],[-50,-23],[-19,12],[48,48],[36,4],[4,0],[2,-1],[30,-48],[40,1],[14,-22],[42,57],[39,-22],[-56,-96],[-2,-69],[-46,-26],[12,-40],[32,10],[3,1],[7,-1],[4,1],[7,0],[67,-23],[-23,-72],[27,-38],[-1,-47],[-138,-25],[-25,-18],[-2,-4],[-2,-5],[0,-1],[-1,-4],[0,-4],[4,-8],[3,-2],[3,-2],[4,0],[89,20],[56,-35],[12,-122],[-25,-53],[45,-51],[45,10],[28,49],[26,-9],[-36,-68],[25,-35],[-37,-10],[-39,-69],[49,-15],[16,37],[27,-11],[3,-125],[-39,-48],[7,-42],[-1,-4],[-1,-6],[-1,-19],[-37,-33],[34,-95],[24,-1]],[[17133,8769],[-42,31],[-161,4],[-32,18],[-5,35],[-29,9],[-52,-31],[-23,-64],[-23,2],[14,69],[-58,2],[-10,50],[40,14],[-4,66],[43,11],[3,24],[-86,115],[26,36],[46,12],[7,45],[22,-1],[7,-41],[33,-6],[38,-41],[17,-90],[53,20],[60,-29],[14,27],[46,19],[56,-28],[23,-61],[31,-20],[-12,-122],[-26,-18],[-16,-57]],[[12788,11312],[36,-15],[-5,-25],[-40,27],[-33,-17],[-24,7],[-21,-7],[-13,7],[-4,1],[-4,-1],[-63,-40],[-37,-59],[-121,-17],[-50,66],[33,28],[91,18],[24,31],[-35,80],[-90,-25],[-32,29],[123,64],[18,-5],[21,4],[13,-2],[12,2],[30,2],[10,-1],[19,6],[74,2],[68,31],[61,63],[54,-3],[6,-17],[-37,-36],[86,-37],[-20,-40],[19,-50],[-18,-12],[-39,15],[-112,-74]],[[17158,12808],[19,-2],[65,94],[-2,32],[45,52],[-15,37],[26,2],[14,-57],[-28,-36],[15,-55],[-23,-27],[3,-85],[54,4],[17,-27],[46,7],[12,19],[-25,31],[65,28],[19,-19],[-28,-28],[25,-61],[-13,-35],[77,-14],[31,-53],[94,24],[62,-10],[5,-23],[-98,3],[-70,-26],[-31,21],[6,34],[-74,8],[-25,28],[-52,-50],[-39,45],[-62,-57],[-106,-5],[11,-128],[-33,16],[-28,-33],[-43,3],[-52,28],[-22,67],[45,0],[43,39],[-42,60],[-35,-17],[-56,30],[-5,53],[-67,44],[-2,29],[-35,23],[30,25],[2,35],[42,16],[37,-15],[33,32],[-17,42],[23,24],[-14,25],[18,38],[106,-71],[-3,-71],[55,-93]],[[14382,10764],[59,23],[-2,80],[40,-8],[24,37],[-23,41],[30,71],[74,-39],[66,7],[2,-31],[33,-15],[42,61],[56,-42],[-21,-207],[28,-38],[54,10],[16,22],[-20,91],[21,58],[23,-3],[-10,-21],[46,-27],[87,22],[29,50],[-9,30],[-56,-1],[28,108],[-94,191],[83,32],[37,0],[12,-19],[12,-50],[-25,-22],[22,-64],[128,25],[73,-63],[0,-82],[-33,-4],[-13,26],[-26,-12],[29,-47],[180,-19],[27,23],[21,-28],[41,-9],[99,41],[39,91],[38,5],[4,18],[-38,30],[-29,-33],[-122,1],[8,49],[-41,5],[7,69],[82,27],[40,-24],[19,28],[8,-21],[30,-5],[-6,118],[-56,52],[-28,2],[-54,-32],[-78,7],[-54,-27],[-2,34],[-40,33],[2,55],[172,32],[69,50],[-5,17],[-62,18],[18,89],[110,-41],[68,30],[23,-16],[-21,-43],[16,-17],[73,14],[97,-27],[-15,-42],[-77,-52],[-18,-36],[31,-27],[-1,-101],[16,-4],[-28,-60],[6,-33],[36,2],[-7,-30],[31,42],[129,58],[71,1],[84,-30],[-16,-104],[-103,4],[-85,-15],[-28,-25],[68,-55],[103,48],[23,-88],[50,1],[18,-133],[-41,-57],[58,-37],[2,-136],[57,-21],[36,-48],[55,77],[-93,107],[-6,50],[86,108],[76,10],[-25,46],[48,72],[-20,24],[-124,-73],[-51,31],[1,34],[84,52],[-7,26],[28,48],[-10,45],[31,13],[30,-17],[110,34],[6,-41],[-117,-68],[19,-17],[31,11],[28,-35],[-42,-35],[30,-21],[69,50],[-14,33],[17,15],[48,-37],[97,25],[-3,33],[-42,6],[-15,59],[71,26],[0,38],[47,15],[2,58],[36,-14],[34,12],[46,-54],[-27,-46],[23,-119],[-55,-42],[-84,2],[-50,-61],[36,-49],[49,-6],[-19,-48],[9,-40],[58,-103],[78,34],[16,77],[59,5],[-9,41],[-52,-13],[-20,18],[74,73],[26,-18],[-43,-29],[19,-26],[70,35],[14,41],[45,3],[36,-13],[28,-71],[34,14],[25,-24],[-36,-18],[-7,-83],[-65,-66],[-56,-14],[-22,41],[-32,7],[13,-57],[-24,-31],[-130,-70],[-85,32],[-39,-47],[15,-44],[-111,-21],[-31,-109],[44,-20],[22,-41],[-80,-38],[1,-74],[-95,-57],[-13,-74],[53,-51],[28,-73],[43,29],[9,-38],[-43,-47],[12,-24],[56,39],[32,-4],[62,-59],[90,31],[151,-110],[18,67],[30,5],[-35,-121],[-53,-50],[60,-81],[78,-27],[32,7],[23,-61],[43,2],[30,-88],[-102,-30],[-12,-57],[21,-33],[153,-22],[20,-70],[-189,-53],[-51,106],[-157,-63],[-56,98],[31,18],[-2,19],[-53,-4],[-65,89],[-57,-23],[10,-29],[-16,-16],[-22,38],[-75,14],[-64,73],[1,26],[-47,18],[-4,3],[-16,16],[-2,2],[-1,6],[7,22],[2,3],[75,36],[34,-53],[-24,-40],[90,17],[31,-28],[10,37],[40,30],[-63,45],[-34,136],[-28,36],[-28,-16],[-22,25],[-39,4],[-26,-24],[-55,60],[-42,-41],[-37,-2],[-21,-96],[-48,9],[-70,-62],[3,-2],[1,-3],[2,-4],[-3,-9],[19,-26],[42,-9],[-11,-44],[33,-58],[-38,-30],[5,-32],[36,-51],[44,-10],[-9,-37],[-26,23],[-38,-7],[-101,248],[25,50],[-2,1],[-1,1],[-3,3],[-6,13],[-33,37],[-14,2],[-9,-41],[2,-4],[3,-4],[0,-2],[3,-3],[1,-2],[1,-3],[15,-13],[-1,-15],[-19,-28],[-42,12],[-19,32],[-3,9],[-2,3],[-5,5],[-9,15],[-12,26],[-12,16],[-3,12],[-106,144],[-13,44],[-17,15],[9,31],[-19,31],[21,41],[-22,26],[18,31],[-76,77],[-15,-15],[38,-51],[8,-48],[-11,-32],[-75,-41],[23,-27],[-38,-62],[-62,-50],[-78,69],[90,-89],[-18,-22],[-96,-44],[-112,85],[-49,-2],[-21,-39],[-142,64],[8,25],[-27,12],[165,-2],[136,115],[37,78],[-20,15],[-99,-116],[-48,25],[160,268],[35,237],[-24,-1],[-56,-282],[-32,-47],[-7,19],[-43,-91],[-23,53],[-44,-65],[-20,-87],[29,-9],[-29,-1],[-13,20],[40,96],[-55,73],[-105,71],[-165,30],[-30,-6],[-70,-73],[23,-46],[-25,18],[-49,-22],[-72,14],[-144,-80],[-34,-119],[-60,-60],[-81,14],[-99,-33],[-38,35],[-30,-1],[18,-74],[-141,-149],[-32,41],[-31,-19],[-14,30],[-77,6],[-31,-23],[-56,27],[-45,-11],[-40,44],[-69,32],[-113,-40],[-125,-2],[41,73],[114,38],[142,-32],[21,-55],[36,-5],[5,-27],[33,0],[36,52],[66,-40],[58,109],[-50,95],[34,49],[-23,15],[-78,-9],[-214,56],[24,96],[62,-11],[28,27],[-15,26],[-66,8],[-6,31],[176,59],[19,38],[43,-16],[72,56],[44,-2],[47,25],[27,-23],[35,18],[57,-11],[3,31],[61,14],[33,38],[-37,28],[23,128]],[[18424,7248],[-53,101],[-32,19],[-2,83],[-48,86],[-26,12],[1,23],[39,3],[107,-69],[34,6],[12,33],[40,-22],[11,30],[68,-28],[-10,-37],[43,-24],[5,-27],[-30,-12],[-47,31],[-14,-29],[87,-70],[4,-24],[-16,-23],[-68,19],[-101,-54],[69,-100],[6,-70],[95,-24],[1,-24],[-70,12],[-48,-20],[-19,33],[7,73],[-9,29],[-26,9],[-10,55]],[[17971,2693],[52,-10],[-14,-21],[-47,4],[24,-23],[-14,-33],[63,-45],[-18,-14],[-70,34],[-36,-7],[-30,-39],[23,-66],[-26,-27],[30,-59],[-18,-32],[-39,68],[11,82],[-50,14],[-21,30],[6,38],[-21,20],[14,78],[-21,6],[-20,-35],[-33,18],[13,33],[109,6],[22,43],[-7,50],[43,-6],[21,-35],[-11,-34],[65,-38]],[[23270,3030],[29,-16],[34,38],[34,8],[1,-79],[30,0],[38,37],[54,-29],[-3,-31],[34,-32],[85,10],[11,-25],[-64,-9],[-33,-27],[-31,28],[-90,-26],[-48,16],[-14,-38],[-51,13],[-14,-26],[-120,-31],[-27,91],[-28,19],[8,29],[-68,-25],[-1,53],[45,0],[118,66],[-17,66],[15,48],[22,-11],[-16,-43],[74,18],[39,-22],[-61,-26],[15,-44]],[[23959,5641],[-1,-96],[-88,34],[-19,-25],[-81,92],[97,-59],[-8,12],[39,45],[-23,13],[-23,82],[-118,35],[2,-32],[34,-3],[25,-30],[5,-42],[-67,13],[-52,-16],[-8,12],[25,-3],[11,26],[-13,-26],[-3,63],[-29,22],[7,34],[-41,23],[35,-28],[-15,-21],[37,-32],[-4,-33],[-53,-23],[-60,11],[-120,-53],[60,-42],[-28,-39],[25,-19],[58,29],[29,-27],[-5,26],[34,8],[23,-36],[-22,-33],[29,-14],[55,73],[62,41],[45,-36],[3,-40],[-40,-80],[71,-36],[-28,-41],[-60,31],[5,-51],[-22,-6],[-3,55],[-14,-10],[-47,36],[-22,-47],[-35,-21],[-12,21],[28,10],[14,40],[-64,16],[-18,23],[-97,-2],[-23,72],[-81,57],[-19,40],[-84,-27],[-16,-67],[-59,7],[-6,17],[33,35],[-35,35],[2,27],[76,-19],[18,34],[-85,19],[-88,48],[10,38],[32,16],[63,-62],[27,12],[-22,37],[12,17],[50,-19],[77,20],[23,87],[-46,66],[-20,97],[85,4],[45,-143],[36,-17],[117,27],[54,-83],[-41,95],[131,50],[-32,43],[54,41],[49,-24],[-37,-41],[-4,-38],[43,-22],[0,-20],[-38,9],[-30,-17],[3,-39],[33,-11],[-1,-42],[32,-2],[10,-30],[50,-20],[58,-13],[91,15],[15,-28],[37,18],[28,-29],[-13,-23],[-30,25],[-57,-9],[-21,-24],[-39,16],[-22,-61],[40,-18]],[[17031,3590],[-51,71],[-20,84],[23,20],[-10,41],[46,8],[10,39],[-34,17],[-11,84],[-42,-12],[-68,42],[15,24],[57,-15],[8,28],[23,5],[33,-48],[21,70],[66,28],[9,-38],[38,-3],[6,-18],[-30,-43],[-77,-8],[6,-36],[124,-43],[32,13],[14,-17],[-33,-23],[-28,-87],[27,-21],[2,-37],[-49,-22],[-76,-97],[-31,-6]],[[18092,4365],[-79,31],[-13,26],[-66,0],[1,-24],[-18,-3],[-51,22],[2,16],[46,27],[35,-21],[28,10],[5,69],[35,-28],[-4,-60],[83,-50],[77,-13],[52,33],[56,4],[36,80],[19,-42],[38,16],[74,-45],[-18,-23],[-28,28],[-15,-26],[22,-34],[-33,-84],[37,-26],[-16,-57],[-48,14],[-37,-45],[-135,65],[-19,-69],[-31,-24],[-41,48],[42,16],[7,24],[-46,57],[54,21],[18,27],[-23,14],[-52,-15],[6,41]],[[19455,7272],[21,159],[-35,-2],[-4,38],[-34,12],[-30,-3],[-16,-26],[-19,8],[-6,65],[-26,11],[-22,-26],[-22,11],[28,46],[73,-34],[35,24],[72,-30],[93,-5],[5,-45],[38,15],[19,-13],[-17,-35],[-49,-23],[-49,8],[-12,-102],[-37,-85],[28,-72],[-45,1],[-11,-18],[38,-66],[-47,-5],[-101,-118],[22,-100],[45,-8],[-45,-29],[32,-30],[-16,-25],[-31,11],[-29,-33],[-46,47],[-31,-85],[-40,-28],[-95,51],[-6,34],[-76,-58],[-6,24],[40,28],[12,52],[-41,29],[-42,108],[-28,9],[-45,-13],[-29,-45],[-17,9],[0,49],[-59,-13],[8,-59],[-125,-23],[0,40],[57,-3],[29,19],[-6,35],[50,26],[62,-12],[61,43],[26,57],[47,-24],[48,15],[7,-38],[59,-38],[26,31],[52,0],[20,23],[72,3],[94,35],[38,64],[-26,39],[28,25],[-3,39],[-32,30],[71,-1]],[[19955,2464],[-129,27],[12,67],[-80,102],[22,33],[-43,74],[-116,18],[32,48],[63,11],[-57,38],[16,58],[66,-12],[113,64],[41,-142],[34,33],[27,-8],[14,-30],[102,-29],[11,-171],[-21,-27],[27,-80],[-66,-29],[-13,26],[40,18],[3,22],[-102,0],[-20,-21],[31,-30],[-7,-60]],[[19793,4855],[-62,34],[1,89],[110,29],[10,46],[29,15],[33,70],[57,-8],[24,27],[83,10],[5,-23],[-41,-31],[-1,-79],[-55,3],[-14,-27],[-44,-10],[-5,-38],[-64,-19],[-6,-25],[-43,17],[-40,-24],[6,-25],[39,-6],[-22,-25]],[[18764,5809],[12,39],[29,0],[-9,-57],[-55,-38],[136,-92],[36,-43],[-13,-35],[28,-1],[15,-24],[-53,-58],[64,10],[20,-36],[48,17],[1,-167],[-51,-10],[-17,-194],[-48,-67],[-26,6],[10,36],[-32,34],[-33,-15],[-53,30],[16,42],[32,13],[-22,14],[-4,85],[-31,36],[-61,-6],[-60,-76],[-21,32],[-49,18],[-84,-79],[-32,-4],[3,-29],[22,-7],[-5,-42],[25,-8],[7,-33],[56,-24],[58,23],[72,-18],[36,41],[26,-7],[-32,-56],[-52,-12],[-35,26],[-45,-5],[-11,-41],[-33,-11],[-44,50],[-22,-23],[-33,0],[-12,84],[-101,-3],[-11,25],[-42,3],[8,31],[48,3],[24,55],[-94,54],[-19,-21],[5,-48],[-102,7],[10,-39],[-31,-12],[-6,-67],[-25,-35],[-10,42],[-37,24],[69,50],[16,48],[-104,-5],[-55,18],[-37,-24],[-68,39],[12,59],[-26,20],[-25,-62],[-15,16],[-5,25],[43,46],[143,25],[154,58],[5,44],[32,20],[-12,46],[76,54],[69,25],[14,-26],[114,-37],[46,35],[31,112],[197,27],[-46,19],[25,73],[14,-36],[29,-17],[13,11]],[[11073,20444],[30,154],[-8,75],[30,45],[29,-23],[13,-52],[40,-3],[4,-43],[-49,-105],[-37,-22],[-7,-82],[-27,-17],[-24,22],[-34,-2],[-41,-40],[7,-34],[-26,-24],[19,-33],[-39,-78],[17,-25],[-17,-34],[-50,-5],[-90,-66],[-30,0],[-20,-34],[-35,-1],[-113,-89],[-13,25],[72,54],[-35,64],[48,38],[-12,40],[23,3],[-2,-39],[51,-36],[-4,27],[127,89],[43,69],[43,-3],[12,143],[105,42]],[[19167,23777],[46,-38],[73,48],[6,31],[27,-7],[-22,-53],[17,-25],[-10,-17],[-45,18],[-48,-77],[-8,50],[-30,9],[-8,-31],[-55,-38],[-33,-59],[-61,-19],[-22,-37],[22,-26],[-18,-32],[-66,19],[-23,52],[39,26],[19,81],[-52,117],[-38,14],[26,-40],[-15,-19],[-37,22],[5,37],[-34,58],[35,59],[40,-17],[-22,-46],[18,-31],[31,-5],[12,-26],[82,-16],[-41,-33],[-3,-41],[54,1],[67,39],[15,56],[57,-4]],[[6969,18683],[-64,23],[61,-9],[6,48],[-33,3],[-4,-18],[-22,22],[-30,-51],[16,49],[-18,32],[66,-12],[25,26],[29,-23],[58,11],[17,45],[15,16],[3,7],[1,2],[7,17],[3,5],[0,43],[19,19],[-14,84],[-8,7],[-5,1],[-4,3],[-5,5],[-22,58],[-23,13],[24,31],[-25,127],[19,0],[13,-26],[33,3],[6,53],[15,26],[1,0],[14,2],[12,-53],[159,1],[25,74],[18,-5],[3,-30],[59,-14],[99,15],[43,-16],[110,24],[1,54],[22,20],[-44,27],[31,16],[19,42],[55,-2],[50,33],[37,-7],[9,-42],[-87,-5],[-21,-33],[11,-33],[-16,-22],[17,-23],[-26,-52],[155,-23],[-12,-30],[-92,21],[46,-72],[86,26],[1,-22],[-59,-36],[-56,4],[-36,62],[-33,-17],[-45,46],[18,34],[-12,14],[-74,-17],[-15,-37],[20,-28],[-17,-15],[-46,68],[-116,-9],[-69,34],[-7,-17],[-38,-2],[-21,-33],[35,-24],[-4,-21],[-47,-1],[-18,37],[-71,-23],[12,-61],[-52,-36],[91,-176],[64,-15],[18,11],[-20,35],[29,13],[42,-80],[29,-7],[25,42],[33,-10],[51,26],[22,-8],[8,-39],[-28,-49],[-26,-3],[-40,49],[-64,-56],[16,-55],[89,-66],[-6,-24],[-94,-70],[-18,60],[17,15],[31,-9],[15,21],[-40,58],[-32,-8],[1,32],[-23,23],[-50,-24],[-11,-62],[-6,-6],[-17,-4],[-2,-1],[-3,-3],[-7,-4],[-3,-2],[-10,-19],[-147,-23],[-127,5]],[[11736,16977],[-43,-14],[13,47],[-149,97],[4,51],[24,-2],[19,-41],[55,71],[22,-10],[2,-34],[29,-12],[11,17],[-15,60],[-58,40],[-20,40],[-42,-34],[-29,38],[26,-3],[-1,40],[20,12],[49,-28],[26,-67],[58,10],[-23,109],[49,27],[-8,37],[18,12],[46,-40],[-25,-63],[43,-2],[15,-47],[-22,-21],[-24,40],[-50,-45],[58,-35],[-4,-32],[37,-46],[-29,-60],[-58,13],[40,-55],[-6,-45],[-58,-25]],[[12241,22736],[12,-3],[-46,-22],[-2,-18],[19,-18],[48,17],[9,-35],[36,0],[14,-22],[-100,-57],[-39,0],[9,-62],[-46,-30],[11,-63],[-22,-15],[-24,51],[16,20],[-12,27],[-65,11],[-19,21],[24,44],[103,41],[10,20],[-57,46],[18,45],[-37,5],[-8,32],[57,21],[-10,39],[22,7],[32,-91],[47,-11]],[[8690,19927],[18,11],[-7,22],[-75,12],[-67,47],[45,88],[-33,52],[46,28],[2,36],[51,56],[57,-41],[-4,-62],[56,-117],[73,15],[-16,-66],[43,-48],[-17,-17],[-87,17],[-14,-31],[-47,-4],[-39,-29],[-9,34],[24,-3]],[[10280,19291],[-2,35],[22,16],[18,-6],[-13,-56],[83,78],[40,-17],[30,17],[17,-10],[-77,-82],[8,-25],[-27,-70],[48,-51],[-15,-39],[-95,9],[-31,-29],[16,-39],[-59,50],[-49,-6],[31,72],[-50,-20],[-20,15],[125,158]],[[12741,18155],[27,45],[27,-1],[-77,-124],[-49,-21],[-26,37],[-120,28],[-27,76],[24,45],[68,-5],[-10,40],[22,11],[11,-104],[34,4],[73,-47],[23,16]],[[16333,27828],[-34,10],[-32,-65],[-32,-10],[45,-50],[39,-5],[-6,-25],[-36,-6],[-28,23],[-35,68],[7,31],[-47,21],[-8,-30],[-31,-3],[-4,-60],[-29,-22],[-18,-84],[-76,33],[7,74],[46,-3],[16,48],[-30,54],[-69,38],[-5,22],[70,10],[32,42],[24,-8],[8,-33],[38,24],[12,111],[-56,24],[-18,44],[60,27],[47,-21],[-3,-45],[27,-20],[3,-51],[80,-10],[36,-83],[38,27],[50,-28],[6,-68],[68,-76],[0,-42],[-28,-2],[-17,41],[-78,-2],[17,43],[-56,37]],[[17548,24341],[-1,20],[35,13],[7,-26],[-39,-19],[52,-37],[-46,-40],[26,-51],[52,-9],[20,-18],[-9,-26],[97,-55],[-29,-51],[-82,40],[22,41],[-38,-3],[-32,32],[-57,-72],[-51,6],[-27,59],[-69,3],[13,225],[108,-16],[35,-27],[13,11]],[[7661,18222],[-51,85],[-57,27],[-27,-7],[-53,45],[-68,-3],[-44,47],[23,15],[24,-37],[20,1],[54,55],[20,62],[-16,19],[4,23],[-2,3],[-9,8],[-3,6],[8,30],[-22,24],[5,16],[37,-1],[15,-87],[96,-41],[-32,63],[89,51],[-16,47],[20,18],[47,-34],[36,16],[19,-27],[-33,-42],[-55,9],[-9,-27],[27,-29],[-40,-13],[-21,-31],[51,-19],[51,35],[54,-22],[-5,-32],[32,-49],[-9,-47],[35,-15],[-11,-28],[39,-60],[-2,-6],[-3,-5],[-17,-4],[-20,29],[-25,-2],[9,-64],[-84,-39],[-33,7],[-32,-29],[-16,59]],[[10373,17068],[-28,-10],[-41,68],[-46,-6],[-35,-33],[6,-33],[-67,-54],[2,-44],[30,-12],[69,51],[73,-21],[32,40],[70,-10],[24,-20],[-9,-46],[44,-92],[34,-32],[39,30],[32,-37],[-3,-24],[-78,0],[-50,-35],[10,-38],[-64,-86],[18,-53],[-19,-41],[-24,-3],[-19,22],[23,45],[-37,2],[-37,72],[-43,17],[-52,67],[5,119],[-40,7],[-11,-45],[-29,-4],[11,86],[-76,81],[-63,-56],[25,-30],[-14,-20],[-70,6],[-27,28],[-34,-6],[-19,-36],[-103,-14],[2,38],[-58,68],[33,42],[-7,30],[-58,-13],[-210,261],[-171,120],[-95,-48],[-17,-8],[-27,-14],[-27,-14],[-5,-3],[-1,0],[-2,1],[-6,7],[-3,4],[-3,3],[-24,26],[-1,0],[-10,-5],[-5,-3],[-4,-1],[-4,-88],[-6,73],[-67,-59],[74,76],[5,3],[4,2],[6,2],[7,4],[89,44],[6,8],[44,17],[28,22],[29,4],[-14,7],[42,20],[60,72],[39,102],[-24,6],[-155,-200],[-169,-83],[-8,3],[-8,-1],[-7,-1],[-20,-4],[-6,1],[-2,-2],[-6,4],[-27,-30],[10,39],[-19,35],[-4,9],[-4,7],[-2,3],[-2,2],[-2,6],[-6,8],[-14,25],[-2,1],[-2,-1],[-4,-2],[-6,-2],[-10,-5],[-2,0],[1,1],[2,2],[5,2],[11,5],[4,3],[-17,30],[-34,-13],[0,-2],[1,-2],[1,0],[1,-3],[3,-5],[9,-17],[7,-12],[3,-9],[16,-12],[-18,1],[-32,60],[-1,1],[0,1],[0,3],[-2,5],[0,3],[56,27],[26,-32],[104,9],[17,34],[-23,24],[-87,4],[-105,63],[-69,-33],[-80,17],[-50,36],[-9,2],[-2,0],[-4,1],[-4,0],[-28,-4],[-17,-9],[-10,16],[-11,-24],[-6,18],[-125,48],[-63,-18],[-16,-28],[-39,7],[23,27],[-28,52],[82,26],[-3,46],[42,-5],[3,2],[2,4],[1,0],[2,3],[17,17],[10,9],[32,-10],[30,31],[32,1],[2,48],[51,55],[-50,41],[-55,-51],[-77,-20],[-55,9],[-53,-21],[-22,22],[-7,-16],[4,-6],[1,-11],[2,-3],[1,-1],[1,-2],[1,-5],[-37,-56],[35,-57],[-32,-11],[-36,78],[35,32],[-7,33],[4,8],[3,4],[9,4],[3,20],[13,7],[-32,17],[-3,33],[-60,84],[-85,62],[32,49],[43,23],[-42,7],[-15,24],[31,10],[41,-33],[44,22],[30,-20],[36,75],[-43,42],[-2,30],[15,35],[20,2],[74,-129],[35,-24],[73,-3],[38,-34],[13,-25],[-46,-34],[11,-35],[66,-39],[43,-60],[63,10],[-5,54],[43,22],[21,-54],[-18,-53],[56,-6],[52,31],[105,-32],[-17,-46],[42,-8],[19,45],[-19,141],[-89,17],[-13,41],[-24,6],[-59,76],[-95,56],[-1,37],[45,12],[60,-36],[5,-53],[65,-40],[10,-45],[48,-3],[4,-32],[24,-7],[4,50],[46,23],[28,47],[38,-6],[33,19],[3,-56],[70,-43],[37,25],[9,-54],[-26,-20],[30,-65],[62,30],[35,-24],[22,16],[-22,79],[48,-20],[16,23],[41,4],[32,49],[40,2],[-9,39],[29,4],[16,-25],[47,1],[27,-22],[50,100],[32,14],[0,42],[54,55],[4,29],[57,35],[18,44],[38,27],[-3,17],[-57,25],[6,40],[-128,42],[6,102],[76,7],[19,-19],[67,-5],[3,28],[-46,28],[20,19],[76,-33],[7,-28],[80,-31],[10,-22],[84,90],[82,-72],[73,23],[59,-47],[-37,-100],[84,20],[76,-44],[14,-40],[83,2],[18,-90],[-25,-5],[-26,33],[-78,22],[-9,-38],[29,-45],[-44,-6],[-15,-33],[-71,8],[-17,45],[44,40],[-58,0],[-13,15],[8,26],[52,-17],[-14,37],[-88,-16],[5,55],[-18,13],[-58,-57],[-118,33],[9,-40],[-46,-57],[-72,46],[-40,-41],[-35,12],[23,-31],[30,-4],[-12,-51],[58,-65],[54,18],[-15,80],[47,-55],[-10,-51],[98,41],[13,-30],[-16,-18],[-85,-13],[24,-28],[-1,-52],[97,-16],[23,-94],[-57,-19],[5,-58],[-72,-56],[-11,-64],[-24,-3],[-16,31],[-101,-57],[-48,38],[-25,-34],[-18,44],[-47,22],[-12,-24],[60,-90],[40,17],[64,-52],[5,-48],[43,-49],[80,26],[14,-22],[40,-4],[-7,-22],[-74,-2],[-15,-18],[-1,25],[-18,-4],[-28,-24],[12,-19],[157,7],[159,110],[54,-38],[-23,-59],[29,-24],[39,-13],[17,33],[79,4],[14,-37],[26,-8],[28,41],[12,-47],[-39,-10],[-116,-106],[-29,9],[-21,-21],[74,-37],[17,-54],[-114,-55],[-29,9],[-48,79],[-65,-11],[28,-69],[-69,-25],[-77,-65],[-31,-1],[33,-53],[-40,-40],[-28,-3],[-18,-35],[-44,7],[-107,-104],[58,-40],[-9,-49],[58,25],[105,-69],[37,29],[-16,34],[80,123],[59,48],[33,-47],[44,22],[4,19],[-37,29],[60,49],[34,-7],[29,18],[96,-20],[42,66],[94,35],[63,-11],[36,65],[52,-17],[42,43],[18,-15],[-8,-48],[38,-7],[34,21],[-39,79],[3,39],[28,-1],[9,-31],[31,10],[16,-14],[-15,-28],[12,-16],[-23,-20],[12,-38],[-36,-23],[20,-35],[-64,-2],[-2,-29],[40,-31],[-31,-16],[-31,-80],[-33,-9],[-12,-39],[-30,-17],[29,-37],[-12,-14],[-74,34],[61,59],[-45,21],[38,35],[-119,80],[-25,-24],[33,-19],[3,-25],[30,-6],[-26,-91],[-130,34],[-56,-23],[-60,-66]],[[3119,28294],[13,30],[27,-45],[14,52],[-7,-28],[23,21],[31,-56],[34,31],[-9,21],[19,-12],[-15,65],[-68,-20],[80,27],[44,-32],[30,-61],[63,21],[21,31],[129,-78],[39,5],[6,-40],[-37,2],[-12,-33],[-44,-17],[37,-30],[57,-2],[32,24],[2,0],[27,-9],[3,-2],[8,-10],[25,-4],[11,-7],[20,12],[10,-9],[4,-1],[6,1],[11,-5],[20,-25],[61,20],[8,-37],[-54,4],[-13,-24],[-12,-44],[27,-24],[-13,-18],[-68,57],[-6,25],[-3,4],[-3,3],[-12,6],[19,12],[-35,8],[-4,7],[-13,2],[-8,10],[-1,1],[-4,2],[-1,0],[0,1],[-6,8],[-3,1],[-24,-2],[-34,-64],[-115,40],[-31,-22],[62,-80],[41,2],[-7,-40],[50,-9],[4,-4],[4,-8],[1,-2],[1,-1],[4,-4],[2,-6],[-1,-24],[6,-4],[7,0],[5,-2],[9,-4],[61,-70],[31,-5],[20,38],[44,-5],[36,24],[-12,-82],[-44,4],[-4,-48],[-22,-10],[-18,48],[-85,8],[-19,54],[-17,14],[-4,1],[-5,0],[-16,-20],[-12,-3],[-1,0],[-2,1],[-1,0],[-4,2],[-20,47],[-62,-4],[-39,-36],[13,-30],[-20,-15],[-171,114],[-197,57],[-2,35],[39,17],[107,-2],[40,35],[83,-13],[66,43],[-24,16],[-27,-15],[-13,42],[-82,15],[-27,25],[-87,-7],[-11,35],[-70,25],[-1,21],[25,9],[55,-34],[9,20],[-22,23],[18,19]],[[4625,24527],[-22,12],[14,117],[-25,37],[122,26],[-11,23],[-86,-9],[-7,41],[97,4],[63,31],[16,-40],[-44,1],[-11,-21],[99,-162],[59,23],[-12,71],[17,47],[46,-36],[-12,-42],[51,11],[30,-15],[0,-37],[-38,-15],[22,-50],[-41,12],[6,-52],[68,-1],[-2,-31],[-41,-31],[33,-127],[91,-47],[-94,44],[-38,-7],[0,19],[-22,0],[6,30],[-59,7],[-1,28],[-31,-35],[-31,43],[-53,8],[-34,33],[-34,-3],[-91,93]],[[7550,23126],[76,-41],[4,-20],[141,-53],[12,-26],[-21,-7],[-83,46],[-60,-39],[21,58],[-100,69],[-38,5],[-40,-61],[-10,-64],[17,-28],[-45,-11],[-102,28],[-23,23],[3,45],[-64,33],[54,48],[25,-52],[48,14],[61,59],[64,7],[20,33],[42,-21],[-2,-45]],[[4346,33982],[17,-30],[-13,-20],[-35,32],[-32,-5],[-26,47],[18,40],[-34,6],[-12,50],[-71,-11],[12,-68],[75,-49],[-7,-87],[19,-34],[-29,-15],[-22,54],[5,80],[-87,10],[-5,31],[-51,47],[55,59],[-26,54],[45,64],[-17,58],[19,21],[66,-17],[40,-75],[24,-6],[83,-199],[-11,-37]],[[4451,30404],[-71,37],[-53,1],[-6,-2],[-4,-2],[-1,-1],[-10,-4],[-13,-10],[-24,26],[-70,-28],[-55,7],[-30,-25],[-12,18],[17,28],[-37,28],[-76,-10],[-90,30],[-39,36],[-8,-11],[-9,49],[10,13],[3,-33],[18,31],[17,-3],[12,57],[57,-44],[71,25],[-7,42],[58,57],[-11,40],[50,29],[-46,12],[-6,32],[112,55],[47,-3],[22,-56],[4,-2],[11,0],[16,3],[10,-7],[-13,-38],[27,-48],[43,14],[7,59],[-34,24],[-36,153],[-53,10],[-3,-1],[-4,-2],[-1,-1],[-4,-2],[-4,-2],[-40,5],[-39,-18],[-90,42],[61,21],[22,61],[40,37],[13,-5],[28,-35],[2,-3],[4,-2],[6,-1],[4,-3],[5,-6],[-5,-37],[-1,-1],[0,0],[-1,0],[-4,-1],[-3,-1],[-4,-4],[1,-13],[3,-3],[4,-2],[2,-1],[4,-2],[4,-1],[19,18],[25,-3],[13,-34],[75,-19],[50,53],[-7,73],[82,-24],[-3,40],[33,50],[-2,23],[-47,35],[-33,1],[-30,45],[65,53],[49,-77],[52,21],[25,-23],[-64,-87],[-4,-89],[-32,-33],[12,-35],[60,12],[20,53],[-12,30],[46,33],[26,-7],[-2,-40],[40,-9],[-82,-60],[13,-48],[-84,-13],[-2,-47],[-22,10],[8,27],[-25,46],[-42,20],[-37,-15],[-11,-37],[18,-30],[-56,-67],[9,-57],[64,12],[42,-36],[118,42],[59,-78],[-14,-22],[14,-11],[38,13],[-19,43],[12,20],[87,-1],[67,39],[55,3],[27,-44],[-24,-18],[-28,32],[-43,-6],[-45,-42],[-12,-49],[-99,-6],[-38,-89],[-72,-34],[-14,-27],[-31,-10],[-24,28],[-25,-3],[-33,-87],[73,-31],[150,48],[5,-27],[-73,-34],[36,-7],[-5,-35],[16,-6],[44,20],[26,-59],[-30,-34],[-39,58],[-25,3],[-49,-40],[-43,40],[18,23],[-58,-22],[-10,-61],[30,-38],[6,-26],[-6,-12],[0,-4],[0,-1],[1,-5],[-4,-10],[3,-8],[71,-49],[5,-40],[40,-17],[35,18],[8,-27],[-108,-97],[-72,10],[-18,-37],[-29,46],[-32,-24],[-26,0],[-3,-3],[-2,-4],[-2,-4],[-3,-3],[-19,-9],[-8,-65],[-85,-112],[69,16],[38,-26],[45,-48],[1,-11],[2,0],[2,0],[5,-2],[3,-3],[-3,-43],[-5,-5],[-11,-8],[-9,-25],[-21,-7],[-31,14],[40,31],[4,56],[-28,-51],[-54,79],[-23,4],[-31,-50],[-33,82],[-3,3],[-3,1],[-4,0],[-5,3],[-8,7],[-8,1],[-43,-20],[-26,32],[52,70],[-2,35],[54,17],[4,36],[-25,41],[42,30],[-31,27],[26,94],[47,45],[-18,45],[41,15],[17,15],[1,3],[2,7],[2,4],[3,3],[4,3],[70,19],[30,80]],[[4402,35992],[7,31],[71,-6],[77,74],[51,-10],[4,-28],[-39,-12],[-57,-57],[53,-38],[35,0],[34,-47],[-90,19],[-137,-81],[-14,20],[36,34],[-18,53],[-40,2],[-6,19],[78,22],[-45,5]],[[3921,32064],[-15,17],[-19,-12],[16,-29],[71,8],[3,-86],[56,21],[29,-22],[54,18],[47,112],[51,13],[29,-14],[52,48],[64,-61],[-123,-57],[12,-68],[-55,5],[-9,-33],[-37,-6],[-3,-29],[67,-16],[65,-65],[72,-21],[8,-55],[23,-16],[230,-16],[52,41],[13,38],[30,-38],[-30,-35],[-32,-3],[5,-30],[-47,14],[-39,-47],[-142,33],[-10,-72],[21,-25],[-25,2],[-51,-59],[-99,12],[-41,-109],[-25,-6],[-10,17],[21,44],[-32,27],[17,42],[27,-12],[76,67],[37,-37],[58,6],[-32,25],[13,67],[-24,21],[17,21],[-17,24],[-79,43],[1,28],[-57,0],[-92,-79],[14,57],[27,8],[14,31],[-44,33],[-21,-5],[-20,36],[-33,1],[-7,38],[-34,13],[-15,-13],[12,-41],[-77,-9],[-88,116],[-29,-22],[10,-26],[-17,-19],[-19,17],[13,63],[-53,-7],[-46,-35],[-57,25],[31,29],[38,-6],[51,29],[45,-19],[44,31],[4,125],[43,89],[-36,23],[-42,-49],[-22,18],[39,51],[68,4],[21,47],[15,-33],[-17,-90],[-20,-21],[7,-44],[-26,-38],[35,-63]],[[2130,33586],[-4,-36],[-2,32],[-50,14],[-29,42],[-47,5],[-31,31],[41,16],[5,70],[40,16],[-26,56],[-56,37],[-21,-33],[36,-15],[11,-27],[-21,-30],[-48,18],[-23,-112],[26,-21],[3,-72],[67,-5],[23,-28],[-23,-49],[-32,-18],[76,-34],[-81,-87],[29,-49],[23,1],[2,38],[13,-16],[-20,-29],[-41,-5],[-59,-79],[-114,-69],[9,-41],[-16,-27],[32,-77],[60,15],[-58,-20],[35,10],[23,-77],[-30,-58],[18,0],[-26,-10],[-25,-59],[-6,59],[-39,-13],[22,-96],[-45,-42],[28,-55],[49,-23],[42,8],[5,-27],[-26,-38],[60,-130],[-59,-28],[31,-13],[-4,-15],[-35,12],[1,-43],[-64,-14],[-17,34],[13,50],[-110,17],[-101,48],[5,49],[41,9],[39,112],[28,18],[59,179],[-13,42],[-30,-7],[-36,-45],[-15,30],[-31,3],[-4,54],[39,29],[-31,32],[-132,-131],[-37,-11],[0,-45],[-22,0],[-15,34],[-24,-15],[-4,-56],[22,-3],[5,-56],[-17,-28],[-28,9],[-27,70],[28,29],[-19,36],[-43,15],[57,32],[-2,32],[-23,8],[-26,-25],[-27,20],[-56,-20],[13,44],[-40,51],[-44,-27],[5,-30],[-46,-51],[6,-87],[-46,23],[-10,68],[-66,-13],[5,-35],[-25,-44],[25,-67],[-13,-34],[-8,-3],[-4,-3],[-2,-2],[-8,-2],[-5,-5],[-10,-3],[-9,-8],[-15,-1],[-3,50],[-42,20],[-61,-73],[-73,-1],[4,22],[35,6],[-3,37],[99,41],[-17,44],[33,25],[0,28],[-44,18],[-23,62],[30,-5],[15,-32],[9,1],[3,2],[3,2],[0,1],[3,4],[2,2],[12,5],[56,-9],[34,14],[39,-20],[9,16],[-41,38],[16,25],[22,11],[13,-62],[36,-7],[34,52],[78,28],[46,83],[-57,31],[-53,-28],[-27,71],[-26,14],[46,145],[-56,-28],[-43,11],[-44,-22],[-47,43],[-47,-15],[-55,39],[-51,-7],[-40,-17],[-3,-3],[-1,-5],[-1,-2],[-2,-4],[2,-42],[-24,-7],[-17,49],[14,44],[9,7],[1,1],[6,2],[36,-3],[10,16],[-8,73],[-38,31],[20,67],[-61,29],[-35,-20],[32,-27],[-4,-15],[-3,-2],[-8,-2],[-4,-1],[-10,-14],[3,-8],[15,-7],[5,-6],[2,-1],[1,-1],[1,-4],[0,-1],[-1,-1],[-2,-2],[-3,-7],[-3,-4],[-21,-13],[-22,-5],[-62,73],[14,49],[44,23],[6,12],[1,-3],[2,1],[1,-1],[1,-1],[1,0],[0,9],[33,15],[9,56],[78,-27],[13,13],[-13,28],[49,-17],[17,-36],[-23,-11],[8,-65],[-35,-11],[38,-85],[-15,-41],[46,-13],[52,-73],[92,10],[26,25],[41,-22],[76,19],[17,-32],[56,-25],[11,-34],[31,55],[66,-15],[26,39],[-12,44],[-114,-31],[-25,33],[10,21],[33,5],[15,84],[62,-3],[8,56],[50,29],[32,-18],[58,6],[-1,-65],[67,2],[102,48],[60,143],[73,-57],[1,110],[63,-15],[71,134],[-4,88],[41,16],[-56,71],[-3,34],[38,14],[-29,76],[-41,14],[-17,35],[-72,-1],[34,49],[-22,52],[16,31],[118,62],[78,-10],[7,-56],[-60,-26],[-36,-47],[32,-27],[-16,-46],[23,-54],[24,-11],[59,81],[2,38],[56,52],[-6,44],[78,32],[43,-21],[38,17],[37,-23],[62,44],[-34,48],[52,31],[-3,20],[-62,9],[-13,19],[70,53],[-41,34],[-93,-43],[14,59],[-43,98],[9,56],[164,118],[9,28],[-37,71],[81,20],[24,-28],[57,-6],[-12,56],[14,49],[-104,-19],[-27,75],[51,56],[34,-7],[52,40],[55,13],[9,-120],[-20,-20],[-20,-191],[-73,-94],[26,-45],[1,-112],[-32,-94],[-13,-197],[-33,-62],[33,-21],[-38,19],[-29,-23],[-54,-94],[-14,-61],[21,-79],[-91,-137],[-8,-67],[29,-42],[-13,-23],[14,-43],[-76,-55],[-8,-31],[32,-28],[-52,-56]],[[3394,34508],[-1,-40],[-41,-3],[-5,-34],[49,-103],[-95,-10],[-15,-44],[-41,25],[-44,-15],[-1,25],[75,33],[10,23],[-102,89],[5,47],[26,5],[46,-39],[59,11],[124,81],[30,87],[-51,22],[66,84],[-1,15],[-21,-11],[-38,20],[-3,35],[70,-7],[36,-104],[78,-13],[44,22],[33,-19],[16,-97],[-95,-47],[22,-17],[35,14],[70,-51],[-8,-62],[29,-27],[-7,-29],[30,-50],[-77,1],[-17,-39],[-52,11],[-41,-31],[-12,22],[22,30],[81,5],[16,98],[-61,47],[-21,-54],[-28,-6],[14,84],[-38,48],[-59,-15],[-30,17],[-81,-34]],[[916,35847],[-40,20],[-16,47],[13,22],[73,3],[-3,-43],[-33,-24],[71,-29],[9,-30],[65,-46],[60,-10],[123,82],[36,-74],[35,6],[30,53],[25,-21],[114,-12],[7,-30],[42,-24],[30,14],[8,34],[57,-1],[61,29],[86,-34],[48,74],[82,23],[51,-9],[-15,-48],[32,-75],[-35,-14],[-13,73],[-129,-34],[-30,-26],[-14,-31],[53,-105],[-106,-29],[-8,23],[-23,-1],[-52,-49],[2,-142],[23,-22],[-3,-31],[-45,-11],[-45,-81],[-39,-4],[3,-40],[-24,-33],[-32,-7],[-53,37],[-28,-25],[-50,5],[6,59],[77,45],[-3,51],[-72,15],[-35,-42],[-77,23],[1,-39],[-51,-53],[-78,-7],[-24,-36],[-35,12],[-6,-43],[-45,-7],[-45,20],[0,41],[37,42],[-8,31],[27,10],[100,-35],[22,112],[-18,24],[-118,14],[-5,56],[-58,0],[-6,-46],[-35,-12],[-103,12],[-22,-58],[-52,6],[6,41],[-32,16],[-66,-3],[-42,-69],[-25,10],[28,60],[56,34],[-4,32],[33,8],[19,59],[78,-10],[71,-67],[23,21],[34,-8],[13,53],[44,-26],[39,9],[-16,30],[-38,4],[-14,23],[-131,-24],[-16,14],[72,48],[91,200]],[[3900,31144],[-47,-58],[-72,3],[2,-39],[-22,-10],[25,-41],[-12,-13],[-97,23],[-119,192],[58,61],[6,-18],[35,2],[-2,27],[25,11],[-9,38],[-37,28],[-36,-14],[-52,46],[-9,11],[-2,3],[0,1],[-4,2],[-6,10],[-18,4],[2,62],[-56,38],[-176,-38],[-2,-3],[-3,-3],[-7,-7],[-1,-1],[5,-6],[-11,-15],[33,-3],[-29,-32],[17,-22],[-64,-54],[-51,16],[13,20],[-15,22],[-70,15],[-19,-35],[-22,18],[7,-27],[26,-2],[-27,-5],[-49,17],[-13,26],[-52,-3],[16,62],[39,31],[-6,34],[19,24],[2,2],[3,2],[13,6],[5,7],[-25,32],[21,59],[54,-20],[48,-62],[23,62],[59,-14],[13,14],[-23,23],[33,61],[-9,44],[-156,134],[-107,-36],[21,-30],[50,8],[14,-38],[35,4],[9,-17],[-71,-41],[-23,-51],[-53,-3],[27,-32],[-18,-27],[40,-26],[-25,-15],[-34,36],[-17,-5],[22,-55],[0,-1],[-3,-4],[-9,-4],[-26,8],[-18,-10],[5,-31],[52,-40],[-22,-37],[-48,4],[-50,-53],[-61,47],[9,40],[-23,24],[-72,-8],[-44,39],[22,26],[43,-37],[41,26],[43,-34],[33,19],[-21,34],[12,23],[0,4],[-2,6],[-5,9],[-4,15],[6,18],[-45,86],[-20,-2],[-14,-49],[-41,5],[43,75],[0,144],[108,70],[-26,63],[30,59],[-11,-35],[39,-2],[-6,40],[15,32],[18,-12],[19,101],[35,1],[15,33],[53,-26],[42,85],[34,4],[12,39],[16,-28],[40,-12],[52,46],[87,-20],[33,12],[7,-14],[-41,-32],[19,-29],[-14,-59],[-81,-13],[-31,46],[-26,-57],[-69,-4],[-40,-27],[42,-50],[-20,-29],[13,-39],[-32,-47],[91,-132],[97,-54],[101,30],[100,-5],[111,64],[32,-23],[80,3],[6,-45],[30,-34],[37,36],[36,-15],[-44,-66],[47,-14],[67,-135],[59,22],[25,-31],[-20,-39],[-132,-43],[20,-52],[69,-24],[52,47],[68,-4],[26,24],[62,-50],[-27,-40],[-49,14],[-29,-76],[-39,-7],[28,-50],[-18,-21],[-1,-3],[-1,-4],[-4,-8],[4,-12],[-8,-15],[25,-21],[50,16],[22,-32],[-13,-39],[97,5],[11,-25],[-46,-25],[-14,-51],[-30,-11],[-25,50],[-108,37]],[[97,34271],[14,56],[28,5],[43,49],[37,-30],[-4,-38],[35,-2],[11,17],[30,-2],[14,18],[45,14],[6,4],[2,3],[11,10],[5,2],[45,-5],[27,31],[32,-6],[49,14],[1,19],[33,-2],[18,77],[24,9],[-10,-92],[78,-19],[34,-30],[-3,-80],[-109,-38],[-6,-32],[45,-5],[86,-158],[35,-18],[-14,-120],[-35,-81],[4,-38],[60,9],[1,-30],[-65,-25],[-60,5],[-89,86],[-3,-3],[-2,-2],[-1,-7],[5,-36],[-32,-23],[7,-45],[-44,-14],[-53,49],[18,46],[61,-12],[-40,90],[-35,-7],[-8,-51],[-60,-26],[-5,29],[27,17],[-67,98],[42,42],[-20,46],[-35,-71],[-57,-40],[-19,42],[-43,12],[-12,23],[51,60],[14,67],[70,21],[4,21],[-66,32],[-66,-12],[-29,47],[35,42],[-95,-12]],[[5249,33442],[-7,32],[21,8],[16,-78],[96,-28],[31,-28],[-5,-42],[56,-29],[13,-54],[-21,-1],[-10,30],[-35,16],[-72,-67],[4,64],[-25,17],[-43,-32],[-15,-39],[-95,-22],[-1,37],[28,38],[38,8],[67,63],[-38,35],[-40,-37],[-31,-2],[21,44],[-29,77],[46,4],[18,-40],[12,26]],[[2772,34605],[4,29],[101,45],[16,27],[86,11],[16,-18],[-31,-22],[6,-36],[-50,-46],[-60,21],[-3,-48],[43,-42],[62,2],[23,18],[46,-9],[25,-28],[43,20],[19,-25],[-46,-31],[-11,-34],[-119,-15],[-119,71],[-1,37],[-27,-2],[25,4],[-5,24],[-43,47]],[[3315,37993],[18,-31],[66,-31],[63,-4],[11,-128],[107,54],[58,-66],[51,30],[21,-12],[-44,-47],[4,-32],[43,-28],[-13,-24],[-37,17],[-69,-4],[-1,23],[47,15],[-59,76],[-52,-24],[-37,-87],[40,-30],[17,-51],[-60,-40],[12,-42],[27,11],[32,-22],[63,-5],[5,95],[32,18],[6,-100],[23,-30],[39,0],[16,-24],[86,32],[7,80],[-23,30],[34,78],[-62,93],[-13,72],[49,31],[-14,105],[18,9],[35,-47],[-9,-45],[32,-63],[17,-139],[-46,-57],[100,12],[12,-67],[-42,14],[-30,-12],[24,-85],[40,-49],[19,19],[-24,42],[22,26],[56,-3],[33,33],[57,-7],[26,18],[35,-106],[40,-4],[40,37],[16,-18],[-17,-50],[48,29],[12,37],[36,22],[-19,25],[-43,-2],[16,87],[-49,14],[30,31],[-34,47],[26,47],[77,-1],[56,-36],[-14,-47],[42,-24],[-4,-55],[18,-29],[137,13],[14,-16],[-14,-39],[32,-15],[47,46],[36,-14],[39,19],[45,50],[22,-10],[0,-47],[59,19],[-55,50],[21,37],[-25,16],[51,25],[4,37],[19,8],[33,-46],[-52,-13],[-11,-44],[41,14],[-1,-60],[29,-27],[-138,-46],[10,-50],[-135,-68],[-60,15],[-26,-81],[-33,-33],[35,154],[-61,-7],[-41,-33],[-84,52],[-32,-7],[-54,-90],[-47,-7],[-11,-74],[46,-16],[28,20],[49,-4],[3,-42],[38,-44],[80,-47],[46,15],[26,-38],[38,-2],[-24,-65],[-23,-8],[-54,31],[-19,39],[-77,62],[-44,0],[2,49],[-54,9],[-16,-52],[-31,4],[2,-53],[-27,3],[4,48],[-81,-26],[-84,-109],[-114,-69],[-2,-33],[33,-51],[-14,-17],[-47,46],[-6,60],[61,60],[60,29],[57,76],[-47,27],[-22,78],[70,56],[12,-44],[-40,-25],[7,-44],[60,-10],[57,23],[14,36],[-52,52],[46,17],[-4,51],[-54,5],[-40,-19],[-3,23],[-71,23],[2,17],[-26,-35],[-33,24],[-31,-23],[-119,38],[-108,-31],[-82,-47],[30,-127],[-33,-17],[-49,10],[-20,-19],[37,-85],[-34,-19],[-55,-135],[-60,-36],[-4,47],[30,23],[-10,34],[52,99],[-26,38],[0,78],[-30,-18],[4,-35],[-85,-203],[-23,-13],[-24,-107],[-132,-53],[-34,7],[-20,-60],[-55,6],[-14,-58],[12,-27],[-56,-38],[54,-21],[-5,-34],[31,-42],[-13,-35],[38,-21],[35,59],[-6,29],[28,15],[-22,65],[68,82],[59,12],[14,28],[58,12],[18,30],[87,-8],[-51,-82],[-15,42],[-68,-14],[-107,-97],[-4,-42],[63,-73],[34,-2],[0,-25],[-66,-13],[-54,59],[-65,-107],[-54,-30],[7,-25],[106,-30],[-16,-96],[-21,-22],[7,-35],[71,49],[-2,51],[36,20],[67,-81],[41,10],[9,-33],[39,-16],[-260,-111],[3,-77],[-28,-71],[9,-64],[34,6],[33,-25],[49,36],[19,43],[-42,17],[-1,49],[23,-21],[63,-6],[43,47],[19,-12],[-9,-34],[65,-63],[-93,-146],[54,-67],[-24,-23],[-38,16],[-32,-30],[-24,-48],[32,-86],[-20,-40],[-47,-22],[35,-31],[10,-65],[-51,-49],[-3,-69],[83,-46],[-31,-23],[-50,10],[-105,-85],[-54,-3],[-29,-53],[-14,17],[10,45],[30,24],[-8,33],[27,7],[24,-35],[21,52],[-29,34],[-29,0],[-45,119],[-52,-23],[-6,-60],[-67,0],[1,84],[97,19],[-23,62],[-177,-33],[-28,53],[-19,-23],[9,-42],[-88,26],[-13,-36],[46,-10],[-5,-55],[-67,29],[-5,85],[-45,-16],[17,-59],[-17,-24],[-39,35],[-38,2],[25,30],[-7,25],[-83,23],[-32,-38],[-20,15],[87,152],[38,-42],[4,-84],[33,12],[4,139],[14,60],[46,57],[8,70],[-61,5],[-28,26],[1,28],[-23,8],[-62,-24],[-21,-80],[-42,5],[-23,35],[20,28],[-26,0],[-34,-27],[-2,-33],[-34,4],[-39,-23],[-22,33],[-42,6],[-36,67],[37,6],[7,-39],[21,-4],[77,48],[20,-24],[97,5],[-5,121],[25,9],[24,-42],[40,-4],[126,81],[31,62],[-42,43],[19,57],[-132,-48],[-30,17],[68,147],[-35,44],[9,79],[30,19],[175,-32],[-16,35],[-93,11],[-7,49],[55,31],[-25,42],[21,39],[-32,53],[-44,11],[-1,20],[90,9],[76,53],[28,-31],[-50,-73],[122,12],[23,30],[-24,49],[-25,3],[44,58],[-14,13],[-54,-27],[23,55],[27,0],[54,-60],[72,-35],[11,51],[-41,39],[13,44],[37,30],[-22,24],[24,32],[-14,43],[45,32],[-12,50],[87,10],[3,30],[31,18],[2,37],[46,33],[13,26],[-30,45],[15,-18],[45,3],[-3,-94],[38,-41],[48,54],[48,15],[-38,44],[20,31],[-22,20],[26,74],[39,9],[25,-67],[28,-14],[41,34],[-85,88],[-58,0],[6,66],[-26,54],[-45,11],[49,42],[30,-48],[5,137],[-33,43],[-42,130],[-101,60],[107,36],[1,-13]],[[912,38241],[31,-29],[24,8],[-10,23],[116,-4],[-23,-31],[24,-25],[55,-1],[-14,52],[115,-8],[14,-27],[64,-24],[198,43],[-21,-41],[15,-41],[58,-33],[65,-111],[-37,-46],[-15,-4],[-6,0],[-7,2],[-5,3],[-3,7],[-1,12],[28,37],[-4,27],[-87,6],[-28,45],[-10,-93],[-5,-10],[-1,-3],[0,-2],[0,-2],[-3,-5],[-4,-4],[-26,-9],[-3,25],[0,1],[1,5],[6,7],[3,8],[-1,11],[-51,-6],[-15,20],[46,27],[3,85],[-80,-15],[-66,17],[40,-69],[-34,-31],[-37,2],[-8,-5],[-1,0],[-1,-1],[-3,0],[-3,-1],[-13,-7],[-33,-5],[12,23],[0,3],[-1,4],[-5,13],[1,5],[57,61],[-53,9],[-2,-34],[-34,-11],[-13,24],[23,12],[-3,5],[0,4],[2,4],[19,9],[-24,8],[-4,-14],[-1,-2],[-1,-2],[-1,-2],[-44,-40],[4,-32],[1,-3],[1,-1],[1,-3],[0,-4],[-8,-36],[-21,-9],[-57,43],[0,31],[-3,3],[-3,2],[-29,11],[-12,22],[2,12],[0,3],[-1,3],[-15,19],[-79,-5],[-6,-4],[-2,-10],[-1,-2],[-2,-2],[-11,-4],[-11,5],[-2,3],[-3,5],[-3,3],[-11,0],[-6,-6],[0,-4],[0,-2],[1,-12],[15,-39],[55,22],[22,-36],[51,-5],[-6,-64],[29,-50],[53,1],[89,-81],[-8,-47],[-33,-1],[-18,21],[-37,-8],[4,-37],[-32,-16],[-5,-33],[142,19],[16,-33],[144,-14],[32,19],[-21,37],[15,17],[43,9],[52,-26],[28,14],[4,40],[44,-11],[12,24],[35,4],[85,-72],[-26,-34],[8,-20],[46,-23],[35,7],[8,-18],[-36,-40],[-92,41],[-31,-27],[-54,-5],[-23,-41],[6,-28],[-38,-10],[1,108],[-34,-9],[-35,23],[-48,-32],[-89,-2],[-21,-19],[-50,24],[-3,-93],[-46,-25],[-37,80],[12,49],[-68,24],[-5,-41],[-36,-18],[27,-121],[-14,-63],[42,-25],[-14,-40],[56,-87],[-75,-15],[1,-108],[-96,43],[-81,-37],[-12,-91],[41,-8],[14,31],[55,12],[34,-40],[60,2],[-12,62],[49,-1],[19,-88],[40,-17],[-20,-125],[34,-4],[2,31],[36,21],[46,0],[-5,-44],[53,-48],[-36,-68],[66,-59],[41,20],[16,-43],[21,-5],[-20,87],[-46,7],[41,13],[14,58],[37,3],[2,58],[-52,16],[-19,123],[-33,-1],[-10,-37],[-27,11],[28,34],[3,42],[-51,4],[-28,-51],[-40,24],[17,72],[-62,-2],[-12,36],[22,98],[-8,72],[53,65],[66,-6],[-6,-27],[-30,-30],[-40,-5],[-10,-27],[10,-62],[53,-4],[-39,-45],[43,-45],[45,37],[42,5],[9,27],[68,-20],[41,41],[3,48],[34,22],[6,-125],[-39,-70],[36,-41],[-38,-7],[-3,-42],[27,-24],[-15,-74],[36,-106],[-33,-22],[5,-43],[-57,21],[18,-147],[-87,-30],[1,-58],[-40,-13],[-5,-20],[49,10],[19,-25],[18,12],[5,56],[-23,32],[20,12],[24,-20],[-2,-45],[39,-40],[37,16],[24,49],[29,-6],[26,20],[53,-27],[7,52],[40,60],[28,-18],[-6,-38],[34,-30],[-11,-51],[-49,-49],[-82,-19],[-18,-52],[-33,-28],[-8,-50],[26,-41],[-67,-35],[-29,6],[-55,-63],[-13,57],[78,50],[-17,27],[-87,1],[14,48],[-28,59],[-65,18],[-11,-53],[-44,-53],[12,-29],[-28,-8],[-49,31],[42,30],[-12,45],[-83,34],[-30,52],[38,71],[63,-24],[12,28],[66,39],[20,39],[-37,18],[33,18],[-6,19],[-32,36],[-77,-3],[-15,38],[-38,-29],[-56,4],[2,-57],[68,7],[19,-15],[-76,-39],[25,-51],[-63,-43],[-18,-72],[-4,-99],[91,-66],[13,-26],[-50,-8],[5,-49],[49,-16],[11,-29],[-12,-118],[-61,-25],[-31,21],[-73,0],[-80,68],[8,30],[36,15],[-27,69],[-66,25],[29,42],[-2,31],[17,16],[-2,30],[-4,-29],[-9,-2],[-4,16],[-8,-5],[-26,-85],[-98,-25],[-63,35],[-24,-32],[-35,3],[-1,-8],[-2,-1],[0,-1],[-2,-1],[-59,-9],[-6,46],[-17,-20],[-108,10],[-29,-37],[-57,2],[-32,15],[23,40],[-40,-7],[-42,25],[135,5],[-59,58],[-12,60],[60,53],[21,62],[77,-48],[83,64],[4,-13],[48,2],[45,-28],[3,-1],[4,-2],[3,0],[4,-2],[10,-8],[10,-2],[9,-5],[38,12],[41,-41],[44,33],[-104,75],[44,17],[8,48],[-82,19],[-2,-1],[-1,-1],[-1,0],[-7,1],[-5,-4],[-15,-1],[-10,-4],[12,41],[-78,2],[9,34],[32,-8],[77,47],[-5,49],[-88,16],[-44,67],[-147,-15],[-7,-27],[24,-21],[-21,-24],[-51,42],[49,34],[-6,40],[73,52],[72,20],[34,34],[114,3],[-15,55],[-61,24],[29,31],[-21,61],[-39,-22],[-7,16],[-32,1],[-85,-129],[15,-26],[-24,25],[-123,-54],[-77,54],[43,50],[-56,13],[-2,25],[68,8],[35,-20],[19,21],[-40,32],[-32,93],[45,38],[23,-37],[14,10],[-58,138],[-6,122],[30,10],[-18,36],[20,71],[41,27],[45,-6],[9,49],[-2,-54],[22,-8],[-18,-24],[35,0],[32,-69],[0,27],[19,-1],[26,51],[-90,105],[31,15],[10,38],[-51,-20],[17,36],[-77,35],[24,53],[-5,38],[61,53],[91,-10],[23,20],[-4,25],[-115,15],[9,24],[126,-22],[129,2],[264,64]],[[23339,15702],[-4225,122],[-741,2110],[-1371,1014]],[[17002,18948],[-1557,812],[1853,2313],[1186,-325],[1483,1583]],[[19967,23331],[630,-1948]],[[20597,21383],[2483,1907],[3299,325],[2557,-1299],[148,-2110],[1112,-405],[-482,-2557],[-6375,-1542]],[[23339,15702],[408,-4666]],[[23747,11036],[-5485,-2880],[-1186,-1299]],[[17076,6857],[-704,2881],[-3002,0],[-1891,4301]],[[11479,14039],[2409,2150],[2224,528],[890,2231]],[[26193,5518],[-333,-2515],[-2780,-1218],[-1816,-1785],[-890,730],[-3595,568],[-704,2354],[1001,3205]],[[23747,11036],[1260,-2434],[1186,-3084]],[[15112,29336],[2260,-731]],[[17372,28605],[74,-2759],[1224,284],[2075,-1176]],[[20745,24954],[-778,-1623]],[[11479,14039],[75,1501],[-4485,3327],[259,1786]],[[7328,20653],[3410,527],[1112,5315],[3262,2841]],[[7328,20653],[-1260,1582],[-630,2922],[-1927,2596]],[[3511,27753],[852,2435]],[[4363,30188],[3855,1014]],[[8218,31202],[482,-2150],[1779,1460],[3076,203]],[[13555,30715],[1557,-1379]],[[805,38140],[1149,0],[3299,284],[1371,812]],[[6624,39236],[964,-1177],[-74,-2962],[1075,-1826],[-371,-2069]],[[4363,30188],[-148,1014]],[[4215,31202],[-3002,852],[-927,2516],[519,3570]],[[3511,27753],[964,1623],[-260,1826]],[[805,38140],[1557,-405],[4262,1501]],[[13555,30715],[2557,-2029],[1260,-81]],[[20745,24954],[-815,-650],[667,-2921]],[[23747,11036],[815,-973],[1631,-4545]]],"transform":{"scale":[3.4935731556887686,3.668150794305196],"translate":[314573.0608999998,6244029.215678361]},"objects":{"tatorter":{"type":"GeometryCollection","geometries":[{"arcs":[[0]],"type":"Polygon","properties":{"name":"Årnäs","population":772,"kommun":"Varberg","lan":"Halland","bef_2000":438,"bef_2024":722,"forandring":284,"pct":64.8}},{"arcs":[[1]],"type":"Polygon","properties":{"name":"Åsby","population":555,"kommun":"Varberg","lan":"Halland","bef_2000":449,"bef_2024":511,"forandring":62,"pct":13.8}},{"arcs":[[2]],"type":"Polygon","properties":{"name":"Moarna","population":210,"kommun":"Varberg","lan":"Halland","bef_2000":71,"bef_2024":132,"forandring":61,"pct":85.9}},{"arcs":[[3]],"type":"Polygon","properties":{"name":"Ringhals, Skällåkra och Lingome","population":250,"kommun":"Varberg","lan":"Halland","bef_2000":152,"bef_2024":195,"forandring":43,"pct":28.3}},{"arcs":[[4]],"type":"Polygon","properties":{"name":"Varberg","population":39268,"kommun":"Varberg","lan":"Halland","bef_2000":28634,"bef_2024":38627,"forandring":9993,"pct":34.9}},{"arcs":[[5]],"type":"Polygon","properties":{"name":"Röda holme","population":679,"kommun":"Kungsbacka","lan":"Halland","bef_2000":376,"bef_2024":623,"forandring":247,"pct":65.7}},{"arcs":[[6]],"type":"Polygon","properties":{"name":"Buerås","population":877,"kommun":"Kungsbacka","lan":"Halland","bef_2000":599,"bef_2024":818,"forandring":219,"pct":36.6}},{"arcs":[[7]],"type":"Polygon","properties":{"name":"Fjärås kyrkby","population":2852,"kommun":"Kungsbacka","lan":"Halland","bef_2000":2132,"bef_2024":2709,"forandring":577,"pct":27.1}},{"arcs":[[8]],"type":"Polygon","properties":{"name":"Halla Heberg","population":1959,"kommun":"Kungsbacka","lan":"Halland","bef_2000":1335,"bef_2024":1732,"forandring":397,"pct":29.7}},{"arcs":[[9]],"type":"Polygon","properties":{"name":"Lilla Tjärby","population":1117,"kommun":"Laholm","lan":"Halland","bef_2000":881,"bef_2024":1082,"forandring":201,"pct":22.8}},{"arcs":[[10]],"type":"Polygon","properties":{"name":"Mellbystrand","population":4722,"kommun":"Laholm","lan":"Halland","bef_2000":2474,"bef_2024":4604,"forandring":2130,"pct":86.1}},{"arcs":[[11]],"type":"Polygon","properties":{"name":"Ränneslöv","population":456,"kommun":"Laholm","lan":"Halland","bef_2000":401,"bef_2024":389,"forandring":-12,"pct":-3}},{"arcs":[[12]],"type":"Polygon","properties":{"name":"Getinge","population":2051,"kommun":"Halmstad","lan":"Halland","bef_2000":1774,"bef_2024":1997,"forandring":223,"pct":12.6}},{"arcs":[[13]],"type":"Polygon","properties":{"name":"Gullbrandstorp","population":1869,"kommun":"Halmstad","lan":"Halland","bef_2000":1454,"bef_2024":1796,"forandring":342,"pct":23.5}},{"arcs":[[14]],"type":"Polygon","properties":{"name":"Långasand och Ugglarp","population":504,"kommun":"Falkenberg","lan":"Halland","bef_2000":238,"bef_2024":470,"forandring":232,"pct":97.5}},{"arcs":[[15]],"type":"Polygon","properties":{"name":"Morup","population":346,"kommun":"Falkenberg","lan":"Halland","bef_2000":235,"bef_2024":319,"forandring":84,"pct":35.7}},{"arcs":[[16]],"type":"Polygon","properties":{"name":"Slöinge","population":1079,"kommun":"Falkenberg","lan":"Halland","bef_2000":882,"bef_2024":1021,"forandring":139,"pct":15.8}},{"arcs":[[17]],"type":"Polygon","properties":{"name":"Ullared","population":846,"kommun":"Falkenberg","lan":"Halland","bef_2000":773,"bef_2024":824,"forandring":51,"pct":6.6}},{"arcs":[[18]],"type":"Polygon","properties":{"name":"Vessigebro","population":879,"kommun":"Falkenberg","lan":"Halland","bef_2000":691,"bef_2024":798,"forandring":107,"pct":15.5}},{"arcs":[[19]],"type":"Polygon","properties":{"name":"Hunnestad","population":320,"kommun":"Varberg","lan":"Halland","bef_2000":249,"bef_2024":245,"forandring":-4,"pct":-1.6}},{"arcs":[[20]],"type":"Polygon","properties":{"name":"Kungsäter","population":416,"kommun":"Varberg","lan":"Halland","bef_2000":347,"bef_2024":384,"forandring":37,"pct":10.7}},{"arcs":[[21]],"type":"Polygon","properties":{"name":"Nordvära och Källstorp","population":285,"kommun":"Varberg","lan":"Halland","bef_2000":166,"bef_2024":222,"forandring":56,"pct":33.7}},{"arcs":[[22]],"type":"Polygon","properties":{"name":"Rolfstorp","population":585,"kommun":"Varberg","lan":"Halland","bef_2000":508,"bef_2024":556,"forandring":48,"pct":9.4}},{"arcs":[[23]],"type":"Polygon","properties":{"name":"Skällinge","population":639,"kommun":"Varberg","lan":"Halland","bef_2000":595,"bef_2024":607,"forandring":12,"pct":2}},{"arcs":[[24]],"type":"Polygon","properties":{"name":"Tofta","population":452,"kommun":"Varberg","lan":"Halland","bef_2000":371,"bef_2024":415,"forandring":44,"pct":11.9}},{"arcs":[[25]],"type":"Polygon","properties":{"name":"Torpa","population":281,"kommun":"Varberg","lan":"Halland","bef_2000":157,"bef_2024":216,"forandring":59,"pct":37.6}},{"arcs":[[26]],"type":"Polygon","properties":{"name":"Bläshammar och Trönningenäs","population":1402,"kommun":"Varberg","lan":"Halland","bef_2000":260,"bef_2024":1267,"forandring":1007,"pct":387.3}},{"arcs":[[27]],"type":"Polygon","properties":{"name":"Tvååker","population":3226,"kommun":"Varberg","lan":"Halland","bef_2000":2348,"bef_2024":3131,"forandring":783,"pct":33.3}},{"arcs":[[28]],"type":"Polygon","properties":{"name":"Tångaberg","population":1131,"kommun":"Varberg","lan":"Halland","bef_2000":641,"bef_2024":1073,"forandring":432,"pct":67.4}},{"arcs":[[29]],"type":"Polygon","properties":{"name":"Valinge","population":276,"kommun":"Varberg","lan":"Halland","bef_2000":178,"bef_2024":200,"forandring":22,"pct":12.4}},{"arcs":[[30]],"type":"Polygon","properties":{"name":"Veddige","population":2254,"kommun":"Varberg","lan":"Halland","bef_2000":2123,"bef_2024":2229,"forandring":106,"pct":5}},{"arcs":[[31]],"type":"Polygon","properties":{"name":"Väröbacka","population":849,"kommun":"Varberg","lan":"Halland","bef_2000":565,"bef_2024":778,"forandring":213,"pct":37.7}},{"arcs":[[32]],"type":"Polygon","properties":{"name":"Kinnared","population":294,"kommun":"Hylte","lan":"Halland","bef_2000":301,"bef_2024":281,"forandring":-20,"pct":-6.6}},{"arcs":[[33]],"type":"Polygon","properties":{"name":"Landeryd","population":350,"kommun":"Hylte","lan":"Halland","bef_2000":379,"bef_2024":338,"forandring":-41,"pct":-10.8}},{"arcs":[[34]],"type":"Polygon","properties":{"name":"Rydöbruk","population":345,"kommun":"Hylte","lan":"Halland","bef_2000":307,"bef_2024":322,"forandring":15,"pct":4.9}},{"arcs":[[35]],"type":"Polygon","properties":{"name":"Torup","population":1285,"kommun":"Hylte","lan":"Halland","bef_2000":1131,"bef_2024":1213,"forandring":82,"pct":7.3}},{"arcs":[[36]],"type":"Polygon","properties":{"name":"Unnaryd","population":700,"kommun":"Hylte","lan":"Halland","bef_2000":725,"bef_2024":656,"forandring":-69,"pct":-9.5}},{"arcs":[[37]],"type":"Polygon","properties":{"name":"Hyltebruk","population":3854,"kommun":"Hylte","lan":"Halland","bef_2000":3506,"bef_2024":3694,"forandring":188,"pct":5.4}},{"arcs":[[38]],"type":"Polygon","properties":{"name":"Eldsberga","population":746,"kommun":"Halmstad","lan":"Halland","bef_2000":639,"bef_2024":698,"forandring":59,"pct":9.2}},{"arcs":[[39]],"type":"Polygon","properties":{"name":"Frösakull","population":2650,"kommun":"Halmstad","lan":"Halland","bef_2000":1919,"bef_2024":2597,"forandring":678,"pct":35.3}},{"arcs":[[40]],"type":"Polygon","properties":{"name":"Gullbranna","population":639,"kommun":"Halmstad","lan":"Halland","bef_2000":692,"bef_2024":578,"forandring":-114,"pct":-16.5}},{"arcs":[[41]],"type":"Polygon","properties":{"name":"Harplinge","population":1727,"kommun":"Halmstad","lan":"Halland","bef_2000":1457,"bef_2024":1627,"forandring":170,"pct":11.7}},{"arcs":[[42]],"type":"Polygon","properties":{"name":"Haverdal","population":1908,"kommun":"Halmstad","lan":"Halland","bef_2000":1497,"bef_2024":1867,"forandring":370,"pct":24.7}},{"arcs":[[43]],"type":"Polygon","properties":{"name":"Holm","population":860,"kommun":"Halmstad","lan":"Halland","bef_2000":455,"bef_2024":740,"forandring":285,"pct":62.6}},{"arcs":[[44]],"type":"Polygon","properties":{"name":"Kvibille","population":1016,"kommun":"Halmstad","lan":"Halland","bef_2000":869,"bef_2024":964,"forandring":95,"pct":10.9}},{"arcs":[[45]],"type":"Polygon","properties":{"name":"Laxvik","population":473,"kommun":"Halmstad","lan":"Halland","bef_2000":416,"bef_2024":438,"forandring":22,"pct":5.3}},{"arcs":[[46]],"type":"Polygon","properties":{"name":"Oskarström","population":4094,"kommun":"Halmstad","lan":"Halland","bef_2000":3628,"bef_2024":3891,"forandring":263,"pct":7.2}},{"arcs":[[47]],"type":"Polygon","properties":{"name":"Sennan","population":379,"kommun":"Halmstad","lan":"Halland","bef_2000":361,"bef_2024":327,"forandring":-34,"pct":-9.4}},{"arcs":[[48]],"type":"Polygon","properties":{"name":"Simlångsdalen","population":701,"kommun":"Halmstad","lan":"Halland","bef_2000":601,"bef_2024":656,"forandring":55,"pct":9.2}},{"arcs":[[49]],"type":"Polygon","properties":{"name":"Skedala","population":515,"kommun":"Halmstad","lan":"Halland","bef_2000":356,"bef_2024":459,"forandring":103,"pct":28.9}},{"arcs":[[50]],"type":"Polygon","properties":{"name":"Steninge","population":1190,"kommun":"Halmstad","lan":"Halland","bef_2000":868,"bef_2024":1114,"forandring":246,"pct":28.3}},{"arcs":[[51]],"type":"Polygon","properties":{"name":"Trönninge","population":1696,"kommun":"Halmstad","lan":"Halland","bef_2000":1375,"bef_2024":1579,"forandring":204,"pct":14.8}},{"arcs":[[52]],"type":"Polygon","properties":{"name":"Villshärad","population":677,"kommun":"Halmstad","lan":"Halland","bef_2000":662,"bef_2024":655,"forandring":-7,"pct":-1.1}},{"arcs":[[53]],"type":"Polygon","properties":{"name":"Åled","population":1885,"kommun":"Halmstad","lan":"Halland","bef_2000":1466,"bef_2024":1802,"forandring":336,"pct":22.9}},{"arcs":[[54]],"type":"Polygon","properties":{"name":"Halmstad","population":73442,"kommun":"Halmstad","lan":"Halland","bef_2000":55843,"bef_2024":72476,"forandring":16633,"pct":29.8}},{"arcs":[[55]],"type":"Polygon","properties":{"name":"Genevad","population":687,"kommun":"Laholm","lan":"Halland","bef_2000":595,"bef_2024":641,"forandring":46,"pct":7.7}},{"arcs":[[56]],"type":"Polygon","properties":{"name":"Hasslöv","population":277,"kommun":"Laholm","lan":"Halland","bef_2000":236,"bef_2024":230,"forandring":-6,"pct":-2.5}},{"arcs":[[57]],"type":"Polygon","properties":{"name":"Hishult","population":314,"kommun":"Laholm","lan":"Halland","bef_2000":324,"bef_2024":304,"forandring":-20,"pct":-6.2}},{"arcs":[[58]],"type":"Polygon","properties":{"name":"Knäred","population":1201,"kommun":"Laholm","lan":"Halland","bef_2000":1095,"bef_2024":1119,"forandring":24,"pct":2.2}},{"arcs":[[59]],"type":"Polygon","properties":{"name":"Skottorp","population":591,"kommun":"Laholm","lan":"Halland","bef_2000":443,"bef_2024":572,"forandring":129,"pct":29.1}},{"arcs":[[60]],"type":"Polygon","properties":{"name":"Vallberga","population":781,"kommun":"Laholm","lan":"Halland","bef_2000":614,"bef_2024":705,"forandring":91,"pct":14.8}},{"arcs":[[61]],"type":"Polygon","properties":{"name":"Veinge","population":1469,"kommun":"Laholm","lan":"Halland","bef_2000":1234,"bef_2024":1354,"forandring":120,"pct":9.7}},{"arcs":[[62]],"type":"Polygon","properties":{"name":"Våxtorp","population":1081,"kommun":"Laholm","lan":"Halland","bef_2000":938,"bef_2024":1050,"forandring":112,"pct":11.9}},{"arcs":[[63]],"type":"Polygon","properties":{"name":"Ysby","population":287,"kommun":"Laholm","lan":"Halland","bef_2000":235,"bef_2024":272,"forandring":37,"pct":15.7}},{"arcs":[[64]],"type":"Polygon","properties":{"name":"Laholm","population":6767,"kommun":"Laholm","lan":"Halland","bef_2000":5594,"bef_2024":6633,"forandring":1039,"pct":18.6}},{"arcs":[[65]],"type":"Polygon","properties":{"name":"Bergagård","population":424,"kommun":"Falkenberg","lan":"Halland","bef_2000":436,"bef_2024":402,"forandring":-34,"pct":-7.8}},{"arcs":[[66]],"type":"Polygon","properties":{"name":"Fegen","population":246,"kommun":"Falkenberg","lan":"Halland","bef_2000":179,"bef_2024":196,"forandring":17,"pct":9.5}},{"arcs":[[67]],"type":"Polygon","properties":{"name":"Glommen","population":1358,"kommun":"Falkenberg","lan":"Halland","bef_2000":839,"bef_2024":1262,"forandring":423,"pct":50.4}},{"arcs":[[68]],"type":"Polygon","properties":{"name":"Heberg","population":471,"kommun":"Falkenberg","lan":"Halland","bef_2000":419,"bef_2024":432,"forandring":13,"pct":3.1}},{"arcs":[[69]],"type":"Polygon","properties":{"name":"Köinge","population":218,"kommun":"Falkenberg","lan":"Halland","bef_2000":148,"bef_2024":180,"forandring":32,"pct":21.6}},{"arcs":[[70]],"type":"Polygon","properties":{"name":"Långås","population":565,"kommun":"Falkenberg","lan":"Halland","bef_2000":505,"bef_2024":539,"forandring":34,"pct":6.7}},{"arcs":[[71]],"type":"Polygon","properties":{"name":"Vinberg","population":616,"kommun":"Falkenberg","lan":"Halland","bef_2000":565,"bef_2024":606,"forandring":41,"pct":7.3}},{"arcs":[[72]],"type":"Polygon","properties":{"name":"Årstad","population":244,"kommun":"Falkenberg","lan":"Halland","bef_2000":209,"bef_2024":224,"forandring":15,"pct":7.2}},{"arcs":[[73]],"type":"Polygon","properties":{"name":"Älvsered","population":446,"kommun":"Falkenberg","lan":"Halland","bef_2000":413,"bef_2024":403,"forandring":-10,"pct":-2.4}},{"arcs":[[74]],"type":"Polygon","properties":{"name":"Ätran","population":399,"kommun":"Falkenberg","lan":"Halland","bef_2000":393,"bef_2024":387,"forandring":-6,"pct":-1.5}},{"arcs":[[75]],"type":"Polygon","properties":{"name":"Olofsbo","population":231,"kommun":"Falkenberg","lan":"Halland","bef_2000":141,"bef_2024":206,"forandring":65,"pct":46.1}},{"arcs":[[76]],"type":"Polygon","properties":{"name":"Falkenberg","population":29907,"kommun":"Falkenberg","lan":"Halland","bef_2000":22071,"bef_2024":29370,"forandring":7299,"pct":33.1}},{"arcs":[[77]],"type":"Polygon","properties":{"name":"Bua","population":2074,"kommun":"Varberg","lan":"Halland","bef_2000":1685,"bef_2024":1944,"forandring":259,"pct":15.4}},{"arcs":[[78]],"type":"Polygon","properties":{"name":"Getterön","population":336,"kommun":"Varberg","lan":"Halland","bef_2000":227,"bef_2024":309,"forandring":82,"pct":36.1}},{"arcs":[[79]],"type":"Polygon","properties":{"name":"Himle","population":311,"kommun":"Varberg","lan":"Halland","bef_2000":252,"bef_2024":285,"forandring":33,"pct":13.1}},{"arcs":[[80]],"type":"Polygon","properties":{"name":"Fjärås station","population":209,"kommun":"Kungsbacka","lan":"Halland","bef_2000":138,"bef_2024":183,"forandring":45,"pct":32.6}},{"arcs":[[81]],"type":"Polygon","properties":{"name":"Frillesås","population":3837,"kommun":"Kungsbacka","lan":"Halland","bef_2000":2141,"bef_2024":3643,"forandring":1502,"pct":70.2}},{"arcs":[[82]],"type":"Polygon","properties":{"name":"Hjälm","population":268,"kommun":"Kungsbacka","lan":"Halland","bef_2000":238,"bef_2024":246,"forandring":8,"pct":3.4}},{"arcs":[[83]],"type":"Polygon","properties":{"name":"Kläppa","population":796,"kommun":"Kungsbacka","lan":"Halland","bef_2000":432,"bef_2024":675,"forandring":243,"pct":56.3}},{"arcs":[[84]],"type":"Polygon","properties":{"name":"Onsala","population":12362,"kommun":"Kungsbacka","lan":"Halland","bef_2000":10470,"bef_2024":11909,"forandring":1439,"pct":13.7}},{"arcs":[[85]],"type":"Polygon","properties":{"name":"Östra Hanhals och Torkelstorp","population":325,"kommun":"Kungsbacka","lan":"Halland","bef_2000":164,"bef_2024":268,"forandring":104,"pct":63.4}},{"arcs":[[86]],"type":"Polygon","properties":{"name":"Vallda","population":3989,"kommun":"Kungsbacka","lan":"Halland","bef_2000":2924,"bef_2024":3788,"forandring":864,"pct":29.5}},{"arcs":[[87]],"type":"Polygon","properties":{"name":"Åsa","population":6128,"kommun":"Kungsbacka","lan":"Halland","bef_2000":4228,"bef_2024":6003,"forandring":1775,"pct":42}},{"arcs":[[88]],"type":"Polygon","properties":{"name":"Västra Hagen","population":1405,"kommun":"Kungsbacka","lan":"Halland","bef_2000":861,"bef_2024":1335,"forandring":474,"pct":55.1}},{"arcs":[[89]],"type":"Polygon","properties":{"name":"Dala","population":201,"kommun":"Kungsbacka","lan":"Halland","bef_2000":53,"bef_2024":175,"forandring":122,"pct":230.2}},{"arcs":[[90]],"type":"Polygon","properties":{"name":"Västra Hanhals","population":236,"kommun":"Kungsbacka","lan":"Halland","bef_2000":184,"bef_2024":208,"forandring":24,"pct":13}},{"arcs":[[[91]],[[92]]],"type":"MultiPolygon","properties":{"name":"Kungsbacka (GBG)","population":39913,"kommun":"Kungsbacka","lan":"Halland","bef_2000":29149,"bef_2024":38815,"forandring":9666,"pct":33.2}}]},"kommuner":{"type":"GeometryCollection","geometries":[{"arcs":[[93,94,95,96]],"type":"Polygon","properties":{"KnKod":"1315","KnNamn":"Hylte"}},{"arcs":[[97,98,99,100,-94]],"type":"Polygon","properties":{"KnKod":"1380","KnNamn":"Halmstad"}},{"arcs":[[101,-99,102]],"type":"Polygon","properties":{"KnKod":"1381","KnNamn":"Laholm"}},{"arcs":[[103,104,105,-95,-101,106,107]],"type":"Polygon","properties":{"KnKod":"1382","KnNamn":"Falkenberg"}},{"arcs":[[108,109,110,111,112,-108]],"type":"Polygon","properties":{"KnKod":"1383","KnNamn":"Varberg"}},{"arcs":[[113,114,-111,115,116]],"type":"Polygon","properties":{"KnKod":"1384","KnNamn":"Kungsbacka"}}]},"lan":{"type":"GeometryCollection","geometries":[{"arcs":[[99,106,108,117,116,118,114,111,119,104,120,96,97,121,101]],"type":"Polygon","properties":{"LnKod":"13","LnNamn":"Hallands"}}]}}}