{
"type": "FeatureCollection",
"name": "hallandstypologi-zoner",
"crs": { "type": "name", "properties": { "name": "urn:ogc:def:crs:OGC:1.3:CRS84" } },
"features": [
{ "type": "Feature", "properties": { "klass": "1 Stadskärna" }, "geometry": { "type": "MultiPolygon", "coordinates": [ [ [ [ 12.243455537926303, 57.092007674573516 ], [ 12.227324848389159, 57.091651680532522 ], [ 12.226656681610281, 57.100595031063087 ], [ 12.22598716597987, 57.109551194863919 ], [ 12.242125613678398, 57.109907431486839 ], [ 12.241460546943134, 57.118850867486607 ], [ 12.25812286916158, 57.119216518559519 ], [ 12.274802908372815, 57.119580334085349 ], [ 12.290946374772016, 57.119930326996474 ], [ 12.291599546678784, 57.110986523573274 ], [ 12.292253274345564, 57.102029870591664 ], [ 12.292905684933842, 57.093086031815858 ], [ 12.276773859123113, 57.092736396299721 ], [ 12.2774307043892, 57.083779827050009 ], [ 12.260766700136861, 57.083416506860509 ], [ 12.244120394951938, 57.083051353613264 ], [ 12.243455537926303, 57.092007674573516 ] ] ], [ [ [ 12.063119599259066, 57.492312342882123 ], [ 12.062399908781185, 57.501266669462872 ], [ 12.079233487834586, 57.501657743589767 ], [ 12.096067498874614, 57.502046573843067 ], [ 12.096778969464271, 57.493091979831377 ], [ 12.097489002613441, 57.48415019635744 ], [ 12.098199636061377, 57.475195565508841 ], [ 12.08137794227358, 57.474807134866126 ], [ 12.064556679416702, 57.474416462647369 ], [ 12.063837835710224, 57.483370826325796 ], [ 12.063119599259066, 57.492312342882123 ] ] ], [ [ [ 12.828897229769671, 56.681255421418271 ], [ 12.845373090376603, 56.681541616609941 ], [ 12.861335439593161, 56.681816809422948 ], [ 12.877829021668415, 56.682099007959486 ], [ 12.894305774896829, 56.682378733951765 ], [ 12.893806107170436, 56.691327114075307 ], [ 12.909773095857197, 56.691596130201773 ], [ 12.926271465196178, 56.691871945635235 ], [ 12.926763444486975, 56.682923381194506 ], [ 12.927255845271219, 56.673961962310692 ], [ 12.927747961718792, 56.665000527659373 ], [ 12.928255995733048, 56.655743785626534 ], [ 12.928747534835175, 56.646782318922142 ], [ 12.912268830081128, 56.646506973201411 ], [ 12.896320871834247, 56.646238415201864 ], [ 12.895821651136126, 56.655199697676686 ], [ 12.879356737823539, 56.654920258926019 ], [ 12.878836734375742, 56.664176712785753 ], [ 12.862350969788153, 56.663894705381288 ], [ 12.846396185949756, 56.663619698952644 ], [ 12.829928133767529, 56.663333697594197 ], [ 12.829412830619896, 56.672294567523721 ], [ 12.828897229769671, 56.681255421418271 ] ] ], [ [ [ 12.521190404894362, 56.890980891434182 ], [ 12.521782901374461, 56.882035129732287 ], [ 12.505222750723854, 56.881705391877468 ], [ 12.504626304997709, 56.890651041682503 ], [ 12.488561877978894, 56.890329039483973 ], [ 12.487960392283123, 56.899287397363786 ], [ 12.471393037738187, 56.898953111953837 ], [ 12.470787243765409, 56.907911339149294 ], [ 12.470161118589743, 56.917164733516522 ], [ 12.486736523849407, 56.917499249987991 ], [ 12.502812597083361, 56.917821584279018 ], [ 12.519388706040417, 56.918151774222608 ], [ 12.520002678338933, 56.908898033350525 ], [ 12.520596714034582, 56.899939470866556 ], [ 12.521190404894362, 56.890980891434182 ] ] ] ] } },
{ "type": "Feature", "properties": { "klass": "2 Yttre stadsområde" }, "geometry": { "type": "MultiPolygon", "coordinates": [ [ [ [ 12.227993583895543, 57.082695480862718 ], [ 12.227324848389159, 57.091651680532522 ], [ 12.243455537926303, 57.092007674573516 ], [ 12.244120394951938, 57.083051353613264 ], [ 12.260766700136861, 57.083416506860509 ], [ 12.2774307043892, 57.083779827050009 ], [ 12.276773859123113, 57.092736396299721 ], [ 12.292905684933842, 57.093086031815858 ], [ 12.292253274345564, 57.102029870591664 ], [ 12.291599546678784, 57.110986523573274 ], [ 12.290946374772016, 57.119930326996474 ], [ 12.274802908372815, 57.119580334085349 ], [ 12.25812286916158, 57.119216518559519 ], [ 12.241460546943134, 57.118850867486607 ], [ 12.240794137432687, 57.127807116933056 ], [ 12.2401273387395, 57.136763348482532 ], [ 12.256797689197908, 57.137129249006321 ], [ 12.256135469009756, 57.146072756054437 ], [ 12.255471911525671, 57.155029076704402 ], [ 12.272168028777985, 57.155393388698478 ], [ 12.288327056862757, 57.155743859224494 ], [ 12.305023950243029, 57.156103802738308 ], [ 12.305675562972397, 57.147147115538296 ], [ 12.30632586245282, 57.138203242641495 ], [ 12.306976714986652, 57.129246520139262 ], [ 12.307627187610306, 57.12028977997636 ], [ 12.308276349536223, 57.111345854198817 ], [ 12.308926063801607, 57.102389078746192 ], [ 12.309574469065796, 57.093445117733623 ], [ 12.310223426194131, 57.084488306999589 ], [ 12.310872004940132, 57.075531478615332 ], [ 12.294211235962839, 57.075172637345446 ], [ 12.278087166690799, 57.074823240034021 ], [ 12.261427168230391, 57.074460043618572 ], [ 12.244784864359756, 57.074095014767423 ], [ 12.228661929531674, 57.073739263249053 ], [ 12.227993583895543, 57.082695480862718 ] ] ], [ [ [ 12.242125613678398, 57.109907431486839 ], [ 12.22598716597987, 57.109551194863919 ], [ 12.225318219566816, 57.118494509572251 ], [ 12.241460546943134, 57.118850867486607 ], [ 12.242125613678398, 57.109907431486839 ] ] ], [ [ [ 12.048965315489029, 57.465081174690006 ], [ 12.04824291641733, 57.474035426328967 ], [ 12.04752009184125, 57.482989659346416 ], [ 12.04679787789374, 57.491931045365369 ], [ 12.046074201877682, 57.500885241157668 ], [ 12.045351137016405, 57.509826589998909 ], [ 12.044626608170384, 57.518780748554278 ], [ 12.060960287450223, 57.519162438440475 ], [ 12.077802087380434, 57.519553780769051 ], [ 12.094644320002848, 57.519942877690895 ], [ 12.110979245577195, 57.520318100072814 ], [ 12.111687563443612, 57.511363414203146 ], [ 12.112394450040334, 57.502421539060016 ], [ 12.113101934076621, 57.493466816467851 ], [ 12.11380798871682, 57.484524904660304 ], [ 12.11451464028219, 57.475570145356578 ], [ 12.115220875822979, 57.466615367688021 ], [ 12.098909851150493, 57.466240916232714 ], [ 12.082092260261396, 57.465852618727254 ], [ 12.065275099951924, 57.465462080411172 ], [ 12.048965315489029, 57.465081174690006 ] ], [ [ 12.063837835710224, 57.483370826325796 ], [ 12.064556679416702, 57.474416462647369 ], [ 12.08137794227358, 57.474807134866126 ], [ 12.098199636061377, 57.475195565508841 ], [ 12.097489002613441, 57.48415019635744 ], [ 12.096778969464271, 57.493091979831377 ], [ 12.096067498874614, 57.502046573843067 ], [ 12.079233487834586, 57.501657743589767 ], [ 12.062399908781185, 57.501266669462872 ], [ 12.063119599259066, 57.492312342882123 ], [ 12.063837835710224, 57.483370826325796 ] ] ], [ [ [ 11.95716141855471, 57.561840580545777 ], [ 11.974038851630592, 57.562246379319852 ], [ 11.974780847181732, 57.553305686700909 ], [ 11.975523469332837, 57.544352147788295 ], [ 11.958654285725315, 57.543946627291263 ], [ 11.959426247227388, 57.534685354328168 ], [ 11.943104659113549, 57.53429088400862 ], [ 11.943853426887356, 57.525350408108721 ], [ 11.927011022370587, 57.524941169532106 ], [ 11.910151565960613, 57.524529256974319 ], [ 11.909394572978927, 57.533469451498071 ], [ 11.908609958030766, 57.542730292803789 ], [ 11.907850969259728, 57.551683274995909 ], [ 11.907092620944683, 57.560623411420103 ], [ 11.923968703851701, 57.561035894244171 ], [ 11.940827719102874, 57.561445699397943 ], [ 11.95716141855471, 57.561840580545777 ] ] ], [ [ [ 12.506415460207482, 56.863801206852614 ], [ 12.505819705859317, 56.872746890580956 ], [ 12.505222750723854, 56.881705391877468 ], [ 12.521782901374461, 56.882035129732287 ], [ 12.521190404894362, 56.890980891434182 ], [ 12.520596714034582, 56.899939470866556 ], [ 12.520002678338933, 56.908898033350525 ], [ 12.519388706040417, 56.918151774222608 ], [ 12.502812597083361, 56.917821584279018 ], [ 12.486736523849407, 56.917499249987991 ], [ 12.470161118589743, 56.917164733516522 ], [ 12.469554608881051, 56.926122925926386 ], [ 12.486133977731114, 56.926457556138381 ], [ 12.502213895345569, 56.926780000029751 ], [ 12.518793968457542, 56.927110302246717 ], [ 12.535374395596397, 56.927438407202075 ], [ 12.535965168740564, 56.918479767649487 ], [ 12.536575048376994, 56.909225911629861 ], [ 12.55264817094181, 56.909541808294314 ], [ 12.553234406189487, 56.90058302703968 ], [ 12.569803505275628, 56.900906469774725 ], [ 12.570385442167325, 56.891947561774536 ], [ 12.586950929137748, 56.892268700058764 ], [ 12.587527744920678, 56.88332250146707 ], [ 12.588105053313503, 56.87436345085851 ], [ 12.571547470433796, 56.874042530576887 ], [ 12.572127563314371, 56.865096407430194 ], [ 12.555574271313244, 56.864773403672551 ], [ 12.539520318929945, 56.864458042941408 ], [ 12.522967713549555, 56.864130720913174 ], [ 12.506415460207482, 56.863801206852614 ] ] ], [ [ [ 12.487960392283123, 56.899287397363786 ], [ 12.488561877978894, 56.890329039483973 ], [ 12.504626304997709, 56.890651041682503 ], [ 12.505222750723854, 56.881705391877468 ], [ 12.489162153627685, 56.881383498911745 ], [ 12.472602704404807, 56.881049440436804 ], [ 12.456026401738159, 56.880712838064845 ], [ 12.455418224903255, 56.889658151057652 ], [ 12.454808822108895, 56.898616280922823 ], [ 12.471393037738187, 56.898953111953837 ], [ 12.487960392283123, 56.899287397363786 ] ] ], [ [ [ 12.780495326891339, 56.67143206212252 ], [ 12.796966369928738, 56.671724626637932 ], [ 12.796443076844584, 56.680685287422016 ], [ 12.812404548103157, 56.680966747208529 ], [ 12.811885482834779, 56.689914649518379 ], [ 12.828382070303027, 56.690203421412029 ], [ 12.827865873763498, 56.699164243257506 ], [ 12.844349546197696, 56.699450632327078 ], [ 12.84383769790883, 56.708398697254566 ], [ 12.8598114006942, 56.708674169707898 ], [ 12.876316714686745, 56.708956655007945 ], [ 12.892805188363106, 56.709236665255439 ], [ 12.908779751452505, 56.709505863657547 ], [ 12.90927621104913, 56.700557424084273 ], [ 12.925778495467117, 56.700833333005221 ], [ 12.926271465196178, 56.691871945635235 ], [ 12.942752994094526, 56.692145294171503 ], [ 12.958737954996717, 56.692408320598922 ], [ 12.959222244952246, 56.683459574696691 ], [ 12.959706949804179, 56.674497974177015 ], [ 12.960191374754096, 56.665536357975853 ], [ 12.960691468478458, 56.656279428501101 ], [ 12.944721779219805, 56.6560167610766 ], [ 12.94520941840239, 56.64705520194002 ], [ 12.945696078160275, 56.638106466024844 ], [ 12.929238086684414, 56.637833675263096 ], [ 12.912763277836595, 56.637558422629716 ], [ 12.896819089860792, 56.63728995542148 ], [ 12.897317735051434, 56.628328641263558 ], [ 12.88086450711031, 56.628049486093104 ], [ 12.880361967177018, 56.63701070572381 ], [ 12.879859857749295, 56.645959071067793 ], [ 12.863382030221118, 56.645677257759054 ], [ 12.862875007251443, 56.654638350165762 ], [ 12.846924127334027, 56.654363439931011 ], [ 12.847434927476977, 56.645402440604805 ], [ 12.830974803153543, 56.645116636085163 ], [ 12.830460104490951, 56.654077538610871 ], [ 12.813979272156912, 56.653789160813652 ], [ 12.814497873149273, 56.644828355925448 ], [ 12.798551645550283, 56.644547280335239 ], [ 12.799072973869944, 56.635599392246554 ], [ 12.78261764955313, 56.635307226884059 ], [ 12.766145531133024, 56.63501258026006 ], [ 12.765616419071495, 56.643960269920619 ], [ 12.765086242207074, 56.652920780806127 ], [ 12.764538273893432, 56.662176535049603 ], [ 12.76400747441062, 56.671137012961978 ], [ 12.780495326891339, 56.67143206212252 ] ], [ [ 12.909773095857197, 56.691596130201773 ], [ 12.893806107170436, 56.691327114075307 ], [ 12.894305774896829, 56.682378733951765 ], [ 12.877829021668415, 56.682099007959486 ], [ 12.861335439593161, 56.681816809422948 ], [ 12.845373090376603, 56.681541616609941 ], [ 12.828897229769671, 56.681255421418271 ], [ 12.829412830619896, 56.672294567523721 ], [ 12.829928133767529, 56.663333697594197 ], [ 12.846396185949756, 56.663619698952644 ], [ 12.862350969788153, 56.663894705381288 ], [ 12.878836734375742, 56.664176712785753 ], [ 12.879356737823539, 56.654920258926019 ], [ 12.895821651136126, 56.655199697676686 ], [ 12.896320871834247, 56.646238415201864 ], [ 12.912268830081128, 56.646506973201411 ], [ 12.928747534835175, 56.646782318922142 ], [ 12.928255995733048, 56.655743785626534 ], [ 12.927747961718792, 56.665000527659373 ], [ 12.927255845271219, 56.673961962310692 ], [ 12.926763444486975, 56.682923381194506 ], [ 12.926271465196178, 56.691871945635235 ], [ 12.909773095857197, 56.691596130201773 ] ] ] ] } },
{ "type": "Feature", "properties": { "klass": "3 Peri-urbant" }, "geometry": { "type": "MultiPolygon", "coordinates": [ [ [ [ 11.918456717046951, 57.426096066968462 ], [ 11.902184106607605, 57.425696779772515 ], [ 11.901426957362549, 57.434649874813729 ], [ 11.900670448348711, 57.4435901239031 ], [ 11.899912408445969, 57.452543180549625 ], [ 11.899155009326174, 57.461483391292461 ], [ 11.898396077314302, 57.470436409530578 ], [ 11.897636698382298, 57.479389408545607 ], [ 11.896877961061946, 57.488329561729181 ], [ 11.89611768783713, 57.497282522315132 ], [ 11.91242204106346, 57.497682905138099 ], [ 11.911666384753085, 57.506623157071807 ], [ 11.91090919856155, 57.515576216609716 ], [ 11.927764536928777, 57.515987987889346 ], [ 11.927011022370587, 57.524941169532106 ], [ 11.943853426887356, 57.525350408108721 ], [ 11.943104659113549, 57.53429088400862 ], [ 11.959426247227388, 57.534685354328168 ], [ 11.958654285725315, 57.543946627291263 ], [ 11.975523469332837, 57.544352147788295 ], [ 11.974780847181732, 57.553305686700909 ], [ 11.974038851630592, 57.562246379319852 ], [ 11.990899208275218, 57.562649506990745 ], [ 11.991637084753334, 57.553708676211393 ], [ 12.007985608527765, 57.554097370114356 ], [ 12.008720109481814, 57.545143559522479 ], [ 12.025573100705198, 57.545541984099415 ], [ 12.042426533059356, 57.545938161300931 ], [ 12.058772328799778, 57.546320248641031 ], [ 12.058050074438722, 57.555274463193669 ], [ 12.074908492848193, 57.555666347530526 ], [ 12.091767345378409, 57.556055983362285 ], [ 12.108118391201545, 57.556431725448448 ], [ 12.12497809162401, 57.556816931701356 ], [ 12.124272807899995, 57.565758828213959 ], [ 12.141154587945845, 57.56614231397522 ], [ 12.157493330626032, 57.566511308184793 ], [ 12.174358414089115, 57.566889965109354 ], [ 12.191241449189047, 57.56726676216087 ], [ 12.207581399474941, 57.567629282646116 ], [ 12.206895094422904, 57.576584632392141 ], [ 12.223765549379987, 57.576956734637449 ], [ 12.240653954496903, 57.577326969080893 ], [ 12.239976490419707, 57.586269725489892 ], [ 12.256325631810251, 57.586626015748628 ], [ 12.255650804008431, 57.595581707051032 ], [ 12.272548292090978, 57.595947753450268 ], [ 12.289428639594837, 57.596311165598124 ], [ 12.290095186467656, 57.587355223734875 ], [ 12.273218977443722, 57.586991936416275 ], [ 12.273888306753905, 57.578048932332415 ], [ 12.27455820094583, 57.569093079783151 ], [ 12.275226740874619, 57.560150040239428 ], [ 12.25834579613106, 57.55978449603743 ], [ 12.259019033176385, 57.550828733467547 ], [ 12.259715000897295, 57.541565017614346 ], [ 12.260386467223411, 57.532622049456272 ], [ 12.277254885110674, 57.532987213255595 ], [ 12.277922793224732, 57.524031271334131 ], [ 12.278590307583798, 57.515075311656908 ], [ 12.27925647303009, 57.506132165152088 ], [ 12.279923201406536, 57.497176169995512 ], [ 12.280588582636522, 57.488232988066578 ], [ 12.281254526312011, 57.479276957439474 ], [ 12.281920077835967, 57.470320909067738 ], [ 12.265080474889231, 57.469956620723352 ], [ 12.248783342027323, 57.469601919796595 ], [ 12.249455621799457, 57.460658930837859 ], [ 12.265748784475855, 57.461013510355414 ], [ 12.266417659260307, 57.452057551337774 ], [ 12.267085183015997, 57.443114405446295 ], [ 12.267753271482919, 57.43415841085865 ], [ 12.268420966989735, 57.425202398476642 ], [ 12.252143678872425, 57.424848304526662 ], [ 12.252837058387726, 57.41559728659081 ], [ 12.253507917863306, 57.406641359267233 ], [ 12.236697940660161, 57.406273537060066 ], [ 12.237372496733997, 57.397317717840458 ], [ 12.220584468205978, 57.396948166535417 ], [ 12.204320364351581, 57.396588007590026 ], [ 12.205001587165702, 57.387645250657691 ], [ 12.188200996610385, 57.387271036070977 ], [ 12.171418265264226, 57.386894974305058 ], [ 12.155159300013132, 57.386528508978444 ], [ 12.138359944142911, 57.386147651363551 ], [ 12.139057946660245, 57.377192558682658 ], [ 12.122280535537246, 57.376809992118893 ], [ 12.10600929170714, 57.376436824813929 ], [ 12.105303253394808, 57.38539165873987 ], [ 12.088522597534679, 57.385004560352272 ], [ 12.07174236909988, 57.384615228048425 ], [ 12.071028777764701, 57.393556948851703 ], [ 12.070313742856369, 57.402511480004144 ], [ 12.069598287536138, 57.411465992621864 ], [ 12.086390760019853, 57.411855724874911 ], [ 12.103183660973022, 57.412243220925305 ], [ 12.102452634711476, 57.421493051848017 ], [ 12.10174450511467, 57.430447793167197 ], [ 12.084943290069987, 57.430060027181476 ], [ 12.084230650515554, 57.439014617208912 ], [ 12.067425771700538, 57.438624479826437 ], [ 12.051127897490758, 57.438243965141623 ], [ 12.050407805072034, 57.447185444066783 ], [ 12.049686255360568, 57.456139732913243 ], [ 12.0328740440068, 57.455744916028443 ], [ 12.033599690766597, 57.446790762460388 ], [ 12.016792013639117, 57.446393841929975 ], [ 12.017520283271031, 57.437452633805492 ], [ 12.018249169158684, 57.428498578820474 ], [ 12.001956521344914, 57.428111750044287 ], [ 12.002688944549471, 57.419157808798801 ], [ 11.985894403499406, 57.418756890317844 ], [ 11.986654729963211, 57.409508027226863 ], [ 11.987390362210514, 57.400554184976613 ], [ 11.988125562243543, 57.391600323865703 ], [ 11.971326405616351, 57.391197167779453 ], [ 11.95506845616311, 57.390804858164508 ], [ 11.954325217128817, 57.399758446890552 ], [ 11.937540302812584, 57.399351170991117 ], [ 11.936792543999371, 57.408304601248332 ], [ 11.919986545630852, 57.407894523763936 ], [ 11.919209461651239, 57.417142815994268 ], [ 11.918456717046951, 57.426096066968462 ] ], [ [ 12.12157845346821, 57.385764953811886 ], [ 12.120876965493901, 57.394707067748591 ], [ 12.104597812534779, 57.394333645030613 ], [ 12.105303253394808, 57.38539165873987 ], [ 12.12157845346821, 57.385764953811886 ] ], [ [ 12.04824291641733, 57.474035426328967 ], [ 12.048965315489029, 57.465081174690006 ], [ 12.065275099951924, 57.465462080411172 ], [ 12.082092260261396, 57.465852618727254 ], [ 12.098909851150493, 57.466240916232714 ], [ 12.115220875822979, 57.466615367688021 ], [ 12.11451464028219, 57.475570145356578 ], [ 12.11380798871682, 57.484524904660304 ], [ 12.113101934076621, 57.493466816467851 ], [ 12.112394450040334, 57.502421539060016 ], [ 12.111687563443612, 57.511363414203146 ], [ 12.110979245577195, 57.520318100072814 ], [ 12.094644320002848, 57.519942877690895 ], [ 12.077802087380434, 57.519553780769051 ], [ 12.060960287450223, 57.519162438440475 ], [ 12.044626608170384, 57.518780748554278 ], [ 12.045351137016405, 57.509826589998909 ], [ 12.046074201877682, 57.500885241157668 ], [ 12.04679787789374, 57.491931045365369 ], [ 12.04752009184125, 57.482989659346416 ], [ 12.04824291641733, 57.474035426328967 ] ] ], [ [ [ 12.190621184713136, 57.135663628648693 ], [ 12.207290343477101, 57.136036102870065 ], [ 12.20661620957291, 57.144979237567085 ], [ 12.189943039903667, 57.144606636477327 ], [ 12.189263525676646, 57.153562456950858 ], [ 12.205940714341336, 57.153935185152207 ], [ 12.205242546207604, 57.163186223833904 ], [ 12.188561203660282, 57.16281336426816 ], [ 12.18788088186437, 57.171769147973762 ], [ 12.187200162341938, 57.180724913589657 ], [ 12.171031617937905, 57.180361320652743 ], [ 12.154325682858644, 57.179983448175534 ], [ 12.153637618280904, 57.188926112406449 ], [ 12.136945421928974, 57.188546284939299 ], [ 12.136251937669893, 57.197501631526826 ], [ 12.152948163820334, 57.19788158865493 ], [ 12.152258306042647, 57.206837046684115 ], [ 12.135558047746111, 57.206456959832437 ], [ 12.119361624755154, 57.206086211266303 ], [ 12.118664416877184, 57.215028564929888 ], [ 12.13486474681331, 57.215399439909561 ], [ 12.134170045157603, 57.224354731669699 ], [ 12.150878369011515, 57.224735077970415 ], [ 12.167604475894846, 57.225113595590486 ], [ 12.166918435082204, 57.234056297999004 ], [ 12.18311041179115, 57.234420635939856 ], [ 12.199823992701697, 57.234794514567476 ], [ 12.216555355264877, 57.235166556695177 ], [ 12.232748503678273, 57.235524502326136 ], [ 12.232076999485642, 57.244480518444881 ], [ 12.248795826274055, 57.244847924152658 ], [ 12.265532433312716, 57.2452134855398 ], [ 12.28173065084207, 57.245565158013477 ], [ 12.29846804032934, 57.24592633598661 ], [ 12.299123486253896, 57.236969826057425 ], [ 12.315839843898887, 57.237328282243375 ], [ 12.332035273832187, 57.2376734403908 ], [ 12.348769775613798, 57.238027887786345 ], [ 12.365487285843443, 57.238379743295546 ], [ 12.366125383207221, 57.229435566566345 ], [ 12.382318010981919, 57.229774214039423 ], [ 12.399049610020061, 57.230121934635591 ], [ 12.399680288085559, 57.221164673686488 ], [ 12.416390849174357, 57.221509691956889 ], [ 12.417016221691984, 57.212565128821893 ], [ 12.433202113287132, 57.212897155703473 ], [ 12.433824105342161, 57.203939628999905 ], [ 12.434445733617455, 57.194982085075601 ], [ 12.451162283089838, 57.19532273334115 ], [ 12.451778626560195, 57.186377889288188 ], [ 12.452395493729863, 57.177420194737643 ], [ 12.453012000351384, 57.168462483027618 ], [ 12.453648443405539, 57.159209585151537 ], [ 12.470331757711623, 57.159547194142831 ], [ 12.470943508313644, 57.150589332383717 ], [ 12.471554025926574, 57.141644287175268 ], [ 12.472165062682459, 57.132686391244491 ], [ 12.472775742691566, 57.123728478218077 ], [ 12.473385192107518, 57.114783381820629 ], [ 12.473995159996289, 57.105825434632258 ], [ 12.474603898885189, 57.096880304125051 ], [ 12.475213155800748, 57.087922322781203 ], [ 12.475822057404677, 57.078964324349791 ], [ 12.459174857172885, 57.078627749400233 ], [ 12.459786529362436, 57.069682682236206 ], [ 12.460398722320676, 57.060724764276202 ], [ 12.461010558500723, 57.051766829178398 ], [ 12.461621162399229, 57.042821710699144 ], [ 12.444973025723996, 57.042483034245393 ], [ 12.44560929116175, 57.03321717347557 ], [ 12.446223161635341, 57.024272135313787 ], [ 12.430119158832962, 57.023942483947984 ], [ 12.430737416331176, 57.014984707199758 ], [ 12.446837555156975, 57.015314246350655 ], [ 12.447451591025505, 57.006356340202764 ], [ 12.464083620139975, 57.006694551907565 ], [ 12.463473574744702, 57.015652573209579 ], [ 12.48009268324164, 57.015988343169447 ], [ 12.496211145291468, 57.016311885321592 ], [ 12.512830963726008, 57.016643312584975 ], [ 12.529451139040692, 57.016972535122441 ], [ 12.545570629021592, 57.017289726944412 ], [ 12.546160978854061, 57.008331148385395 ], [ 12.562777862194217, 57.008655917055364 ], [ 12.579395095089279, 57.008978481455408 ], [ 12.595511724354942, 57.009289216290568 ], [ 12.612129638887916, 57.009607438316074 ], [ 12.612702998329482, 57.000661243795228 ], [ 12.629334544991671, 57.000977481095831 ], [ 12.645431028707527, 57.001281435387959 ], [ 12.645997027650681, 56.992322177871102 ], [ 12.66260798575294, 56.992633640429588 ], [ 12.663168868135788, 56.98368709617538 ], [ 12.663730228694231, 56.974727699648014 ], [ 12.680350823074097, 56.975037068696764 ], [ 12.680907874596395, 56.966077550425062 ], [ 12.6969898965311, 56.966374758289049 ], [ 12.69754197991708, 56.957427958640324 ], [ 12.714138016895912, 56.957732462852661 ], [ 12.714686596849033, 56.948772707098158 ], [ 12.715234857923793, 56.93981293499931 ], [ 12.731840518756609, 56.940115345877878 ], [ 12.732383708020201, 56.931168291138327 ], [ 12.732927360770674, 56.922208383596789 ], [ 12.733488595991355, 56.912953218442432 ], [ 12.734031606979654, 56.90399327778038 ], [ 12.750087529728034, 56.90428345714836 ], [ 12.750626387987722, 56.895323401578878 ], [ 12.751164162094206, 56.886376166557696 ], [ 12.751702395408538, 56.877416078527538 ], [ 12.735657972802764, 56.877126194728298 ], [ 12.736198948646756, 56.868179025629651 ], [ 12.736740386576717, 56.859219003571468 ], [ 12.737281510469938, 56.850258965227482 ], [ 12.737821546002428, 56.841311747364763 ], [ 12.721259581321808, 56.841010467697672 ], [ 12.721804027139882, 56.832050499097775 ], [ 12.722348157390961, 56.823090514166147 ], [ 12.705811601222088, 56.822787561092241 ], [ 12.706358571514409, 56.81384049920019 ], [ 12.690341829849674, 56.813545005907379 ], [ 12.690893082341777, 56.804585191398282 ], [ 12.674347858854173, 56.804277816037079 ], [ 12.674901936248277, 56.795330925696021 ], [ 12.658378152102655, 56.795021785472244 ], [ 12.642369978716625, 56.794720200169124 ], [ 12.642932271666973, 56.785760664276523 ], [ 12.626395902418707, 56.785446998105009 ], [ 12.609877040781621, 56.785131470580268 ], [ 12.609306880487742, 56.794090792946719 ], [ 12.593282498857548, 56.793782584614739 ], [ 12.592709016339215, 56.802728950180665 ], [ 12.592134378476146, 56.81168813456501 ], [ 12.608166386683598, 56.81199655201015 ], [ 12.607596053592763, 56.820942988752414 ], [ 12.591560231529956, 56.820634466751109 ], [ 12.590984927754159, 56.829593617705214 ], [ 12.574447067990834, 56.829273241599971 ], [ 12.573867488295146, 56.838232267031032 ], [ 12.557326030469014, 56.837909592036254 ], [ 12.541283554717948, 56.837594552283186 ], [ 12.54069671159068, 56.846540509417913 ], [ 12.540108685848425, 56.855499284623725 ], [ 12.539520318929945, 56.864458042941408 ], [ 12.555574271313244, 56.864773403672551 ], [ 12.572127563314371, 56.865096407430194 ], [ 12.571547470433796, 56.874042530576887 ], [ 12.588105053313503, 56.87436345085851 ], [ 12.587527744920678, 56.88332250146707 ], [ 12.586950929137748, 56.892268700058764 ], [ 12.570385442167325, 56.891947561774536 ], [ 12.569803505275628, 56.900906469774725 ], [ 12.553234406189487, 56.90058302703968 ], [ 12.55264817094181, 56.909541808294314 ], [ 12.536575048376994, 56.909225911629861 ], [ 12.535965168740564, 56.918479767649487 ], [ 12.535374395596397, 56.927438407202075 ], [ 12.518793968457542, 56.927110302246717 ], [ 12.502213895345569, 56.926780000029751 ], [ 12.486133977731114, 56.926457556138381 ], [ 12.469554608881051, 56.926122925926386 ], [ 12.470161118589743, 56.917164733516522 ], [ 12.470787243765409, 56.907911339149294 ], [ 12.471393037738187, 56.898953111953837 ], [ 12.454808822108895, 56.898616280922823 ], [ 12.455418224903255, 56.889658151057652 ], [ 12.439372051468139, 56.88933018032035 ], [ 12.422809729109138, 56.888989493027367 ], [ 12.422192537846666, 56.897947395644074 ], [ 12.405609406723286, 56.897604040472658 ], [ 12.404987895135303, 56.906561809113036 ], [ 12.388935111182645, 56.906227299421985 ], [ 12.388288778188528, 56.915480102434536 ], [ 12.371715549977933, 56.915132542546033 ], [ 12.355125469137857, 56.914782422332884 ], [ 12.354491457221691, 56.923739804780794 ], [ 12.338431950850177, 56.923398744422585 ], [ 12.337794645194213, 56.932343160683068 ], [ 12.353857985999088, 56.932684336839735 ], [ 12.353223237466883, 56.941641684309943 ], [ 12.337156054504982, 56.9413003921333 ], [ 12.336517092574564, 56.950257606023747 ], [ 12.335878675321418, 56.959201969705525 ], [ 12.335238970547307, 56.968159148495666 ], [ 12.351317687825903, 56.968500788898844 ], [ 12.350681461983422, 56.977458066365372 ], [ 12.350045778232813, 56.986402493581743 ], [ 12.34940881222027, 56.995359736047313 ], [ 12.348772388766418, 57.004304128309009 ], [ 12.332678264871594, 57.003962022936918 ], [ 12.332036697496591, 57.012919113928909 ], [ 12.331394756488793, 57.021876187345235 ], [ 12.314774987600247, 57.021520659533003 ], [ 12.298138328383615, 57.021162554466194 ], [ 12.297488964384929, 57.030106535200666 ], [ 12.281384368899126, 57.029757736143949 ], [ 12.280707316360287, 57.039022378152588 ], [ 12.264063306376434, 57.038659675885413 ], [ 12.263405319555646, 57.047603378658785 ], [ 12.262746004928941, 57.056559895339277 ], [ 12.24611169099426, 57.056195114923078 ], [ 12.22999649632742, 57.055839605520923 ], [ 12.229328928932864, 57.064795858989697 ], [ 12.228661929531674, 57.073739263249053 ], [ 12.244784864359756, 57.074095014767423 ], [ 12.261427168230391, 57.074460043618572 ], [ 12.278087166690799, 57.074823240034021 ], [ 12.294211235962839, 57.075172637345446 ], [ 12.310872004940132, 57.075531478615332 ], [ 12.310223426194131, 57.084488306999589 ], [ 12.309574469065796, 57.093445117733623 ], [ 12.308926063801607, 57.102389078746192 ], [ 12.308276349536223, 57.111345854198817 ], [ 12.307627187610306, 57.12028977997636 ], [ 12.306976714986652, 57.129246520139262 ], [ 12.30632586245282, 57.138203242641495 ], [ 12.305675562972397, 57.147147115538296 ], [ 12.305023950243029, 57.156103802738308 ], [ 12.288327056862757, 57.155743859224494 ], [ 12.272168028777985, 57.155393388698478 ], [ 12.255471911525671, 57.155029076704402 ], [ 12.256135469009756, 57.146072756054437 ], [ 12.256797689197908, 57.137129249006321 ], [ 12.2401273387395, 57.136763348482532 ], [ 12.240794137432687, 57.127807116933056 ], [ 12.241460546943134, 57.118850867486607 ], [ 12.225318219566816, 57.118494509572251 ], [ 12.22598716597987, 57.109551194863919 ], [ 12.209312319077991, 57.109180929012936 ], [ 12.192655190550468, 57.108808835394406 ], [ 12.176517901353318, 57.108446236877988 ], [ 12.175837063872965, 57.117389175385135 ], [ 12.175154851812914, 57.126344926385563 ], [ 12.191299906320925, 57.12670777203892 ], [ 12.190621184713136, 57.135663628648693 ] ], [ [ 12.201180764856446, 57.216895757659735 ], [ 12.184475256175311, 57.216522134120837 ], [ 12.185156591439082, 57.207579271355542 ], [ 12.201858070419965, 57.20795276753374 ], [ 12.201180764856446, 57.216895757659735 ] ] ], [ [ [ 12.645756524978241, 56.740680341135302 ], [ 12.661741755205515, 56.740981310059325 ], [ 12.678241856112045, 56.741289818453033 ], [ 12.677688917640738, 56.750249644414126 ], [ 12.694210423639463, 56.750556391605848 ], [ 12.693661879864491, 56.75950346860575 ], [ 12.709655647324183, 56.759798357776852 ], [ 12.709109802253806, 56.768758354961648 ], [ 12.725622635109573, 56.769060688715562 ], [ 12.72508117947954, 56.778007935324737 ], [ 12.741615426473045, 56.778308496772439 ], [ 12.757617723084776, 56.778597297105158 ], [ 12.757064526334226, 56.787865653323145 ], [ 12.773603471671642, 56.78816200848788 ], [ 12.790125557766311, 56.788455868029772 ], [ 12.806132700303994, 56.788738477952471 ], [ 12.822672575279814, 56.789028331796828 ], [ 12.8221530744374, 56.797988976735766 ], [ 12.83868001709687, 56.798276438990598 ], [ 12.85469185838744, 56.798552850174538 ], [ 12.871236581827743, 56.798836298117287 ], [ 12.887764426432307, 56.79911726258743 ], [ 12.903777134940382, 56.799387378380878 ], [ 12.904277200710453, 56.790426258926487 ], [ 12.920818873301261, 56.790703107858697 ], [ 12.937343663063118, 56.790977480665084 ], [ 12.953370583149917, 56.791241492698546 ], [ 12.96989594572203, 56.791511556203503 ], [ 12.970396742294502, 56.782241920481411 ], [ 12.986918322302651, 56.782509702223166 ], [ 13.002942122560459, 56.782767322386725 ], [ 13.003417558833604, 56.773818463555003 ], [ 13.019935770452388, 56.774081847773274 ], [ 13.020407682951532, 56.765120044937973 ], [ 13.036939410877078, 56.765381424361223 ], [ 13.052939229521716, 56.76563230397462 ], [ 13.053402465836882, 56.756683151411487 ], [ 13.06991364770689, 56.756939867763357 ], [ 13.070373353795432, 56.747977773182782 ], [ 13.086898041194404, 56.748232481344623 ], [ 13.087353552701467, 56.73927028499898 ], [ 13.087808148698308, 56.730320913159666 ], [ 13.103793549375027, 56.730565171843004 ], [ 13.10424473653412, 56.721602862011025 ], [ 13.104695662823996, 56.712640536869131 ], [ 13.105145682986143, 56.703691036457684 ], [ 13.105596088534041, 56.694728680718264 ], [ 13.12208064135833, 56.694978314063967 ], [ 13.122526236141686, 56.686028698633208 ], [ 13.122972212629598, 56.677066227749691 ], [ 13.123417931538674, 56.668103741596866 ], [ 13.123878067228105, 56.658845913936844 ], [ 13.107409269505709, 56.658596621360459 ], [ 13.10785836771797, 56.649634188591719 ], [ 13.108306563873619, 56.640684580708395 ], [ 13.108755144250701, 56.631722117343621 ], [ 13.109203465833376, 56.622759638670026 ], [ 13.093263604658903, 56.622516373474944 ], [ 13.093714792234429, 56.613566801973981 ], [ 13.094166366769963, 56.604604375005188 ], [ 13.094617680957759, 56.595641932688999 ], [ 13.078159573203108, 56.595388689548223 ], [ 13.078613865902055, 56.586439157651078 ], [ 13.079068548399256, 56.577476770302923 ], [ 13.062635564148229, 56.577221789555601 ], [ 13.063093209805258, 56.568272313070551 ], [ 13.047176701606052, 56.56802329811191 ], [ 13.0307310504289, 56.567763861356724 ], [ 13.031196729907895, 56.558801701411809 ], [ 13.014772309918548, 56.558540451798414 ], [ 12.998843277291893, 56.558285006067038 ], [ 12.982419405001515, 56.558019484494608 ], [ 12.965995814141062, 56.557751794371029 ], [ 12.966476613006202, 56.548789973920726 ], [ 12.950552149708988, 56.548528370536687 ], [ 12.934132995227191, 56.548256500868312 ], [ 12.933644562315679, 56.557218140882767 ], [ 12.933155847995552, 56.5661797651359 ], [ 12.932667552812326, 56.575128534657857 ], [ 12.932178275408754, 56.584090127409524 ], [ 12.915726817303195, 56.583815432911258 ], [ 12.915234076914848, 56.592764078151994 ], [ 12.914740345245775, 56.601725546399337 ], [ 12.898811232884571, 56.601457442317958 ], [ 12.898313449448258, 56.610418804007786 ], [ 12.897816092625137, 56.619367311253569 ], [ 12.897317735051434, 56.628328641263558 ], [ 12.896819089860792, 56.63728995542148 ], [ 12.912763277836595, 56.637558422629716 ], [ 12.929238086684414, 56.637833675263096 ], [ 12.945696078160275, 56.638106466024844 ], [ 12.94520941840239, 56.64705520194002 ], [ 12.944721779219805, 56.6560167610766 ], [ 12.960691468478458, 56.656279428501101 ], [ 12.960191374754096, 56.665536357975853 ], [ 12.959706949804179, 56.674497974177015 ], [ 12.959222244952246, 56.683459574696691 ], [ 12.958737954996717, 56.692408320598922 ], [ 12.942752994094526, 56.692145294171503 ], [ 12.926271465196178, 56.691871945635235 ], [ 12.925778495467117, 56.700833333005221 ], [ 12.90927621104913, 56.700557424084273 ], [ 12.908779751452505, 56.709505863657547 ], [ 12.892805188363106, 56.709236665255439 ], [ 12.876316714686745, 56.708956655007945 ], [ 12.8598114006942, 56.708674169707898 ], [ 12.84383769790883, 56.708398697254566 ], [ 12.844349546197696, 56.699450632327078 ], [ 12.827865873763498, 56.699164243257506 ], [ 12.828382070303027, 56.690203421412029 ], [ 12.811885482834779, 56.689914649518379 ], [ 12.812404548103157, 56.680966747208529 ], [ 12.796443076844584, 56.680685287422016 ], [ 12.796966369928738, 56.671724626637932 ], [ 12.780495326891339, 56.67143206212252 ], [ 12.76400747441062, 56.671137012961978 ], [ 12.764538273893432, 56.662176535049603 ], [ 12.765086242207074, 56.652920780806127 ], [ 12.765616419071495, 56.643960269920619 ], [ 12.74967108625331, 56.64367293662945 ], [ 12.750203966502184, 56.634725344094399 ], [ 12.73373246755072, 56.63442641048762 ], [ 12.717278390680818, 56.634125612266942 ], [ 12.7167377281728, 56.643073002014532 ], [ 12.716195977634658, 56.652033212414793 ], [ 12.715636047281064, 56.66128865612238 ], [ 12.715093660568103, 56.670248833260338 ], [ 12.699137785950446, 56.669954941322715 ], [ 12.698591304291783, 56.678915002529656 ], [ 12.682101119950037, 56.678609085502544 ], [ 12.66562838521234, 56.67830130767986 ], [ 12.665074568100854, 56.687248308107549 ], [ 12.664519636153457, 56.696208128478887 ], [ 12.681000177739977, 56.696516114767654 ], [ 12.68044962476081, 56.705463186476109 ], [ 12.663965179178531, 56.705155095955035 ], [ 12.663409605939535, 56.714114883325358 ], [ 12.647435752215603, 56.71381422017771 ], [ 12.646876065923895, 56.722773889108247 ], [ 12.630367302005347, 56.722460969850488 ], [ 12.629804180252648, 56.731407680109989 ], [ 12.646316858468214, 56.731720705309023 ], [ 12.645756524978241, 56.740680341135302 ] ] ], [ [ [ 12.862875007251443, 56.654638350165762 ], [ 12.863382030221118, 56.645677257759054 ], [ 12.863888034858764, 56.636728987684798 ], [ 12.847944701706657, 56.636454263433798 ], [ 12.847434927476977, 56.645402440604805 ], [ 12.846924127334027, 56.654363439931011 ], [ 12.862875007251443, 56.654638350165762 ] ] ] ] } },
{ "type": "Feature", "properties": { "klass": "4 Lokalt centrum nära stad" }, "geometry": { "type": "MultiPolygon", "coordinates": [ [ [ [ 12.006367619770263, 57.374105601449195 ], [ 11.989593615322482, 57.373705373023085 ], [ 11.988859278046045, 57.38265927181898 ], [ 11.988125562243543, 57.391600323865703 ], [ 11.987390362210514, 57.400554184976613 ], [ 11.986654729963211, 57.409508027226863 ], [ 11.985894403499406, 57.418756890317844 ], [ 12.002688944549471, 57.419157808798801 ], [ 12.001956521344914, 57.428111750044287 ], [ 12.018249169158684, 57.428498578820474 ], [ 12.017520283271031, 57.437452633805492 ], [ 12.016792013639117, 57.446393841929975 ], [ 12.033599690766597, 57.446790762460388 ], [ 12.0328740440068, 57.455744916028443 ], [ 12.049686255360568, 57.456139732913243 ], [ 12.050407805072034, 57.447185444066783 ], [ 12.051127897490758, 57.438243965141623 ], [ 12.051848599224348, 57.429289639099366 ], [ 12.052568877182996, 57.420335294450247 ], [ 12.053312444644359, 57.411085873065701 ], [ 12.036520823349711, 57.410691736168964 ], [ 12.037244325852837, 57.401737488649431 ], [ 12.037967403236379, 57.392783222466292 ], [ 12.038689020830821, 57.383841766124149 ], [ 12.039411249619818, 57.37488746264939 ], [ 12.040132020523812, 57.365945969074943 ], [ 12.023361222631371, 57.365550273834977 ], [ 12.022636382465301, 57.374491632156975 ], [ 12.006367619770263, 57.374105601449195 ] ] ], [ [ [ 12.108827284447967, 57.340642963953918 ], [ 12.109531254219499, 57.331688038122721 ], [ 12.092775024210964, 57.331301733324423 ], [ 12.092066987465477, 57.340256526988028 ], [ 12.091359550341467, 57.349198473023684 ], [ 12.090650682552866, 57.358153229810377 ], [ 12.107419114782093, 57.358539931114414 ], [ 12.123682458723914, 57.358912843254323 ], [ 12.122981200338945, 57.367867841588314 ], [ 12.139754540135522, 57.368250277415328 ], [ 12.156545735971426, 57.368630874558491 ], [ 12.157238840208311, 57.359675615129419 ], [ 12.157931537576658, 57.350720337497513 ], [ 12.141148498081167, 57.350340000759751 ], [ 12.141843866140578, 57.341397664798848 ], [ 12.14253982356214, 57.332442480839916 ], [ 12.143234376529188, 57.323500108438424 ], [ 12.126481375215061, 57.323118325906194 ], [ 12.125782762797776, 57.332060567887744 ], [ 12.125082737727331, 57.34101562117629 ], [ 12.108827284447967, 57.340642963953918 ] ] ], [ [ [ 13.017598732243355, 56.504485220492974 ], [ 13.017130801783258, 56.513447385846902 ], [ 13.033535740021913, 56.513708191409151 ], [ 13.049958005193805, 56.513967099599952 ], [ 13.065851878967353, 56.514215607220301 ], [ 13.066308329597522, 56.505253182273748 ], [ 13.066763864329486, 56.496303582084117 ], [ 13.050877473278303, 56.496055242254663 ], [ 13.034462939294572, 56.495796508874811 ], [ 13.018065723783012, 56.495535879402169 ], [ 13.017598732243355, 56.504485220492974 ] ] ], [ [ [ 12.951905319489986, 56.81811279560209 ], [ 12.968442493315518, 56.818383134143524 ], [ 12.984979955158872, 56.81865128271658 ], [ 12.985461010023213, 56.809689735083346 ], [ 13.0014963913556, 56.809947620591615 ], [ 13.001972663718476, 56.800998808880308 ], [ 13.002449343308339, 56.792037142580178 ], [ 12.986421595622435, 56.791779431964187 ], [ 12.96989594572203, 56.791511556203503 ], [ 12.953370583149917, 56.791241492698546 ], [ 12.952882211494439, 56.800202888893999 ], [ 12.952394257068542, 56.8091514307593 ], [ 12.951905319489986, 56.81811279560209 ] ] ] ] } },
{ "type": "Feature", "properties": { "klass": "5 Lokalt centrum på landsbygd" }, "geometry": { "type": "Polygon", "coordinates": [ [ [ 13.222087312570522, 57.001834116136692 ], [ 13.221659622537354, 57.010796612844985 ], [ 13.237766341296586, 57.011024416106984 ], [ 13.254409047905757, 57.01125762058868 ], [ 13.254828871555409, 57.002294966900422 ], [ 13.255247849823682, 56.99334513880148 ], [ 13.255667185140103, 56.984382455292831 ], [ 13.239036458740461, 56.984149488813479 ], [ 13.222941333953598, 56.983921918038604 ], [ 13.222514141389313, 56.992884444717703 ], [ 13.222087312570522, 57.001834116136692 ] ] ] } },
{ "type": "Feature", "properties": { "klass": "6 Stadsnära landsbygd" }, "geometry": { "type": "MultiPolygon", "coordinates": [ [ [ [ 12.081722355815032, 57.259005832786286 ], [ 12.098445591048288, 57.259393301851155 ], [ 12.097740879813099, 57.268348243571886 ], [ 12.097036766128129, 57.277290337474682 ], [ 12.113768516411287, 57.277675846459012 ], [ 12.113042905093108, 57.286938792372595 ], [ 12.129274735958132, 57.287310686141403 ], [ 12.1460115057001, 57.287691947064694 ], [ 12.162766090409431, 57.288071374928649 ], [ 12.162076230149069, 57.297026779830411 ], [ 12.161386954532283, 57.305969336493334 ], [ 12.144624252577106, 57.305589649292209 ], [ 12.143929518351042, 57.314544887991808 ], [ 12.143234376529188, 57.323500108438424 ], [ 12.14253982356214, 57.332442480839916 ], [ 12.141843866140578, 57.341397664798848 ], [ 12.141148498081167, 57.350340000759751 ], [ 12.157931537576658, 57.350720337497513 ], [ 12.157238840208311, 57.359675615129419 ], [ 12.156545735971426, 57.368630874558491 ], [ 12.139754540135522, 57.368250277415328 ], [ 12.122981200338945, 57.367867841588314 ], [ 12.123682458723914, 57.358912843254323 ], [ 12.107419114782093, 57.358539931114414 ], [ 12.090650682552866, 57.358153229810377 ], [ 12.091359550341467, 57.349198473023684 ], [ 12.092066987465477, 57.340256526988028 ], [ 12.092775024210964, 57.331301733324423 ], [ 12.076019219549794, 57.330913199172805 ], [ 12.059768936110503, 57.330534248142598 ], [ 12.059052889030797, 57.339488779232454 ], [ 12.058337448376834, 57.348430462943391 ], [ 12.057620560893124, 57.35738495690152 ], [ 12.073882676708278, 57.357764296873171 ], [ 12.073169318831827, 57.366718902082845 ], [ 12.072456564810899, 57.375660659861701 ], [ 12.089232714720078, 57.376049858915046 ], [ 12.10600929170714, 57.376436824813929 ], [ 12.122280535537246, 57.376809992118893 ], [ 12.139057946660245, 57.377192558682658 ], [ 12.138359944142911, 57.386147651363551 ], [ 12.155159300013132, 57.386528508978444 ], [ 12.171418265264226, 57.386894974305058 ], [ 12.188200996610385, 57.387271036070977 ], [ 12.205001587165702, 57.387645250657691 ], [ 12.204320364351581, 57.396588007590026 ], [ 12.220584468205978, 57.396948166535417 ], [ 12.237372496733997, 57.397317717840458 ], [ 12.236697940660161, 57.406273537060066 ], [ 12.253507917863306, 57.406641359267233 ], [ 12.252837058387726, 57.41559728659081 ], [ 12.252143678872425, 57.424848304526662 ], [ 12.268420966989735, 57.425202398476642 ], [ 12.267753271482919, 57.43415841085865 ], [ 12.267085183015997, 57.443114405446295 ], [ 12.266417659260307, 57.452057551337774 ], [ 12.265748784475855, 57.461013510355414 ], [ 12.28258428485748, 57.461377674006535 ], [ 12.281920077835967, 57.470320909067738 ], [ 12.281254526312011, 57.479276957439474 ], [ 12.280588582636522, 57.488232988066578 ], [ 12.279923201406536, 57.497176169995512 ], [ 12.27925647303009, 57.506132165152088 ], [ 12.278590307583798, 57.515075311656908 ], [ 12.277922793224732, 57.524031271334131 ], [ 12.277254885110674, 57.532987213255595 ], [ 12.260386467223411, 57.532622049456272 ], [ 12.259715000897295, 57.541565017614346 ], [ 12.259019033176385, 57.550828733467547 ], [ 12.25834579613106, 57.55978449603743 ], [ 12.275226740874619, 57.560150040239428 ], [ 12.27455820094583, 57.569093079783151 ], [ 12.273888306753905, 57.578048932332415 ], [ 12.273218977443722, 57.586991936416275 ], [ 12.290095186467656, 57.587355223734875 ], [ 12.306445494852008, 57.587705033879693 ], [ 12.307106692402837, 57.578761785236679 ], [ 12.323997101483286, 57.579120886720411 ], [ 12.324654718474306, 57.570164666063754 ], [ 12.325311005995312, 57.56122125911984 ], [ 12.342176012952013, 57.561577490173825 ], [ 12.342828724766893, 57.552621112072785 ], [ 12.325967847541394, 57.552265003316982 ], [ 12.326646866160148, 57.543000777525457 ], [ 12.327301980037541, 57.534057317330955 ], [ 12.310432369539118, 57.533698835708492 ], [ 12.311092163053058, 57.524742649598963 ], [ 12.311751567578158, 57.515786445853067 ], [ 12.312409639561206, 57.506843055748234 ], [ 12.329266884226698, 57.507201168685235 ], [ 12.329921393210117, 57.49824480686442 ], [ 12.330574579710499, 57.489301258975246 ], [ 12.347406492983138, 57.489656509650622 ], [ 12.348056121302369, 57.480699990897932 ], [ 12.331228318321939, 57.480344862041576 ], [ 12.314383417730697, 57.47998711725031 ], [ 12.315040883179856, 57.471030825404831 ], [ 12.331881671942748, 57.471388447542026 ], [ 12.332533705676351, 57.462444847055785 ], [ 12.333186290808014, 57.453488397455764 ], [ 12.350001783252011, 57.453843161385805 ], [ 12.366293256835126, 57.454184724645586 ], [ 12.366936461625189, 57.445240850813612 ], [ 12.383766102311098, 57.445591445347105 ], [ 12.384405748043076, 57.436634601989638 ], [ 12.401214199164972, 57.436982471506461 ], [ 12.401849371811982, 57.428025491576967 ], [ 12.402505081970219, 57.418773349423219 ], [ 12.403139495462316, 57.409816334283001 ], [ 12.419412108104801, 57.410150871444898 ], [ 12.420042186349853, 57.401193724412472 ], [ 12.403773535990373, 57.400859301825626 ], [ 12.404406296290725, 57.3919150845148 ], [ 12.405039592334234, 57.38295801745334 ], [ 12.388255814711846, 57.382610865960267 ], [ 12.388891908693163, 57.37366673277014 ], [ 12.389528541417265, 57.364709749896043 ], [ 12.390164800303234, 57.355752749656205 ], [ 12.390799774911402, 57.346808564468404 ], [ 12.39143528756671, 57.337851529527633 ], [ 12.374654843070681, 57.337502376243734 ], [ 12.375293141627266, 57.3285582756764 ], [ 12.375931981224696, 57.319601325423349 ], [ 12.392704285253686, 57.319950240058091 ], [ 12.409459554077545, 57.320296561379514 ], [ 12.425692670688953, 57.320629955947915 ], [ 12.426319061164797, 57.311672636498706 ], [ 12.426944187679187, 57.302728132680627 ], [ 12.427569844293123, 57.293770778774295 ], [ 12.428216627579378, 57.284505417484382 ], [ 12.428840643375326, 57.275560861458466 ], [ 12.429465188578556, 57.266603455274719 ], [ 12.446214103907185, 57.266945035229419 ], [ 12.445593617248559, 57.275902558190658 ], [ 12.462329567226854, 57.276241672617552 ], [ 12.47856135670915, 57.27656843749849 ], [ 12.477949376545954, 57.285513337550675 ], [ 12.494690105092349, 57.285848180437348 ], [ 12.511431199287749, 57.286180795937803 ], [ 12.527667971307087, 57.286501256792057 ], [ 12.528267917420072, 57.277556019522059 ], [ 12.545005672134124, 57.277884135058052 ], [ 12.545602071094446, 57.268925934834861 ], [ 12.562336127565723, 57.269251712054846 ], [ 12.562927275216602, 57.260306217941505 ], [ 12.579153287773806, 57.260619940724474 ], [ 12.579741007256827, 57.251661488346578 ], [ 12.596467660555493, 57.251982660580332 ], [ 12.59705098600296, 57.243024081728656 ], [ 12.597633134932247, 57.234078320867489 ], [ 12.614369425708073, 57.234397380577533 ], [ 12.61494801922127, 57.225438659397 ], [ 12.631141962594674, 57.225745221767063 ], [ 12.631715477653652, 57.216799214284912 ], [ 12.632289479720107, 57.20784035521833 ], [ 12.648996947380102, 57.208154382827033 ], [ 12.649566574764215, 57.199195399961056 ], [ 12.650135053610867, 57.190249235825348 ], [ 12.65070401540536, 57.18129021993574 ], [ 12.667417075291306, 57.181602029647067 ], [ 12.667981668159831, 57.172642890813997 ], [ 12.668564518595772, 57.163388519512104 ], [ 12.669128440853655, 57.154429347198651 ], [ 12.669691226441115, 57.145482993943837 ], [ 12.670254490503625, 57.136523788720758 ], [ 12.670817425631142, 57.127564567032707 ], [ 12.686969268673947, 57.127863605477991 ], [ 12.687527181999091, 57.118917101091 ], [ 12.688085569869026, 57.10995774457129 ], [ 12.688642832580767, 57.101011207428535 ], [ 12.705302876825861, 57.101317378194281 ], [ 12.705856602189082, 57.092357884506221 ], [ 12.722530280248522, 57.092662053718918 ], [ 12.738667528191799, 57.092954320698418 ], [ 12.739213032315906, 57.083994607360076 ], [ 12.755883341613201, 57.084294312481326 ], [ 12.75642374070938, 57.075347317188204 ], [ 12.773073060698152, 57.075644397393141 ], [ 12.773609914231859, 57.066684448232074 ], [ 12.78973644976846, 57.066970058212753 ], [ 12.790269111698862, 57.058009995577486 ], [ 12.806928350743025, 57.058302826617584 ], [ 12.807455939923164, 57.049355485051194 ], [ 12.82409419950498, 57.049645702676877 ], [ 12.824636251733185, 57.040377318664106 ], [ 12.840751937135519, 57.040656281006719 ], [ 12.84127104336763, 57.031708713284871 ], [ 12.841790591762221, 57.022748292346911 ], [ 12.858434624845696, 57.023034161757131 ], [ 12.858949873740567, 57.014073627510484 ], [ 12.875572937961334, 57.014356895781695 ], [ 12.876083164325523, 57.005409086785335 ], [ 12.892184267630475, 57.005681324872377 ], [ 12.908821220727631, 57.005960443749181 ], [ 12.925441197778813, 57.006237066231314 ], [ 12.941560441106152, 57.006503243020475 ], [ 12.958181002105681, 57.006775520931804 ], [ 12.974801856020711, 57.00704559319216 ], [ 12.975288822375948, 56.998084373617296 ], [ 12.991405039640956, 56.99834410895626 ], [ 13.008022473343788, 56.998609745701124 ], [ 13.024657466961031, 56.998873449995038 ], [ 13.040757232649492, 56.999126561118103 ], [ 13.04122752920251, 56.990177810134803 ], [ 13.057841821329861, 56.990436809628946 ], [ 13.07447366281883, 56.990693870288197 ], [ 13.090570370907852, 56.990940552135378 ], [ 13.091029228886137, 56.981978687153813 ], [ 13.107640353775503, 56.982231053072752 ], [ 13.124269017456053, 56.982481473783587 ], [ 13.124719634761627, 56.973519422371311 ], [ 13.140809399598625, 56.973759596746845 ], [ 13.157417337346716, 56.974005332911247 ], [ 13.157859217155261, 56.965055940797214 ], [ 13.174480701492346, 56.965299642547542 ], [ 13.174918973040269, 56.956337312496629 ], [ 13.191001786390784, 56.956570987652576 ], [ 13.20761979818764, 56.956810263978824 ], [ 13.208049977040858, 56.94784775790869 ], [ 13.224647009656525, 56.948084501750358 ], [ 13.225072351438611, 56.939134740524018 ], [ 13.241148199617905, 56.939361924599005 ], [ 13.241570053388335, 56.930399230709703 ], [ 13.258176881905831, 56.930631722209249 ], [ 13.27476671440596, 56.930861770877783 ], [ 13.275193999838415, 56.921603566471127 ], [ 13.291262736936766, 56.921824265029656 ], [ 13.291672300722798, 56.912861308448328 ], [ 13.308271778420785, 56.91308710230507 ], [ 13.308677131571619, 56.904124054102319 ], [ 13.325255644710055, 56.904347337454475 ], [ 13.325656221405769, 56.895397039713693 ], [ 13.326057140024083, 56.886433886033267 ], [ 13.34212842680601, 56.886648192850714 ], [ 13.342524701659729, 56.877697792885485 ], [ 13.359091800655952, 56.877916522911455 ], [ 13.359484453915021, 56.868953192562117 ], [ 13.376047826352915, 56.869169652840398 ], [ 13.376436293896377, 56.860206234232017 ], [ 13.359876879294175, 56.859989847505041 ], [ 13.343317697890573, 56.859771266107387 ], [ 13.343713283537824, 56.850820821996962 ], [ 13.344109207097747, 56.841857521769938 ], [ 13.328057100142416, 56.841643578586286 ], [ 13.328456625579445, 56.832680336279452 ], [ 13.311909762830823, 56.832457658859099 ], [ 13.312312427185198, 56.823507318637517 ], [ 13.295752550297218, 56.823282290415271 ], [ 13.296159508517674, 56.81431917056122 ], [ 13.296565648352924, 56.805368877032741 ], [ 13.313117633688551, 56.805593752587434 ], [ 13.313520175541589, 56.796630526715944 ], [ 13.313936313014, 56.787359094107629 ], [ 13.31433780478679, 56.778408679445114 ], [ 13.31473963993515, 56.7694454086352 ], [ 13.315140667254298, 56.760494964402021 ], [ 13.315542037653735, 56.751531663978447 ], [ 13.315943175790363, 56.742568348736967 ], [ 13.316343507651425, 56.733617860134999 ], [ 13.316744182150245, 56.724654515278118 ], [ 13.317144624941312, 56.715691155602471 ], [ 13.317544263006278, 56.706740622629106 ], [ 13.317944243267062, 56.697777233336303 ], [ 13.318343419832159, 56.688826670787655 ], [ 13.334827290630443, 56.689048140771149 ], [ 13.335222897383867, 56.680084646814066 ], [ 13.35120628296214, 56.680297285558531 ], [ 13.351597869403214, 56.671333704772238 ], [ 13.36807437750589, 56.671550732402828 ], [ 13.368474593476597, 56.662291698639507 ], [ 13.368861815092149, 56.653328014378559 ], [ 13.369248258884801, 56.644377157386955 ], [ 13.369635033909599, 56.635413443713126 ], [ 13.386096030926778, 56.635627999031975 ], [ 13.386478684087177, 56.626664197994295 ], [ 13.386860568742669, 56.61771322442641 ], [ 13.402818001402235, 56.61791909372193 ], [ 13.403196436556465, 56.60895519365031 ], [ 13.403574653471155, 56.599991278927234 ], [ 13.403952110929934, 56.591040191868451 ], [ 13.404329892197465, 56.582076247862162 ], [ 13.420767983385089, 56.582286089890808 ], [ 13.421141126150131, 56.573334902696629 ], [ 13.437575557835533, 56.573542502670179 ], [ 13.437945137275486, 56.564578388189638 ], [ 13.438314503808998, 56.555614259122066 ], [ 13.438683128883415, 56.54666295809011 ], [ 13.439064752305548, 56.537390576403155 ], [ 13.422645969021692, 56.537183259452377 ], [ 13.423018031722865, 56.52823199879964 ], [ 13.423390413929635, 56.5192678809806 ], [ 13.406979591378745, 56.519058537343312 ], [ 13.407355629200534, 56.510094475661788 ], [ 13.391443484459201, 56.50988944243354 ], [ 13.39182251321404, 56.500938277816296 ], [ 13.392201867604014, 56.491974256103312 ], [ 13.375803080476569, 56.491760860878983 ], [ 13.376186079607942, 56.482796896575472 ], [ 13.359791380884571, 56.482581409816582 ], [ 13.360177466549949, 56.473630345867491 ], [ 13.360563884063399, 56.464666424897828 ], [ 13.344671110173264, 56.464455509841542 ], [ 13.345060486792047, 56.455504487567566 ], [ 13.328677801663234, 56.455284961334556 ], [ 13.329071366560095, 56.446321156194564 ], [ 13.312675741008045, 56.446099312072185 ], [ 13.313072934952352, 56.437135567005122 ], [ 13.297209056021803, 56.436918875926871 ], [ 13.297609176669242, 56.427968031115789 ], [ 13.2812387330259, 56.427742315120881 ], [ 13.281643044176919, 56.418778689650637 ], [ 13.265259671825332, 56.418550653774027 ], [ 13.265667014579209, 56.409599932120244 ], [ 13.249814987992369, 56.409377252760784 ], [ 13.233452941229578, 56.409145281958786 ], [ 13.233882471512651, 56.399873658716842 ], [ 13.217507638300345, 56.399639367996137 ], [ 13.217926491117165, 56.390676006500932 ], [ 13.202082735248334, 56.390447277377689 ], [ 13.185712232274863, 56.390208814988412 ], [ 13.186137791621892, 56.381258437310386 ], [ 13.169788369375848, 56.381018146854331 ], [ 13.170218128989136, 56.372054993790982 ], [ 13.154382518989216, 56.371820221012982 ], [ 13.138020439026178, 56.371575515582776 ], [ 13.12167560670477, 56.371328909264356 ], [ 13.122116498422537, 56.362365985865168 ], [ 13.106285338676685, 56.362125097129919 ], [ 13.089927863367178, 56.361874073241331 ], [ 13.09037540232422, 56.352924141055304 ], [ 13.074038999189073, 56.35267130893476 ], [ 13.058212300264788, 56.352424308879513 ], [ 13.041859440516035, 56.352166971327769 ], [ 13.025523831758074, 56.351907747893307 ], [ 13.009680928322757, 56.351654283300881 ], [ 13.009214507666163, 56.360603787814732 ], [ 12.99287561491577, 56.360340236770369 ], [ 12.97653699872917, 56.360074533240756 ], [ 12.976061982511151, 56.369036683699768 ], [ 12.960212455269684, 56.368776846274436 ], [ 12.959733450875259, 56.377738893412804 ], [ 12.95925485853731, 56.3866880852663 ], [ 12.95877530474703, 56.395650101007718 ], [ 12.958278972420974, 56.404920249757588 ], [ 12.974143498045013, 56.405180440932575 ], [ 12.973667791145798, 56.414129672898063 ], [ 12.957799546537931, 56.413869394030613 ], [ 12.957319157348023, 56.422831362122032 ], [ 12.956839181107462, 56.431780475039751 ], [ 12.956358240335247, 56.440742411730056 ], [ 12.939985521361603, 56.440471644622043 ], [ 12.923596068625553, 56.440198433876098 ], [ 12.923107150428253, 56.449160171160763 ], [ 12.907241837817939, 56.448893605492785 ], [ 12.890866124609373, 56.448616333678856 ], [ 12.890370056837639, 56.457565032631592 ], [ 12.906749614726978, 56.457842397950905 ], [ 12.906256402324727, 56.466804013592032 ], [ 12.905763613603813, 56.475752774433879 ], [ 12.921640112975535, 56.476019610046109 ], [ 12.921150070449551, 56.484981284176627 ], [ 12.920659746083535, 56.493942942506038 ], [ 12.920169842730749, 56.502891746015784 ], [ 12.936586292391677, 56.503165603084859 ], [ 12.936099272012786, 56.512127322395649 ], [ 12.935611971345272, 56.521089025947461 ], [ 12.935125088908149, 56.53003787465682 ], [ 12.934620447796423, 56.539307684152661 ], [ 12.934132995227191, 56.548256500868312 ], [ 12.950552149708988, 56.548528370536687 ], [ 12.966476613006202, 56.548789973920726 ], [ 12.965995814141062, 56.557751794371029 ], [ 12.982419405001515, 56.558019484494608 ], [ 12.998843277291893, 56.558285006067038 ], [ 13.014772309918548, 56.558540451798414 ], [ 13.031196729907895, 56.558801701411809 ], [ 13.0307310504289, 56.567763861356724 ], [ 13.047176701606052, 56.56802329811191 ], [ 13.063093209805258, 56.568272313070551 ], [ 13.062635564148229, 56.577221789555601 ], [ 13.079068548399256, 56.577476770302923 ], [ 13.078613865902055, 56.586439157651078 ], [ 13.078159573203108, 56.595388689548223 ], [ 13.094617680957759, 56.595641932688999 ], [ 13.094166366769963, 56.604604375005188 ], [ 13.093714792234429, 56.613566801973981 ], [ 13.093263604658903, 56.622516373474944 ], [ 13.109203465833376, 56.622759638670026 ], [ 13.108755144250701, 56.631722117343621 ], [ 13.108306563873619, 56.640684580708395 ], [ 13.10785836771797, 56.649634188591719 ], [ 13.107409269505709, 56.658596621360459 ], [ 13.123878067228105, 56.658845913936844 ], [ 13.123417931538674, 56.668103741596866 ], [ 13.122972212629598, 56.677066227749691 ], [ 13.122526236141686, 56.686028698633208 ], [ 13.12208064135833, 56.694978314063967 ], [ 13.105596088534041, 56.694728680718264 ], [ 13.105145682986143, 56.703691036457684 ], [ 13.104695662823996, 56.712640536869131 ], [ 13.10424473653412, 56.721602862011025 ], [ 13.103793549375027, 56.730565171843004 ], [ 13.087808148698308, 56.730320913159666 ], [ 13.087353552701467, 56.73927028499898 ], [ 13.086898041194404, 56.748232481344623 ], [ 13.070373353795432, 56.747977773182782 ], [ 13.06991364770689, 56.756939867763357 ], [ 13.053402465836882, 56.756683151411487 ], [ 13.052939229521716, 56.76563230397462 ], [ 13.036939410877078, 56.765381424361223 ], [ 13.020407682951532, 56.765120044937973 ], [ 13.019935770452388, 56.774081847773274 ], [ 13.003417558833604, 56.773818463555003 ], [ 13.002942122560459, 56.782767322386725 ], [ 12.986918322302651, 56.782509702223166 ], [ 12.970396742294502, 56.782241920481411 ], [ 12.96989594572203, 56.791511556203503 ], [ 12.986421595622435, 56.791779431964187 ], [ 13.002449343308339, 56.792037142580178 ], [ 13.001972663718476, 56.800998808880308 ], [ 13.0014963913556, 56.809947620591615 ], [ 12.985461010023213, 56.809689735083346 ], [ 12.984979955158872, 56.81865128271658 ], [ 12.968442493315518, 56.818383134143524 ], [ 12.951905319489986, 56.81811279560209 ], [ 12.952394257068542, 56.8091514307593 ], [ 12.952882211494439, 56.800202888893999 ], [ 12.953370583149917, 56.791241492698546 ], [ 12.937343663063118, 56.790977480665084 ], [ 12.920818873301261, 56.790703107858697 ], [ 12.904277200710453, 56.790426258926487 ], [ 12.903777134940382, 56.799387378380878 ], [ 12.887764426432307, 56.79911726258743 ], [ 12.871236581827743, 56.798836298117287 ], [ 12.85469185838744, 56.798552850174538 ], [ 12.83868001709687, 56.798276438990598 ], [ 12.8221530744374, 56.797988976735766 ], [ 12.822672575279814, 56.789028331796828 ], [ 12.806132700303994, 56.788738477952471 ], [ 12.790125557766311, 56.788455868029772 ], [ 12.773603471671642, 56.78816200848788 ], [ 12.757064526334226, 56.787865653323145 ], [ 12.757617723084776, 56.778597297105158 ], [ 12.741615426473045, 56.778308496772439 ], [ 12.72508117947954, 56.778007935324737 ], [ 12.725622635109573, 56.769060688715562 ], [ 12.709109802253806, 56.768758354961648 ], [ 12.709655647324183, 56.759798357776852 ], [ 12.693661879864491, 56.75950346860575 ], [ 12.694210423639463, 56.750556391605848 ], [ 12.677688917640738, 56.750249644414126 ], [ 12.678241856112045, 56.741289818453033 ], [ 12.661741755205515, 56.740981310059325 ], [ 12.645756524978241, 56.740680341135302 ], [ 12.646316858468214, 56.731720705309023 ], [ 12.629804180252648, 56.731407680109989 ], [ 12.613308983434393, 56.731092797350584 ], [ 12.612740809938781, 56.740052220261596 ], [ 12.61217230770132, 56.749011626505826 ], [ 12.611604291639658, 56.757958180292285 ], [ 12.611035131603268, 56.766917553223195 ], [ 12.610466458161167, 56.775864073741602 ], [ 12.609877040781621, 56.785131470580268 ], [ 12.626395902418707, 56.785446998105009 ], [ 12.642932271666973, 56.785760664276523 ], [ 12.642369978716625, 56.794720200169124 ], [ 12.658378152102655, 56.795021785472244 ], [ 12.674901936248277, 56.795330925696021 ], [ 12.674347858854173, 56.804277816037079 ], [ 12.690893082341777, 56.804585191398282 ], [ 12.690341829849674, 56.813545005907379 ], [ 12.706358571514409, 56.81384049920019 ], [ 12.705811601222088, 56.822787561092241 ], [ 12.722348157390961, 56.823090514166147 ], [ 12.721804027139882, 56.832050499097775 ], [ 12.721259581321808, 56.841010467697672 ], [ 12.737821546002428, 56.841311747364763 ], [ 12.737281510469938, 56.850258965227482 ], [ 12.736740386576717, 56.859219003571468 ], [ 12.736198948646756, 56.868179025629651 ], [ 12.735657972802764, 56.877126194728298 ], [ 12.751702395408538, 56.877416078527538 ], [ 12.751164162094206, 56.886376166557696 ], [ 12.750626387987722, 56.895323401578878 ], [ 12.750087529728034, 56.90428345714836 ], [ 12.734031606979654, 56.90399327778038 ], [ 12.733488595991355, 56.912953218442432 ], [ 12.732927360770674, 56.922208383596789 ], [ 12.732383708020201, 56.931168291138327 ], [ 12.731840518756609, 56.940115345877878 ], [ 12.715234857923793, 56.93981293499931 ], [ 12.714686596849033, 56.948772707098158 ], [ 12.714138016895912, 56.957732462852661 ], [ 12.69754197991708, 56.957427958640324 ], [ 12.6969898965311, 56.966374758289049 ], [ 12.680907874596395, 56.966077550425062 ], [ 12.680350823074097, 56.975037068696764 ], [ 12.663730228694231, 56.974727699648014 ], [ 12.663168868135788, 56.98368709617538 ], [ 12.66260798575294, 56.992633640429588 ], [ 12.645997027650681, 56.992322177871102 ], [ 12.645431028707527, 57.001281435387959 ], [ 12.629334544991671, 57.000977481095831 ], [ 12.612702998329482, 57.000661243795228 ], [ 12.612129638887916, 57.009607438316074 ], [ 12.595511724354942, 57.009289216290568 ], [ 12.579395095089279, 57.008978481455408 ], [ 12.562777862194217, 57.008655917055364 ], [ 12.546160978854061, 57.008331148385395 ], [ 12.545570629021592, 57.017289726944412 ], [ 12.529451139040692, 57.016972535122441 ], [ 12.512830963726008, 57.016643312584975 ], [ 12.496211145291468, 57.016311885321592 ], [ 12.48009268324164, 57.015988343169447 ], [ 12.463473574744702, 57.015652573209579 ], [ 12.464083620139975, 57.006694551907565 ], [ 12.447451591025505, 57.006356340202764 ], [ 12.446837555156975, 57.015314246350655 ], [ 12.430737416331176, 57.014984707199758 ], [ 12.430119158832962, 57.023942483947984 ], [ 12.446223161635341, 57.024272135313787 ], [ 12.44560929116175, 57.03321717347557 ], [ 12.444973025723996, 57.042483034245393 ], [ 12.461621162399229, 57.042821710699144 ], [ 12.461010558500723, 57.051766829178398 ], [ 12.460398722320676, 57.060724764276202 ], [ 12.459786529362436, 57.069682682236206 ], [ 12.459174857172885, 57.078627749400233 ], [ 12.475822057404677, 57.078964324349791 ], [ 12.475213155800748, 57.087922322781203 ], [ 12.474603898885189, 57.096880304125051 ], [ 12.473995159996289, 57.105825434632258 ], [ 12.473385192107518, 57.114783381820629 ], [ 12.472775742691566, 57.123728478218077 ], [ 12.472165062682459, 57.132686391244491 ], [ 12.471554025926574, 57.141644287175268 ], [ 12.470943508313644, 57.150589332383717 ], [ 12.470331757711623, 57.159547194142831 ], [ 12.453648443405539, 57.159209585151537 ], [ 12.453012000351384, 57.168462483027618 ], [ 12.452395493729863, 57.177420194737643 ], [ 12.451778626560195, 57.186377889288188 ], [ 12.451162283089838, 57.19532273334115 ], [ 12.434445733617455, 57.194982085075601 ], [ 12.433824105342161, 57.203939628999905 ], [ 12.433202113287132, 57.212897155703473 ], [ 12.417016221691984, 57.212565128821893 ], [ 12.416390849174357, 57.221509691956889 ], [ 12.399680288085559, 57.221164673686488 ], [ 12.399049610020061, 57.230121934635591 ], [ 12.382318010981919, 57.229774214039423 ], [ 12.366125383207221, 57.229435566566345 ], [ 12.365487285843443, 57.238379743295546 ], [ 12.348769775613798, 57.238027887786345 ], [ 12.332035273832187, 57.2376734403908 ], [ 12.315839843898887, 57.237328282243375 ], [ 12.299123486253896, 57.236969826057425 ], [ 12.29846804032934, 57.24592633598661 ], [ 12.28173065084207, 57.245565158013477 ], [ 12.265532433312716, 57.2452134855398 ], [ 12.248795826274055, 57.244847924152658 ], [ 12.232076999485642, 57.244480518444881 ], [ 12.232748503678273, 57.235524502326136 ], [ 12.216555355264877, 57.235166556695177 ], [ 12.199823992701697, 57.234794514567476 ], [ 12.18311041179115, 57.234420635939856 ], [ 12.166918435082204, 57.234056297999004 ], [ 12.167604475894846, 57.225113595590486 ], [ 12.150878369011515, 57.224735077970415 ], [ 12.134170045157603, 57.224354731669699 ], [ 12.13486474681331, 57.215399439909561 ], [ 12.118664416877184, 57.215028564929888 ], [ 12.101960951897471, 57.214643976070768 ], [ 12.101258299234528, 57.22359900983821 ], [ 12.084551219297568, 57.223212069400368 ], [ 12.083845130496957, 57.23215412326531 ], [ 12.083137614981979, 57.241108988008044 ], [ 12.082429685160907, 57.250063834266932 ], [ 12.081722355815032, 57.259005832786286 ] ], [ [ 12.374015253690867, 57.346459291687438 ], [ 12.357771411213584, 57.346119132559252 ], [ 12.358414945785666, 57.337162333492358 ], [ 12.374654843070681, 57.337502376243734 ], [ 12.374015253690867, 57.346459291687438 ] ], [ [ 13.342921314862625, 56.868734536868047 ], [ 13.326857705578792, 56.868520375587359 ], [ 13.327257926769803, 56.859557177595121 ], [ 13.343317697890573, 56.859771266107387 ], [ 13.342921314862625, 56.868734536868047 ] ], [ [ 13.018065723783012, 56.495535879402169 ], [ 13.034462939294572, 56.495796508874811 ], [ 13.050877473278303, 56.496055242254663 ], [ 13.066763864329486, 56.496303582084117 ], [ 13.066308329597522, 56.505253182273748 ], [ 13.065851878967353, 56.514215607220301 ], [ 13.049958005193805, 56.513967099599952 ], [ 13.033535740021913, 56.513708191409151 ], [ 13.017130801783258, 56.513447385846902 ], [ 13.017598732243355, 56.504485220492974 ], [ 13.018065723783012, 56.495535879402169 ] ] ], [ [ [ 12.128576759555449, 57.296265830958838 ], [ 12.112340995485091, 57.295893810041086 ], [ 12.111639680761808, 57.304835979838273 ], [ 12.127879374694361, 57.305208127784262 ], [ 12.128576759555449, 57.296265830958838 ] ] ], [ [ [ 11.974277095776758, 57.355407741935636 ], [ 11.958034926212758, 57.355015968619981 ], [ 11.958775987223769, 57.346062285030911 ], [ 11.942015508351234, 57.345655844165194 ], [ 11.94127037876776, 57.354609388684381 ], [ 11.940524811659808, 57.363562914159004 ], [ 11.923739211428005, 57.363153537510847 ], [ 11.922990204172486, 57.372094076667494 ], [ 11.939779875760198, 57.372503593226313 ], [ 11.939033433164136, 57.381457080629275 ], [ 11.955810194759707, 57.381864077980318 ], [ 11.95506845616311, 57.390804858164508 ], [ 11.971326405616351, 57.391197167779453 ], [ 11.988125562243543, 57.391600323865703 ], [ 11.988859278046045, 57.38265927181898 ], [ 11.989593615322482, 57.373705373023085 ], [ 12.006367619770263, 57.374105601449195 ], [ 12.022636382465301, 57.374491632156975 ], [ 12.023361222631371, 57.365550273834977 ], [ 12.024086676924181, 57.356596068461194 ], [ 12.024811705441616, 57.347641844372795 ], [ 12.008554785907583, 57.347256209554658 ], [ 12.009282290530304, 57.338314926905419 ], [ 11.992524557745334, 57.337915245470917 ], [ 11.99179299168355, 57.346856391569723 ], [ 11.975014214748743, 57.346453924338363 ], [ 11.974277095776758, 57.355407741935636 ] ] ], [ [ [ 11.954325217128817, 57.399758446890552 ], [ 11.95506845616311, 57.390804858164508 ], [ 11.938287622320324, 57.390397721672933 ], [ 11.921489795038655, 57.389987924888082 ], [ 11.905233139061128, 57.38958918869897 ], [ 11.904477782686433, 57.398542361176048 ], [ 11.903721982304745, 57.407495514457501 ], [ 11.919986545630852, 57.407894523763936 ], [ 11.936792543999371, 57.408304601248332 ], [ 11.937540302812584, 57.399351170991117 ], [ 11.954325217128817, 57.399758446890552 ] ] ] ] } },
{ "type": "Feature", "properties": { "klass": "7 Landsbygd" }, "geometry": { "type": "MultiPolygon", "coordinates": [ [ [ [ 12.648996947380102, 57.208154382827033 ], [ 12.632289479720107, 57.20784035521833 ], [ 12.631715477653652, 57.216799214284912 ], [ 12.631141962594674, 57.225745221767063 ], [ 12.61494801922127, 57.225438659397 ], [ 12.614369425708073, 57.234397380577533 ], [ 12.597633134932247, 57.234078320867489 ], [ 12.59705098600296, 57.243024081728656 ], [ 12.596467660555493, 57.251982660580332 ], [ 12.579741007256827, 57.251661488346578 ], [ 12.579153287773806, 57.260619940724474 ], [ 12.562927275216602, 57.260306217941505 ], [ 12.562336127565723, 57.269251712054846 ], [ 12.545602071094446, 57.268925934834861 ], [ 12.545005672134124, 57.277884135058052 ], [ 12.528267917420072, 57.277556019522059 ], [ 12.527667971307087, 57.286501256792057 ], [ 12.511431199287749, 57.286180795937803 ], [ 12.510805290241164, 57.295446749886374 ], [ 12.527046135849792, 57.295767324108567 ], [ 12.52644461211792, 57.30472536090911 ], [ 12.525843597993859, 57.313670546973533 ], [ 12.542597728996734, 57.31399911518843 ], [ 12.541999567663728, 57.32295723061609 ], [ 12.558758126318429, 57.323283680500587 ], [ 12.558163684577165, 57.332241890786236 ], [ 12.57442133708143, 57.332556476296489 ], [ 12.57383134362812, 57.341501943219711 ], [ 12.590598742643916, 57.341824218881342 ], [ 12.607383924876048, 57.342144593497316 ], [ 12.62362910860802, 57.342452524474446 ], [ 12.624207020356671, 57.333506732764256 ], [ 12.640971391723129, 57.333822269884053 ], [ 12.657753535609219, 57.334135899426649 ], [ 12.657183765723728, 57.343081906188175 ], [ 12.673429944057855, 57.343383412699147 ], [ 12.673995771611171, 57.334437302914282 ], [ 12.690761161621898, 57.334746210752137 ], [ 12.691323395704847, 57.325787143684337 ], [ 12.708102474561175, 57.326094031733916 ], [ 12.708660303661851, 57.317134843292827 ], [ 12.709217007034296, 57.308188474065133 ], [ 12.725448389123493, 57.308483151969412 ], [ 12.726001624910593, 57.299523830100483 ], [ 12.742769148998777, 57.299826007192564 ], [ 12.743336857565899, 57.290558504391804 ], [ 12.743884582035223, 57.28161188202531 ], [ 12.760626763886396, 57.281911306307087 ], [ 12.761170893230844, 57.272951729455741 ], [ 12.777387348015402, 57.27323959272487 ], [ 12.776847152006555, 57.282199268023163 ], [ 12.776307413771606, 57.291146091010077 ], [ 12.793071702110488, 57.291441534788476 ], [ 12.792516480284435, 57.300709350053872 ], [ 12.809267887735361, 57.301002360435675 ], [ 12.809818904525425, 57.291734441520461 ], [ 12.826044149999374, 57.292016087957435 ], [ 12.82657183949301, 57.283068967914609 ], [ 12.827099976524433, 57.274108995278297 ], [ 12.843857088995289, 57.274397614503663 ], [ 12.844380103528591, 57.265450364026094 ], [ 12.861116076738165, 57.265736356888247 ], [ 12.877330435566947, 57.266011306989 ], [ 12.876815400963752, 57.274958749018808 ], [ 12.893573441495979, 57.275240744762932 ], [ 12.894084418348063, 57.266293206467161 ], [ 12.910821310683223, 57.266572584723164 ], [ 12.927053951571805, 57.266841413263172 ], [ 12.927557369510891, 57.257880834573093 ], [ 12.928060492518153, 57.248920240172332 ], [ 12.944789869609091, 57.249195042701395 ], [ 12.945287930581802, 57.240247176377459 ], [ 12.945786414255938, 57.23128645671563 ], [ 12.929065134940968, 57.231011841824738 ], [ 12.929566655675853, 57.222064037923857 ], [ 12.913353656352138, 57.221795668138242 ], [ 12.913859526544089, 57.212835102614932 ], [ 12.914365100704893, 57.203874521339067 ], [ 12.914869655391065, 57.194926761853957 ], [ 12.915374638631256, 57.185966149097041 ], [ 12.915879326557858, 57.177005520589105 ], [ 12.932072735968704, 57.177273432596749 ], [ 12.948769772826111, 57.177547485525992 ], [ 12.965467107136542, 57.177819318451206 ], [ 12.981661373309018, 57.178080836122781 ], [ 12.998359286502621, 57.178348295722323 ], [ 13.015074847934814, 57.178613809636026 ], [ 13.031252592282717, 57.17886865770965 ], [ 13.031744805143829, 57.169612091457893 ], [ 13.015571099000175, 57.169357333247724 ], [ 13.016051234110641, 57.16039612399986 ], [ 13.032221033187811, 57.160650795255883 ], [ 13.032696301213049, 57.151702322177499 ], [ 13.049382843049747, 57.151962917897606 ], [ 13.049854486676821, 57.143001501909644 ], [ 13.066554624286008, 57.143260058609584 ], [ 13.066087013432266, 57.152221562855878 ], [ 13.082253725925325, 57.152469765056779 ], [ 13.081790412026999, 57.161418499763222 ], [ 13.098481811195485, 57.161672594144861 ], [ 13.098941099490386, 57.152723772842528 ], [ 13.099400778144982, 57.14376209722186 ], [ 13.099860188233567, 57.134800406326946 ], [ 13.083180870377369, 57.134546571856063 ], [ 13.083643373080582, 57.125597791289273 ], [ 13.084106269061047, 57.116636156421244 ], [ 13.084568232186898, 57.107687345288944 ], [ 13.085030588251627, 57.098725679811849 ], [ 13.085492674491691, 57.089763999019453 ], [ 13.085953829689023, 57.08081514202906 ], [ 13.086415377318112, 57.071853430628487 ], [ 13.10306659127821, 57.072106660182058 ], [ 13.103523861773613, 57.063144847163038 ], [ 13.120188646050906, 57.063396039223846 ], [ 13.120640991111253, 57.05444696476232 ], [ 13.1211092832337, 57.04517688883135 ], [ 13.121561092433994, 57.036227783448396 ], [ 13.122013286399735, 57.027265823381988 ], [ 13.138126238681904, 57.02750648873058 ], [ 13.137677919008732, 57.036468530802459 ], [ 13.154313791059785, 57.036714853221675 ], [ 13.170967221849819, 57.036959219421206 ], [ 13.170527279622618, 57.045908573718094 ], [ 13.186648741188092, 57.046143045516793 ], [ 13.186196761804219, 57.055413462084893 ], [ 13.185760173958167, 57.064362865549342 ], [ 13.202426273400929, 57.064603124036651 ], [ 13.20199281766717, 57.073565434245772 ], [ 13.218645879124749, 57.073803311849069 ], [ 13.2182161822121, 57.082765688141997 ], [ 13.234354049129587, 57.082994115649697 ], [ 13.233928601104234, 57.091943714694828 ], [ 13.2506075064782, 57.092177637872211 ], [ 13.267269344625044, 57.092409103193404 ], [ 13.283411821260918, 57.092631238879903 ], [ 13.282997444354001, 57.101593897674263 ], [ 13.299681114655682, 57.101821316716347 ], [ 13.316347705856877, 57.102046283695401 ], [ 13.332512106028519, 57.102262353247205 ], [ 13.332109430118006, 57.111225225258181 ], [ 13.348780518202325, 57.111445904559943 ], [ 13.365451844806369, 57.111664368151445 ], [ 13.38162083100265, 57.111874129453213 ], [ 13.3982926204287, 57.112088228225048 ], [ 13.414964641239374, 57.112300111092061 ], [ 13.431134293898765, 57.112503489864778 ], [ 13.431513087060509, 57.103540181866769 ], [ 13.448181535128702, 57.103747628754249 ], [ 13.46486753448136, 57.103953072489126 ], [ 13.481016605205738, 57.104149788808684 ], [ 13.480649755863736, 57.113113304811314 ], [ 13.497322884391743, 57.113314240824749 ], [ 13.497685711694366, 57.104350656282428 ], [ 13.49804832718074, 57.095387057348873 ], [ 13.498410211969873, 57.08643628588667 ], [ 13.515088823293745, 57.086635007671681 ], [ 13.531230736680989, 57.0868252196951 ], [ 13.531585019851024, 57.077861459385481 ], [ 13.548242715731103, 57.078055548305493 ], [ 13.56491793692094, 57.078247622093784 ], [ 13.565263982684783, 57.069283715803095 ], [ 13.581398719756368, 57.069467431733898 ], [ 13.581740187812022, 57.060516290944364 ], [ 13.598390478969899, 57.06070367837841 ], [ 13.59873983831538, 57.051431396986338 ], [ 13.599076900849717, 57.042480163548653 ], [ 13.599414250352579, 57.033516073397408 ], [ 13.599751403250977, 57.024551969037319 ], [ 13.600087877098007, 57.015600693054537 ], [ 13.60042463754327, 57.006636560294808 ], [ 13.617068267765516, 57.006821546356321 ], [ 13.617400356497837, 56.997870179105782 ], [ 13.633504534747342, 56.99804704356788 ], [ 13.633833037996332, 56.98908275921422 ], [ 13.65046906622657, 56.9892632691054 ], [ 13.650793383303157, 56.980298909140899 ], [ 13.667408338964933, 56.980476963574766 ], [ 13.667728020139887, 56.971525371911625 ], [ 13.668047973807875, 56.962560923132195 ], [ 13.66836774133203, 56.953596460255127 ], [ 13.668686865141671, 56.944644826379843 ], [ 13.652087838640766, 56.944467014051938 ], [ 13.652411213952083, 56.935502583494582 ], [ 13.652745047496511, 56.926242748556412 ], [ 13.636137054806632, 56.926062670091135 ], [ 13.636464026706575, 56.917098272059526 ], [ 13.636790808595778, 56.908133859867704 ], [ 13.620725329363129, 56.907957598151242 ], [ 13.621055294069713, 56.89900607467564 ], [ 13.604459610053928, 56.898821844300407 ], [ 13.587881358394453, 56.898635605541443 ], [ 13.588219543244112, 56.889671350907214 ], [ 13.572162320091653, 56.889488885341912 ], [ 13.555571205338007, 56.889298183826448 ], [ 13.538997525039683, 56.889105481562105 ], [ 13.522940893954017, 56.888916692874645 ], [ 13.523293990515397, 56.879965522952268 ], [ 13.506707456869803, 56.879768355113072 ], [ 13.490138359753836, 56.879569194159018 ], [ 13.490499685146203, 56.870605302147766 ], [ 13.474451338665119, 56.870410323351877 ], [ 13.474086175433344, 56.879374149074295 ], [ 13.457500280739861, 56.879170450700734 ], [ 13.440931828907027, 56.878964766173112 ], [ 13.441304918487603, 56.870001079583048 ], [ 13.425239984861093, 56.869799565879639 ], [ 13.408675933160209, 56.869589626046618 ], [ 13.392112107863021, 56.869377490607093 ], [ 13.392496736705093, 56.860414001376462 ], [ 13.376436293896377, 56.860206234232017 ], [ 13.376047826352915, 56.869169652840398 ], [ 13.359484453915021, 56.868953192562117 ], [ 13.359091800655952, 56.877916522911455 ], [ 13.342524701659729, 56.877697792885485 ], [ 13.34212842680601, 56.886648192850714 ], [ 13.326057140024083, 56.886433886033267 ], [ 13.325656221405769, 56.895397039713693 ], [ 13.325255644710055, 56.904347337454475 ], [ 13.308677131571619, 56.904124054102319 ], [ 13.308271778420785, 56.91308710230507 ], [ 13.291672300722798, 56.912861308448328 ], [ 13.291262736936766, 56.921824265029656 ], [ 13.275193999838415, 56.921603566471127 ], [ 13.27476671440596, 56.930861770877783 ], [ 13.258176881905831, 56.930631722209249 ], [ 13.241570053388335, 56.930399230709703 ], [ 13.241148199617905, 56.939361924599005 ], [ 13.225072351438611, 56.939134740524018 ], [ 13.224647009656525, 56.948084501750358 ], [ 13.208049977040858, 56.94784775790869 ], [ 13.20761979818764, 56.956810263978824 ], [ 13.191001786390784, 56.956570987652576 ], [ 13.174918973040269, 56.956337312496629 ], [ 13.174480701492346, 56.965299642547542 ], [ 13.157859217155261, 56.965055940797214 ], [ 13.157417337346716, 56.974005332911247 ], [ 13.140809399598625, 56.973759596746845 ], [ 13.124719634761627, 56.973519422371311 ], [ 13.124269017456053, 56.982481473783587 ], [ 13.107640353775503, 56.982231053072752 ], [ 13.091029228886137, 56.981978687153813 ], [ 13.090570370907852, 56.990940552135378 ], [ 13.07447366281883, 56.990693870288197 ], [ 13.057841821329861, 56.990436809628946 ], [ 13.04122752920251, 56.990177810134803 ], [ 13.040757232649492, 56.999126561118103 ], [ 13.024657466961031, 56.998873449995038 ], [ 13.008022473343788, 56.998609745701124 ], [ 12.991405039640956, 56.99834410895626 ], [ 12.975288822375948, 56.998084373617296 ], [ 12.974801856020711, 57.00704559319216 ], [ 12.958181002105681, 57.006775520931804 ], [ 12.941560441106152, 57.006503243020475 ], [ 12.925441197778813, 57.006237066231314 ], [ 12.908821220727631, 57.005960443749181 ], [ 12.892184267630475, 57.005681324872377 ], [ 12.876083164325523, 57.005409086785335 ], [ 12.875572937961334, 57.014356895781695 ], [ 12.858949873740567, 57.014073627510484 ], [ 12.858434624845696, 57.023034161757131 ], [ 12.841790591762221, 57.022748292346911 ], [ 12.84127104336763, 57.031708713284871 ], [ 12.840751937135519, 57.040656281006719 ], [ 12.824636251733185, 57.040377318664106 ], [ 12.82409419950498, 57.049645702676877 ], [ 12.807455939923164, 57.049355485051194 ], [ 12.806928350743025, 57.058302826617584 ], [ 12.790269111698862, 57.058009995577486 ], [ 12.78973644976846, 57.066970058212753 ], [ 12.773609914231859, 57.066684448232074 ], [ 12.773073060698152, 57.075644397393141 ], [ 12.75642374070938, 57.075347317188204 ], [ 12.755883341613201, 57.084294312481326 ], [ 12.739213032315906, 57.083994607360076 ], [ 12.738667528191799, 57.092954320698418 ], [ 12.722530280248522, 57.092662053718918 ], [ 12.705856602189082, 57.092357884506221 ], [ 12.705302876825861, 57.101317378194281 ], [ 12.688642832580767, 57.101011207428535 ], [ 12.688085569869026, 57.10995774457129 ], [ 12.687527181999091, 57.118917101091 ], [ 12.686969268673947, 57.127863605477991 ], [ 12.670817425631142, 57.127564567032707 ], [ 12.670254490503625, 57.136523788720758 ], [ 12.669691226441115, 57.145482993943837 ], [ 12.669128440853655, 57.154429347198651 ], [ 12.668564518595772, 57.163388519512104 ], [ 12.667981668159831, 57.172642890813997 ], [ 12.667417075291306, 57.181602029647067 ], [ 12.65070401540536, 57.18129021993574 ], [ 12.650135053610867, 57.190249235825348 ], [ 12.649566574764215, 57.199195399961056 ], [ 12.648996947380102, 57.208154382827033 ] ], [ [ 13.635799109093467, 56.935322441729639 ], [ 13.619721951628236, 56.935145998057003 ], [ 13.620063876980844, 56.925886288418113 ], [ 13.636137054806632, 56.926062670091135 ], [ 13.635799109093467, 56.935322441729639 ] ], [ [ 13.255667185140103, 56.984382455292831 ], [ 13.255247849823682, 56.99334513880148 ], [ 13.254828871555409, 57.002294966900422 ], [ 13.254409047905757, 57.01125762058868 ], [ 13.237766341296586, 57.011024416106984 ], [ 13.221659622537354, 57.010796612844985 ], [ 13.222087312570522, 57.001834116136692 ], [ 13.222514141389313, 56.992884444717703 ], [ 13.222941333953598, 56.983921918038604 ], [ 13.239036458740461, 56.984149488813479 ], [ 13.255667185140103, 56.984382455292831 ] ], [ [ 13.538647559360239, 56.898069543749294 ], [ 13.538297892114233, 56.907020749128606 ], [ 13.522233578742659, 56.906831832094433 ], [ 13.522587085491935, 56.897880690857804 ], [ 13.538647559360239, 56.898069543749294 ] ] ], [ [ [ 12.409459554077545, 57.320296561379514 ], [ 12.392704285253686, 57.319950240058091 ], [ 12.375931981224696, 57.319601325423349 ], [ 12.375293141627266, 57.3285582756764 ], [ 12.374654843070681, 57.337502376243734 ], [ 12.39143528756671, 57.337851529527633 ], [ 12.392069517618198, 57.328907309692326 ], [ 12.408828854485535, 57.329253749509895 ], [ 12.409459554077545, 57.320296561379514 ] ] ], [ [ [ 13.154382518989216, 56.371820221012982 ], [ 13.170218128989136, 56.372054993790982 ], [ 13.169788369375848, 56.381018146854331 ], [ 13.186137791621892, 56.381258437310386 ], [ 13.185712232274863, 56.390208814988412 ], [ 13.202082735248334, 56.390447277377689 ], [ 13.217926491117165, 56.390676006500932 ], [ 13.217507638300345, 56.399639367996137 ], [ 13.233882471512651, 56.399873658716842 ], [ 13.233452941229578, 56.409145281958786 ], [ 13.249814987992369, 56.409377252760784 ], [ 13.265667014579209, 56.409599932120244 ], [ 13.265259671825332, 56.418550653774027 ], [ 13.281643044176919, 56.418778689650637 ], [ 13.2812387330259, 56.427742315120881 ], [ 13.297609176669242, 56.427968031115789 ], [ 13.297209056021803, 56.436918875926871 ], [ 13.313072934952352, 56.437135567005122 ], [ 13.312675741008045, 56.446099312072185 ], [ 13.329071366560095, 56.446321156194564 ], [ 13.328677801663234, 56.455284961334556 ], [ 13.345060486792047, 56.455504487567566 ], [ 13.344671110173264, 56.464455509841542 ], [ 13.360563884063399, 56.464666424897828 ], [ 13.360177466549949, 56.473630345867491 ], [ 13.359791380884571, 56.482581409816582 ], [ 13.376186079607942, 56.482796896575472 ], [ 13.375803080476569, 56.491760860878983 ], [ 13.392201867604014, 56.491974256103312 ], [ 13.39182251321404, 56.500938277816296 ], [ 13.391443484459201, 56.50988944243354 ], [ 13.407355629200534, 56.510094475661788 ], [ 13.406979591378745, 56.519058537343312 ], [ 13.423390413929635, 56.5192678809806 ], [ 13.423018031722865, 56.52823199879964 ], [ 13.422645969021692, 56.537183259452377 ], [ 13.439064752305548, 56.537390576403155 ], [ 13.438683128883415, 56.54666295809011 ], [ 13.454611056425332, 56.546862023784456 ], [ 13.454988790473788, 56.537589572468953 ], [ 13.45535323169613, 56.528638174636875 ], [ 13.455717985873896, 56.519673919506367 ], [ 13.456082530151784, 56.510709649818054 ], [ 13.456446342876752, 56.501758208395898 ], [ 13.456810468153645, 56.492793909611237 ], [ 13.457174384028702, 56.483829596267213 ], [ 13.45753756974757, 56.474878111250362 ], [ 13.441639775395055, 56.474679585203823 ], [ 13.442007016073303, 56.465715309820922 ], [ 13.457901067615403, 56.465913768806907 ], [ 13.458263836255906, 56.456962254731309 ], [ 13.458626916777101, 56.447997883186368 ], [ 13.458989788722906, 56.439033497079471 ], [ 13.459351932831906, 56.430081939401433 ], [ 13.459714388419544, 56.42111752418996 ], [ 13.443839008046371, 56.420919399842809 ], [ 13.427470392772541, 56.420712991051353 ], [ 13.411101995058848, 56.420504423542724 ], [ 13.395227241329762, 56.420300081385612 ], [ 13.395604098982222, 56.411348770151371 ], [ 13.379239976136644, 56.411136022189872 ], [ 13.379634098284566, 56.40186370408707 ], [ 13.363274174451314, 56.401648873334508 ], [ 13.363658813746708, 56.392684833838821 ], [ 13.347796009113381, 56.39247448983339 ], [ 13.33144037314262, 56.392255484102236 ], [ 13.315067966256555, 56.392034091213006 ], [ 13.315463220249198, 56.383083098673595 ], [ 13.299621793287185, 56.382866848179638 ], [ 13.300021103339464, 56.373903071559774 ], [ 13.28367382549858, 56.373677814542312 ], [ 13.267309791757006, 56.373450165517113 ], [ 13.267716542767058, 56.364486526745985 ], [ 13.251883225966601, 56.364264225204359 ], [ 13.252292867294035, 56.355313488238984 ], [ 13.252702861399712, 56.34634989447445 ], [ 13.236367778665834, 56.346118473281535 ], [ 13.236780771415233, 56.337167784272488 ], [ 13.220432775799011, 56.336934045753054 ], [ 13.220849951844821, 56.327970578763669 ], [ 13.205032153484186, 56.327742388656532 ], [ 13.188688470066021, 56.327504488213613 ], [ 13.188263762744686, 56.336467798046705 ], [ 13.171933477229352, 56.336227912205764 ], [ 13.171505315784536, 56.345178284721833 ], [ 13.155680830242259, 56.344943749237913 ], [ 13.155248101068338, 56.353906868755082 ], [ 13.138893684056347, 56.353662328210923 ], [ 13.122556506324086, 56.353415888057278 ], [ 13.106729050605914, 56.353175080427306 ], [ 13.09037540232422, 56.352924141055304 ], [ 13.089927863367178, 56.361874073241331 ], [ 13.106285338676685, 56.362125097129919 ], [ 13.122116498422537, 56.362365985865168 ], [ 13.12167560670477, 56.371328909264356 ], [ 13.138020439026178, 56.371575515582776 ], [ 13.154382518989216, 56.371820221012982 ] ] ] ] } }
]
}
