{
"type": "FeatureCollection",
"xy_coordinate_resolution": 1e-05,
"features": [
{ "type": "Feature", "properties": { "namn": "Bassalt", "agare": "Statkraft Sverige AB", "effekt_mw": 8.0, "normalar_gwh": 18.5, "turbiner": 4.0, "elomrade": "SE4", "natomrade": "SYD", "kommun": "Laholm", "osm_id": "w993924832", "osm_namn": "Bassalt", "kalla": "Energimyndigheten (effekt m.m.) + OSM (läge)", "i_em_summa": true, "i_halland": true }, "geometry": { "type": "Point", "coordinates": [ 13.40067, 56.51149 ] } },
{ "type": "Feature", "properties": { "namn": "Berte", "agare": "Berte Qvarnaktiebolag", "effekt_mw": 0.15, "normalar_gwh": 0.9, "turbiner": 1.0, "elomrade": "SE4", "natomrade": "IKN", "kommun": "Falkenberg", "osm_id": "w1124789455", "osm_namn": "Berte Qvarn", "kalla": "Energimyndigheten (effekt m.m.) + OSM (läge)", "i_em_summa": true, "i_halland": true }, "geometry": { "type": "Point", "coordinates": [ 12.6831, 56.84671 ] } },
{ "type": "Feature", "properties": { "namn": "Boberg", "agare": "Susedalens Kraft AB", "effekt_mw": 0.26, "normalar_gwh": 1.2, "turbiner": 1.0, "elomrade": "SE4", "natomrade": "HLD", "kommun": "Falkenberg", "osm_id": "w1124793217", "osm_namn": "Bobergs kraftstation", "kalla": "Energimyndigheten (effekt m.m.) + OSM (läge)", "i_em_summa": true, "i_halland": true }, "geometry": { "type": "Point", "coordinates": [ 12.60875, 56.86799 ] } },
{ "type": "Feature", "properties": { "namn": "Bällforsen", "agare": "Sydkraft Hydropower AB", "effekt_mw": 8.4, "normalar_gwh": 43.6, "turbiner": 2.0, "elomrade": "SE4", "natomrade": "SYD", "kommun": "Falkenberg", "osm_id": "w1004610663", "osm_namn": "Bällforsen kraftstation", "kalla": "Energimyndigheten (effekt m.m.) + OSM (läge)", "i_em_summa": true, "i_halland": true }, "geometry": { "type": "Point", "coordinates": [ 12.80799, 57.0769 ] } },
{ "type": "Feature", "properties": { "namn": "Fröslida", "agare": "Statkraft Sverige AB", "effekt_mw": 2.4, "normalar_gwh": 10.5, "turbiner": 2.0, "elomrade": "SE4", "natomrade": "SYD", "kommun": "Hylte", "osm_id": "r15080351", "osm_namn": "Fröslida kraftstation", "kalla": "Energimyndigheten (effekt m.m.) + OSM (läge)", "i_em_summa": true, "i_halland": true }, "geometry": { "type": "Point", "coordinates": [ 13.04866, 56.87078 ] } },
{ "type": "Feature", "properties": { "namn": "Gustavsberg", "agare": "Fröslida Kraft Kommanditbolag", "effekt_mw": 1.05, "normalar_gwh": 4.0, "turbiner": 1.0, "elomrade": "SE4", "natomrade": "HLD", "kommun": "Hylte", "osm_id": "w1125100247", "osm_namn": "Gustavsberg kraftstation", "kalla": "Energimyndigheten (effekt m.m.) + OSM (läge)", "i_em_summa": true, "i_halland": true }, "geometry": { "type": "Point", "coordinates": [ 13.09716, 56.95631 ] } },
{ "type": "Feature", "properties": { "namn": "Herting", "agare": "Falkenbergs kommun", "effekt_mw": 3.02, "normalar_gwh": 9.3, "turbiner": 3.0, "elomrade": "SE4", "natomrade": "FBG", "kommun": "Falkenberg", "osm_id": "w738260511", "osm_namn": "Hertings 1 kraftstation", "kalla": "Energimyndigheten (effekt m.m.) + OSM (läge)", "i_em_summa": true, "i_halland": true }, "geometry": { "type": "Point", "coordinates": [ 12.51922, 56.9003 ] } },
{ "type": "Feature", "properties": { "namn": "Hylte", "agare": "Statkraft Sverige AB", "effekt_mw": 27.0, "normalar_gwh": 100.0, "turbiner": 1.0, "elomrade": "SE4", "natomrade": "SYD", "kommun": "Hylte", "osm_id": "w1125305972", "osm_namn": "Hylte vattenkraftverk", "kalla": "Energimyndigheten (effekt m.m.) + OSM (läge)", "i_em_summa": true, "i_halland": true }, "geometry": { "type": "Point", "coordinates": [ 13.16494, 56.97739 ] } },
{ "type": "Feature", "properties": { "namn": "Karsefors", "agare": "Statkraft Sverige AB", "effekt_mw": 31.4, "normalar_gwh": 129.0, "turbiner": 1.0, "elomrade": "SE4", "natomrade": "SYD", "kommun": "Laholm", "osm_id": "w993924816", "osm_namn": "Karsefors", "kalla": "Energimyndigheten (effekt m.m.) + OSM (läge)", "i_em_summa": true, "i_halland": true }, "geometry": { "type": "Point", "coordinates": [ 13.10737, 56.49898 ] } },
{ "type": "Feature", "properties": { "namn": "Kinnared", "agare": "Fröslida Kraft Kommanditbolag", "effekt_mw": 0.42, "normalar_gwh": 1.9, "turbiner": 2.0, "elomrade": "SE4", "natomrade": "HLD", "kommun": "Hylte", "osm_id": "w1125098914", "osm_namn": "Kinnareds kraftstation", "kalla": "Energimyndigheten (effekt m.m.) + OSM (läge)", "i_em_summa": true, "i_halland": true }, "geometry": { "type": "Point", "coordinates": [ 13.10978, 57.0381 ] } },
{ "type": "Feature", "properties": { "namn": "Knäred", "agare": "Statkraft Sverige AB", "effekt_mw": 11.8, "normalar_gwh": 65.0, "turbiner": 2.0, "elomrade": "SE4", "natomrade": "SYD", "kommun": "Laholm", "osm_id": "w26334715", "osm_namn": "Knäreds nedre kraftverk", "kalla": "Energimyndigheten (effekt m.m.) + OSM (läge)", "i_em_summa": true, "i_halland": true }, "geometry": { "type": "Point", "coordinates": [ 13.34159, 56.51391 ] } },
{ "type": "Feature", "properties": { "namn": "Kullagård", "agare": "Varbergsortens Elproduktion AB", "effekt_mw": 0.44, "normalar_gwh": 3.2, "turbiner": 1.0, "elomrade": "SE3", "natomrade": "VBS", "kommun": "Varberg", "osm_id": "w548633243", "osm_namn": "Kullagård kraftstation", "kalla": "Energimyndigheten (effekt m.m.) + OSM (läge)", "i_em_summa": true, "i_halland": true }, "geometry": { "type": "Point", "coordinates": [ 12.33369, 57.25956 ] } },
{ "type": "Feature", "properties": { "namn": "Laholm", "agare": "Statkraft Sverige AB", "effekt_mw": 11.3, "normalar_gwh": 36.0, "turbiner": 1.0, "elomrade": "SE4", "natomrade": "LHM", "kommun": "Laholm", "osm_id": "w191640174", "osm_namn": "Laholm vattenkraftverk", "kalla": "Energimyndigheten (effekt m.m.) + OSM (läge)", "i_em_summa": true, "i_halland": true }, "geometry": { "type": "Point", "coordinates": [ 13.05005, 56.51557 ] } },
{ "type": "Feature", "properties": { "namn": "Majenfors", "agare": "Statkraft Sverige AB", "effekt_mw": 10.7, "normalar_gwh": 44.0, "turbiner": 2.0, "elomrade": "SE4", "natomrade": "SYD", "kommun": "Laholm", "osm_id": "w1125014882", "osm_namn": "Majenfors ny kraftverk", "kalla": "Energimyndigheten (effekt m.m.) + OSM (läge)", "i_em_summa": true, "i_halland": true }, "geometry": { "type": "Point", "coordinates": [ 13.45486, 56.49705 ] } },
{ "type": "Feature", "properties": { "namn": "Marbäck", "agare": "SPERLINGSHOLMS GODS AKTIEBOLAG", "effekt_mw": 0.35, "normalar_gwh": 1.3, "turbiner": 1.0, "elomrade": "SE4", "natomrade": "HLD", "kommun": "Halmstad", "osm_id": "w1125096424", "osm_namn": "Kraftstationen Marbäck", "kalla": "Energimyndigheten (effekt m.m.) + OSM (läge)", "i_em_summa": true, "i_halland": true }, "geometry": { "type": "Point", "coordinates": [ 13.03432, 56.70437 ] } },
{ "type": "Feature", "properties": { "namn": "Maredsfors", "agare": "Oskarström Vattenkraft AB", "effekt_mw": 2.98, "normalar_gwh": 17.0, "turbiner": 2.0, "elomrade": "SE4", "natomrade": "HLD", "kommun": "Halmstad", "osm_id": "w1125053718", "osm_namn": "Maredsfors kraftstation", "kalla": "Energimyndigheten (effekt m.m.) + OSM (läge)", "i_em_summa": true, "i_halland": true }, "geometry": { "type": "Point", "coordinates": [ 12.97443, 56.80836 ] } },
{ "type": "Feature", "properties": { "namn": "Mostorp", "agare": "Mostorps Gård AB", "effekt_mw": 0.12, "normalar_gwh": 0.8, "turbiner": 1.0, "elomrade": "SE4", "natomrade": "IKN", "kommun": "Falkenberg", "osm_id": "w1124893997", "osm_namn": "Mostorp mölla", "kalla": "Energimyndigheten (effekt m.m.) + OSM (läge)", "i_em_summa": true, "i_halland": true }, "geometry": { "type": "Point", "coordinates": [ 12.72343, 56.84029 ] } },
{ "type": "Feature", "properties": { "namn": "Nissaström", "agare": "Statkraft Sverige AB", "effekt_mw": 10.6, "normalar_gwh": 56.0, "turbiner": 1.0, "elomrade": "SE4", "natomrade": "SYD", "kommun": "Halmstad", "osm_id": "w1125054921", "osm_namn": "Nissaström kraftstation", "kalla": "Energimyndigheten (effekt m.m.) + OSM (läge)", "i_em_summa": true, "i_halland": true }, "geometry": { "type": "Point", "coordinates": [ 13.00819, 56.84207 ] } },
{ "type": "Feature", "properties": { "namn": "Nyebro", "agare": "Statkraft Sverige AB", "effekt_mw": 1.4, "normalar_gwh": 7.0, "turbiner": 1.0, "elomrade": "SE4", "natomrade": "HLD", "kommun": "Hylte", "osm_id": "w696078450", "osm_namn": "Nyebro kraftstation", "kalla": "Energimyndigheten (effekt m.m.) + OSM (läge)", "i_em_summa": true, "i_halland": true }, "geometry": { "type": "Point", "coordinates": [ 13.07561, 56.93452 ] } },
{ "type": "Feature", "properties": { "namn": "Oskarström nedre", "agare": "Oskarström Vattenkraft AB", "effekt_mw": 1.5, "normalar_gwh": 4.4, "turbiner": 3.0, "elomrade": "SE4", "natomrade": "HLD", "kommun": "Halmstad", "osm_id": "w1125028280", "osm_namn": "Oskarström nedre kraftstation", "kalla": "Energimyndigheten (effekt m.m.) + OSM (läge)", "i_em_summa": true, "i_halland": true }, "geometry": { "type": "Point", "coordinates": [ 12.97038, 56.79422 ] } },
{ "type": "Feature", "properties": { "namn": "Oskarström övre", "agare": "Oskarström Vattenkraft AB", "effekt_mw": 1.1, "normalar_gwh": 3.0, "turbiner": 1.0, "elomrade": "SE4", "natomrade": "HLD", "kommun": "Halmstad", "osm_id": "w1125054920", "osm_namn": "Oskarström övre kraftstation", "kalla": "Energimyndigheten (effekt m.m.) + OSM (läge)", "i_em_summa": true, "i_halland": true }, "geometry": { "type": "Point", "coordinates": [ 12.97565, 56.80583 ] } },
{ "type": "Feature", "properties": { "namn": "Semb", "agare": "Susedalens Kraft AB", "effekt_mw": 0.32, "normalar_gwh": 1.6, "turbiner": 1.0, "elomrade": "SE4", "natomrade": "HLD", "kommun": "Falkenberg", "osm_id": "w1125098061", "osm_namn": "Sembs mölla", "kalla": "Energimyndigheten (effekt m.m.) + OSM (läge)", "i_em_summa": true, "i_halland": true }, "geometry": { "type": "Point", "coordinates": [ 12.76258, 56.87763 ] } },
{ "type": "Feature", "properties": { "namn": "Skogaby", "agare": "Statkraft Sverige AB", "effekt_mw": 13.8, "normalar_gwh": 52.0, "turbiner": 1.0, "elomrade": "SE4", "natomrade": "SYD", "kommun": "Laholm", "osm_id": "w993924821", "osm_namn": "Skogaby", "kalla": "Energimyndigheten (effekt m.m.) + OSM (läge)", "i_em_summa": true, "i_halland": true }, "geometry": { "type": "Point", "coordinates": [ 13.18092, 56.51928 ] } },
{ "type": "Feature", "properties": { "namn": "Skogsforsen", "agare": "Sydkraft Hydropower AB", "effekt_mw": 9.3, "normalar_gwh": 39.9, "turbiner": 2.0, "elomrade": "SE4", "natomrade": "SYD", "kommun": "Falkenberg", "osm_id": "w1124818389", "osm_namn": "Skogsforsens kraftverk", "kalla": "Energimyndigheten (effekt m.m.) + OSM (läge)", "i_em_summa": true, "i_halland": true }, "geometry": { "type": "Point", "coordinates": [ 12.86859, 57.09384 ] } },
{ "type": "Feature", "properties": { "namn": "Sperlingsholm", "agare": "SPERLINGSHOLMS GODS AKTIEBOLAG", "effekt_mw": 2.0, "normalar_gwh": 7.0, "turbiner": 2.0, "elomrade": "SE4", "natomrade": "HLD", "kommun": "Halmstad", "osm_id": "w347906725", "osm_namn": "Sperlingsholm kraftstation", "kalla": "Energimyndigheten (effekt m.m.) + OSM (läge)", "i_em_summa": true, "i_halland": true }, "geometry": { "type": "Point", "coordinates": [ 12.92496, 56.69781 ] } },
{ "type": "Feature", "properties": { "namn": "Vessige", "agare": "Vessige Vattenkraft AB", "effekt_mw": 0.71, "normalar_gwh": 2.5, "turbiner": 2.0, "elomrade": "SE4", "natomrade": "IKN", "kommun": "Falkenberg", "osm_id": "w1125096419", "osm_namn": "Vessige kraftstation", "kalla": "Energimyndigheten (effekt m.m.) + OSM (läge)", "i_em_summa": true, "i_halland": true }, "geometry": { "type": "Point", "coordinates": [ 12.65718, 56.97559 ] } },
{ "type": "Feature", "properties": { "namn": "Yngeredsfors", "agare": "Sydkraft Hydropower AB", "effekt_mw": 20.96, "normalar_gwh": 93.0, "turbiner": 2.0, "elomrade": "SE4", "natomrade": "SYD", "kommun": "Falkenberg", "osm_id": "w1004609061", "osm_namn": "Yngeredsfors kraftverk", "kalla": "Energimyndigheten (effekt m.m.) + OSM (läge)", "i_em_summa": true, "i_halland": true }, "geometry": { "type": "Point", "coordinates": [ 12.75965, 57.03293 ] } },
{ "type": "Feature", "properties": { "namn": "Ålgårda", "agare": "Forsnacken AB", "effekt_mw": 0.3, "normalar_gwh": 1.4, "turbiner": 1.0, "elomrade": "SE3", "natomrade": "NHA", "kommun": "Kungsbacka", "osm_id": "w337061719", "osm_namn": "Ålgårda kraftverk", "kalla": "Energimyndigheten (effekt m.m.) + OSM (läge)", "i_em_summa": true, "i_halland": true }, "geometry": { "type": "Point", "coordinates": [ 12.23941, 57.48884 ] } },
{ "type": "Feature", "properties": { "namn": "Gisslefors kraftverk", "agare": null, "effekt_mw": null, "normalar_gwh": null, "turbiner": null, "elomrade": null, "natomrade": null, "kommun": "Bollebygd", "osm_id": "n10284036891", "osm_namn": "Gisslefors kraftverk", "kalla": "OSM", "i_em_summa": false, "i_halland": false }, "geometry": { "type": "Point", "coordinates": [ 12.60472, 57.72251 ] } },
{ "type": "Feature", "properties": { "namn": "Torska kraftverk", "agare": null, "effekt_mw": null, "normalar_gwh": null, "turbiner": null, "elomrade": null, "natomrade": null, "kommun": "Alingsås", "osm_id": "n10284041013", "osm_namn": "Torska kraftverk", "kalla": "OSM", "i_em_summa": false, "i_halland": false }, "geometry": { "type": "Point", "coordinates": [ 12.46462, 57.79952 ] } },
{ "type": "Feature", "properties": { "namn": "Slottsmöllan kraftstation", "agare": null, "effekt_mw": 1.2, "normalar_gwh": null, "turbiner": null, "elomrade": null, "natomrade": null, "kommun": "Halmstad", "osm_id": "w171280548", "osm_namn": "Slottsmöllan kraftstation", "kalla": "OSM (saknas i Energimyndighetens lista)", "i_em_summa": false, "i_halland": true }, "geometry": { "type": "Point", "coordinates": [ 12.87332, 56.69027 ] } },
{ "type": "Feature", "properties": { "namn": "Ödegärdes kraftverk", "agare": null, "effekt_mw": null, "normalar_gwh": null, "turbiner": null, "elomrade": null, "natomrade": null, "kommun": "Falkenberg", "osm_id": "w608466794", "osm_namn": "Ödegärdes kraftverk", "kalla": "OSM (saknas i Energimyndighetens lista)", "i_em_summa": false, "i_halland": true }, "geometry": { "type": "Point", "coordinates": [ 12.87248, 57.24211 ] } },
{ "type": "Feature", "properties": { "namn": "Hulta kraftstation", "agare": null, "effekt_mw": 2.57, "normalar_gwh": null, "turbiner": null, "elomrade": null, "natomrade": null, "kommun": "Mark", "osm_id": "w1124773050", "osm_namn": "Hulta kraftstation", "kalla": "OSM", "i_em_summa": false, "i_halland": false }, "geometry": { "type": "Point", "coordinates": [ 12.61257, 57.46773 ] } },
{ "type": "Feature", "properties": { "namn": "Ätrafors kraftstation", "agare": null, "effekt_mw": 13.0, "normalar_gwh": null, "turbiner": null, "elomrade": null, "natomrade": null, "kommun": "Falkenberg", "osm_id": "r13459957", "osm_namn": "Ätrafors kraftstation", "kalla": "OSM (saknas i Energimyndighetens lista)", "i_em_summa": false, "i_halland": true }, "geometry": { "type": "Point", "coordinates": [ 12.66325, 57.03384 ] } },
{ "type": "Feature", "properties": { "namn": "Skåpanäs kraftstation", "agare": null, "effekt_mw": 11.0, "normalar_gwh": null, "turbiner": null, "elomrade": null, "natomrade": null, "kommun": "Svenljunga", "osm_id": "r15084522", "osm_namn": "Skåpanäs kraftstation", "kalla": "OSM", "i_em_summa": false, "i_halland": false }, "geometry": { "type": "Point", "coordinates": [ 12.96761, 57.18917 ] } },
{ "type": "Feature", "properties": { "namn": "Timsfors kraftstation", "agare": null, "effekt_mw": 2.94, "normalar_gwh": null, "turbiner": null, "elomrade": null, "natomrade": null, "kommun": "Markaryd", "osm_id": "w39343285", "osm_namn": "Timsfors kraftstation", "kalla": "OSM", "i_em_summa": false, "i_halland": false }, "geometry": { "type": "Point", "coordinates": [ 13.60197, 56.48625 ] } },
{ "type": "Feature", "properties": { "namn": "Traryd kraftverk", "agare": null, "effekt_mw": 15.0, "normalar_gwh": null, "turbiner": null, "elomrade": null, "natomrade": null, "kommun": "Markaryd", "osm_id": "w50053227", "osm_namn": "Traryd kraftverk", "kalla": "OSM", "i_em_summa": false, "i_halland": false }, "geometry": { "type": "Point", "coordinates": [ 13.74229, 56.58231 ] } },
{ "type": "Feature", "properties": { "namn": "Gyllenfors kraftstation", "agare": null, "effekt_mw": 1.0, "normalar_gwh": null, "turbiner": null, "elomrade": null, "natomrade": null, "kommun": "Gislaved", "osm_id": "w170656230", "osm_namn": "Gyllenfors kraftstation", "kalla": "OSM", "i_em_summa": false, "i_halland": false }, "geometry": { "type": "Point", "coordinates": [ 13.54533, 57.29711 ] } },
{ "type": "Feature", "properties": { "namn": "Jonsereds Kraftverk", "agare": "Partille Energi", "effekt_mw": 1.9, "normalar_gwh": null, "turbiner": null, "elomrade": null, "natomrade": null, "kommun": "Partille", "osm_id": "w300897875", "osm_namn": "Jonsereds Kraftverk", "kalla": "OSM", "i_em_summa": false, "i_halland": false }, "geometry": { "type": "Point", "coordinates": [ 12.17474, 57.7493 ] } },
{ "type": "Feature", "properties": { "namn": "Skeens Kraftverk", "agare": "Statkraft Sverige AB", "effekt_mw": 4.6, "normalar_gwh": null, "turbiner": null, "elomrade": null, "natomrade": null, "kommun": "Ljungby", "osm_id": "w303445778", "osm_namn": "Skeens Kraftverk", "kalla": "OSM", "i_em_summa": false, "i_halland": false }, "geometry": { "type": "Point", "coordinates": [ 13.67351, 56.75925 ] } },
{ "type": "Feature", "properties": { "namn": "Ljungby kraftverk", "agare": "Ljungby Energi", "effekt_mw": 1.8, "normalar_gwh": null, "turbiner": null, "elomrade": null, "natomrade": null, "kommun": "Ljungby", "osm_id": "w419352793", "osm_namn": "Ljungby kraftverk", "kalla": "OSM", "i_em_summa": false, "i_halland": false }, "geometry": { "type": "Point", "coordinates": [ 13.95043, 56.83056 ] } },
{ "type": "Feature", "properties": { "namn": "Åbyfors", "agare": null, "effekt_mw": null, "normalar_gwh": null, "turbiner": null, "elomrade": null, "natomrade": null, "kommun": "Ljungby", "osm_id": "w481820322", "osm_namn": "Åbyfors", "kalla": "OSM", "i_em_summa": false, "i_halland": false }, "geometry": { "type": "Point", "coordinates": [ 14.00236, 56.9032 ] } },
{ "type": "Feature", "properties": { "namn": "Haby kraftstation", "agare": null, "effekt_mw": 5.28, "normalar_gwh": null, "turbiner": null, "elomrade": null, "natomrade": null, "kommun": "Mark", "osm_id": "w528690345", "osm_namn": "Haby kraftstation", "kalla": "OSM", "i_em_summa": false, "i_halland": false }, "geometry": { "type": "Point", "coordinates": [ 12.64075, 57.46591 ] } },
{ "type": "Feature", "properties": { "namn": "Kungsfors kraftstation", "agare": null, "effekt_mw": 1.06, "normalar_gwh": null, "turbiner": null, "elomrade": null, "natomrade": null, "kommun": "Mark", "osm_id": "w528968206", "osm_namn": "Kungsfors kraftstation", "kalla": "OSM", "i_em_summa": false, "i_halland": false }, "geometry": { "type": "Point", "coordinates": [ 12.67142, 57.48622 ] } },
{ "type": "Feature", "properties": { "namn": "Kinnaströms kraftstation", "agare": null, "effekt_mw": 0.62, "normalar_gwh": null, "turbiner": null, "elomrade": null, "natomrade": null, "kommun": "Mark", "osm_id": "w529342238", "osm_namn": "Kinnaströms kraftstation", "kalla": "OSM", "i_em_summa": false, "i_halland": false }, "geometry": { "type": "Point", "coordinates": [ 12.68142, 57.51166 ] } },
{ "type": "Feature", "properties": { "namn": "Knäreds övre kraftverk", "agare": null, "effekt_mw": 7.5, "normalar_gwh": null, "turbiner": null, "elomrade": null, "natomrade": null, "kommun": "Laholm", "osm_id": "w564446429", "osm_namn": "Knäreds övre kraftverk", "kalla": "OSM (trolig del av eller granne till en anläggning i Energimyndighetens lista)", "i_em_summa": false, "i_halland": true }, "geometry": { "type": "Point", "coordinates": [ 13.35174, 56.5077 ] } },
{ "type": "Feature", "properties": { "namn": "Fritsla kraftverk", "agare": null, "effekt_mw": 0.6, "normalar_gwh": null, "turbiner": null, "elomrade": null, "natomrade": null, "kommun": "Mark", "osm_id": "w662379648", "osm_namn": "Fritsla kraftverk", "kalla": "OSM", "i_em_summa": false, "i_halland": false }, "geometry": { "type": "Point", "coordinates": [ 12.78152, 57.56463 ] } },
{ "type": "Feature", "properties": { "namn": "Strömfors kraftverk", "agare": null, "effekt_mw": null, "normalar_gwh": null, "turbiner": null, "elomrade": null, "natomrade": null, "kommun": "Svenljunga", "osm_id": "w670989545", "osm_namn": "Strömfors kraftverk", "kalla": "OSM", "i_em_summa": false, "i_halland": false }, "geometry": { "type": "Point", "coordinates": [ 13.22109, 57.46657 ] } },
{ "type": "Feature", "properties": { "namn": "Stämmemads kraftstation", "agare": null, "effekt_mw": null, "normalar_gwh": null, "turbiner": null, "elomrade": null, "natomrade": null, "kommun": "Mark", "osm_id": "w907760747", "osm_namn": "Stämmemads kraftstation", "kalla": "OSM", "i_em_summa": false, "i_halland": false }, "geometry": { "type": "Point", "coordinates": [ 12.67035, 57.51944 ] } },
{ "type": "Feature", "properties": { "namn": "Rydal kraftstation", "agare": null, "effekt_mw": 0.68, "normalar_gwh": null, "turbiner": null, "elomrade": null, "natomrade": null, "kommun": "Mark", "osm_id": "w987415237", "osm_namn": "Rydal kraftstation", "kalla": "OSM", "i_em_summa": false, "i_halland": false }, "geometry": { "type": "Point", "coordinates": [ 12.69201, 57.55523 ] } },
{ "type": "Feature", "properties": { "namn": "Mölneby Kraftverk", "agare": "Mölneby Gård", "effekt_mw": 0.2, "normalar_gwh": null, "turbiner": null, "elomrade": null, "natomrade": null, "kommun": "Svenljunga", "osm_id": "w992716060", "osm_namn": "Mölneby Kraftverk", "kalla": "OSM", "i_em_summa": false, "i_halland": false }, "geometry": { "type": "Point", "coordinates": [ 13.04222, 57.33312 ] } },
{ "type": "Feature", "properties": { "namn": "Majenfors gamla kraftverk", "agare": null, "effekt_mw": 4.8, "normalar_gwh": null, "turbiner": null, "elomrade": null, "natomrade": null, "kommun": "Laholm", "osm_id": "w993924837", "osm_namn": "Majenfors gamla kraftverk", "kalla": "OSM (trolig del av eller granne till en anläggning i Energimyndighetens lista)", "i_em_summa": false, "i_halland": true }, "geometry": { "type": "Point", "coordinates": [ 13.45123, 56.49931 ] } },
{ "type": "Feature", "properties": { "namn": "Ångabäck kraftverk", "agare": null, "effekt_mw": 7.0, "normalar_gwh": null, "turbiner": null, "elomrade": null, "natomrade": null, "kommun": "Markaryd", "osm_id": "w993924842", "osm_namn": "Ångabäck kraftverk", "kalla": "OSM", "i_em_summa": false, "i_halland": false }, "geometry": { "type": "Point", "coordinates": [ 13.50875, 56.49444 ] } },
{ "type": "Feature", "properties": { "namn": "Kvarnaholm kraftverk", "agare": null, "effekt_mw": 5.5, "normalar_gwh": null, "turbiner": null, "elomrade": null, "natomrade": null, "kommun": "Markaryd", "osm_id": "w993924851", "osm_namn": "Kvarnaholm kraftverk", "kalla": "OSM", "i_em_summa": false, "i_halland": false }, "geometry": { "type": "Point", "coordinates": [ 13.71259, 56.53834 ] } },
{ "type": "Feature", "properties": { "namn": "Bro", "agare": null, "effekt_mw": null, "normalar_gwh": null, "turbiner": null, "elomrade": null, "natomrade": null, "kommun": "Ljungby", "osm_id": "w993949128", "osm_namn": "Bro", "kalla": "OSM", "i_em_summa": false, "i_halland": false }, "geometry": { "type": "Point", "coordinates": [ 13.99836, 56.91808 ] } },
{ "type": "Feature", "properties": { "namn": "Åby", "agare": null, "effekt_mw": null, "normalar_gwh": null, "turbiner": null, "elomrade": null, "natomrade": null, "kommun": "Ljungby", "osm_id": "w993949133", "osm_namn": "Åby", "kalla": "OSM", "i_em_summa": false, "i_halland": false }, "geometry": { "type": "Point", "coordinates": [ 14.01215, 56.91374 ] } },
{ "type": "Feature", "properties": { "namn": "Ågården kraftstation", "agare": null, "effekt_mw": 0.3, "normalar_gwh": null, "turbiner": null, "elomrade": null, "natomrade": null, "kommun": "Gislaved", "osm_id": "w1013329427", "osm_namn": "Ågården kraftstation", "kalla": "OSM", "i_em_summa": false, "i_halland": false }, "geometry": { "type": "Point", "coordinates": [ 13.43479, 57.17414 ] } },
{ "type": "Feature", "properties": { "namn": "Kärramölla kraftstation", "agare": null, "effekt_mw": null, "normalar_gwh": null, "turbiner": null, "elomrade": null, "natomrade": null, "kommun": "Laholm", "osm_id": "w1124732149", "osm_namn": "Kärramölla kraftstation", "kalla": "OSM (saknas i Energimyndighetens lista)", "i_em_summa": false, "i_halland": true }, "geometry": { "type": "Point", "coordinates": [ 13.08354, 56.40199 ] } },
{ "type": "Feature", "properties": { "namn": "Assmebro kraftverk", "agare": null, "effekt_mw": null, "normalar_gwh": null, "turbiner": null, "elomrade": null, "natomrade": null, "kommun": "Svenljunga", "osm_id": "w1124734495", "osm_namn": "Assmebro kraftverk", "kalla": "OSM", "i_em_summa": false, "i_halland": false }, "geometry": { "type": "Point", "coordinates": [ 13.13585, 57.43541 ] } },
{ "type": "Feature", "properties": { "namn": "Axelfors vattenkraftverk", "agare": null, "effekt_mw": 2.57, "normalar_gwh": null, "turbiner": null, "elomrade": null, "natomrade": null, "kommun": "Svenljunga", "osm_id": "w1124773546", "osm_namn": "Axelfors vattenkraftverk", "kalla": "OSM", "i_em_summa": false, "i_halland": false }, "geometry": { "type": "Point", "coordinates": [ 13.09848, 57.44032 ] } },
{ "type": "Feature", "properties": { "namn": "Lia kraftverk", "agare": null, "effekt_mw": null, "normalar_gwh": null, "turbiner": null, "elomrade": null, "natomrade": null, "kommun": "Falkenberg", "osm_id": "w1124818388", "osm_namn": "Lia kraftverk", "kalla": "OSM (saknas i Energimyndighetens lista)", "i_em_summa": false, "i_halland": true }, "geometry": { "type": "Point", "coordinates": [ 12.81196, 57.19988 ] } },
{ "type": "Feature", "properties": { "namn": "Ljungafors kraftstation", "agare": null, "effekt_mw": null, "normalar_gwh": null, "turbiner": null, "elomrade": null, "natomrade": null, "kommun": "Svenljunga", "osm_id": "w1124818390", "osm_namn": "Ljungafors kraftstation", "kalla": "OSM", "i_em_summa": false, "i_halland": false }, "geometry": { "type": "Point", "coordinates": [ 13.11275, 57.50934 ] } },
{ "type": "Feature", "properties": { "namn": "Apelnäs kraftverk", "agare": null, "effekt_mw": null, "normalar_gwh": null, "turbiner": null, "elomrade": null, "natomrade": null, "kommun": "Härryda", "osm_id": "w1124890062", "osm_namn": "Apelnäs kraftverk", "kalla": "OSM", "i_em_summa": false, "i_halland": false }, "geometry": { "type": "Point", "coordinates": [ 12.4972, 57.63184 ] } },
{ "type": "Feature", "properties": { "namn": "Bosgårdens kraftverk", "agare": null, "effekt_mw": null, "normalar_gwh": null, "turbiner": null, "elomrade": null, "natomrade": null, "kommun": "Mark", "osm_id": "w1124890063", "osm_namn": "Bosgårdens kraftverk", "kalla": "OSM", "i_em_summa": false, "i_halland": false }, "geometry": { "type": "Point", "coordinates": [ 12.46897, 57.60769 ] } },
{ "type": "Feature", "properties": { "namn": "Vattenkraftverk (namn saknas i OSM)", "agare": null, "effekt_mw": null, "normalar_gwh": null, "turbiner": null, "elomrade": null, "natomrade": null, "kommun": "Härryda", "osm_id": "w1124890064", "osm_namn": null, "kalla": "OSM", "i_em_summa": false, "i_halland": false }, "geometry": { "type": "Point", "coordinates": [ 12.35604, 57.69215 ] } },
{ "type": "Feature", "properties": { "namn": "Hyltebruks kraftstation", "agare": null, "effekt_mw": 26.0, "normalar_gwh": null, "turbiner": null, "elomrade": null, "natomrade": null, "kommun": "Hylte", "osm_id": "w1125057024", "osm_namn": "Hyltebruks kraftstation", "kalla": "OSM (trolig del av eller granne till en anläggning i Energimyndighetens lista)", "i_em_summa": false, "i_halland": true }, "geometry": { "type": "Point", "coordinates": [ 13.26208, 57.00172 ] } },
{ "type": "Feature", "properties": { "namn": "Assmebro Kraftstation", "agare": null, "effekt_mw": null, "normalar_gwh": null, "turbiner": null, "elomrade": null, "natomrade": null, "kommun": "Svenljunga", "osm_id": "w1125307549", "osm_namn": "Assmebro Kraftstation", "kalla": "OSM", "i_em_summa": false, "i_halland": false }, "geometry": { "type": "Point", "coordinates": [ 13.14491, 57.44838 ] } },
{ "type": "Feature", "properties": { "namn": "Hertings 2 kraftstation", "agare": null, "effekt_mw": 3.3, "normalar_gwh": null, "turbiner": null, "elomrade": null, "natomrade": null, "kommun": "Falkenberg", "osm_id": "w1126393751", "osm_namn": "Hertings 2 kraftstation", "kalla": "OSM (trolig del av eller granne till en anläggning i Energimyndighetens lista)", "i_em_summa": false, "i_halland": true }, "geometry": { "type": "Point", "coordinates": [ 12.52144, 56.90117 ] } },
{ "type": "Feature", "properties": { "namn": "Vattenkraftverk (namn saknas i OSM)", "agare": null, "effekt_mw": null, "normalar_gwh": null, "turbiner": null, "elomrade": null, "natomrade": null, "kommun": "Gislaved", "osm_id": "w1127319483", "osm_namn": null, "kalla": "OSM", "i_em_summa": false, "i_halland": false }, "geometry": { "type": "Point", "coordinates": [ 13.34377, 57.26028 ] } },
{ "type": "Feature", "properties": { "namn": "Hillefors kraftverk", "agare": "Erum Energi", "effekt_mw": 0.16, "normalar_gwh": null, "turbiner": null, "elomrade": null, "natomrade": null, "kommun": "Lerum", "osm_id": "w1128034580", "osm_namn": "Hillefors kraftverk", "kalla": "OSM", "i_em_summa": false, "i_halland": false }, "geometry": { "type": "Point", "coordinates": [ 12.32077, 57.79421 ] } },
{ "type": "Feature", "properties": { "namn": "Hedefors kraftverk", "agare": "Lerum Energy", "effekt_mw": 3.1, "normalar_gwh": null, "turbiner": null, "elomrade": null, "natomrade": null, "kommun": "Lerum", "osm_id": "w1132546504", "osm_namn": "Hedefors kraftverk", "kalla": "OSM", "i_em_summa": false, "i_halland": false }, "geometry": { "type": "Point", "coordinates": [ 12.29855, 57.78105 ] } },
{ "type": "Feature", "properties": { "namn": "Floda kraftverk", "agare": "Lerum Energi", "effekt_mw": 0.36, "normalar_gwh": null, "turbiner": null, "elomrade": null, "natomrade": null, "kommun": "Lerum", "osm_id": "w1134060715", "osm_namn": "Floda kraftverk", "kalla": "OSM", "i_em_summa": false, "i_halland": false }, "geometry": { "type": "Point", "coordinates": [ 12.3626, 57.80913 ] } },
{ "type": "Feature", "properties": { "namn": "Vattenkraftverk (namn saknas i OSM)", "agare": null, "effekt_mw": null, "normalar_gwh": null, "turbiner": null, "elomrade": null, "natomrade": null, "kommun": "Mark", "osm_id": "w907301297", "osm_namn": null, "kalla": "OSM", "i_em_summa": false, "i_halland": false }, "geometry": { "type": "Point", "coordinates": [ 12.68361, 57.50967 ] } }
]
}
