{
"type": "FeatureCollection",
"xy_coordinate_resolution": 1e-05,
"features": [
{ "type": "Feature", "properties": { "elomrade": "SE3", "namn": "Elområde 3 (Stockholm)" }, "geometry": { "type": "Polygon", "coordinates": [ [ [ 12.38206, 56.99298 ], [ 12.38992, 56.99901 ], [ 12.40484, 57.00285 ], [ 12.41115, 57.00146 ], [ 12.41333, 57.00273 ], [ 12.41537, 57.01542 ], [ 12.42855, 57.01646 ], [ 12.43856, 57.01977 ], [ 12.47726, 57.02107 ], [ 12.48679, 57.03249 ], [ 12.48679, 57.04022 ], [ 12.52787, 57.04821 ], [ 12.5139, 57.07067 ], [ 12.49659, 57.07914 ], [ 12.50837, 57.08842 ], [ 12.52579, 57.09709 ], [ 12.54267, 57.11692 ], [ 12.55289, 57.12028 ], [ 12.5664, 57.1161 ], [ 12.57397, 57.10814 ], [ 12.59139, 57.1094 ], [ 12.63068, 57.13694 ], [ 12.64016, 57.146 ], [ 12.6402, 57.15752 ], [ 12.63918, 57.15902 ], [ 12.61729, 57.16595 ], [ 12.61453, 57.18739 ], [ 12.62451, 57.21013 ], [ 12.63385, 57.21438 ], [ 12.63378, 57.21768 ], [ 12.64398, 57.22672 ], [ 12.6631, 57.23434 ], [ 12.66756, 57.23325 ], [ 12.6725, 57.22891 ], [ 12.70994, 57.22475 ], [ 12.70818, 57.22662 ], [ 12.71013, 57.2264 ], [ 12.71015, 57.23134 ], [ 12.71337, 57.23357 ], [ 12.714, 57.2405 ], [ 12.71019, 57.24381 ], [ 12.7102, 57.24763 ], [ 12.72728, 57.25839 ], [ 12.73105, 57.25779 ], [ 12.7356, 57.24168 ], [ 12.75102, 57.23261 ], [ 12.7618, 57.21951 ], [ 12.76861, 57.21473 ], [ 12.83962, 57.212 ], [ 12.92115, 57.22401 ], [ 12.92725, 57.22811 ], [ 12.935, 57.2275 ], [ 12.95416, 57.2412 ], [ 12.9532, 57.24465 ], [ 12.96023, 57.25844 ], [ 12.95273, 57.28045 ], [ 12.96028, 57.29092 ], [ 12.97009, 57.29203 ], [ 12.97213, 57.29575 ], [ 12.9882, 57.30336 ], [ 12.99276, 57.33041 ], [ 13.01555, 57.35331 ], [ 13.0039, 57.35908 ], [ 13.00251, 57.36613 ], [ 13.01792, 57.37204 ], [ 13.01054, 57.3781 ], [ 13.01642, 57.37791 ], [ 13.02633, 57.38102 ], [ 13.03671, 57.38929 ], [ 13.04189, 57.39124 ], [ 13.05082, 57.3916 ], [ 13.0529, 57.39288 ], [ 13.05933, 57.39197 ], [ 13.06742, 57.38835 ], [ 13.06665, 57.38543 ], [ 13.15122, 57.36759 ], [ 13.16133, 57.36161 ], [ 13.15888, 57.34227 ], [ 13.16176, 57.32985 ], [ 13.17492, 57.30739 ], [ 13.18741, 57.29837 ], [ 13.20272, 57.29565 ], [ 13.21628, 57.29629 ], [ 13.24454, 57.28855 ], [ 13.27746, 57.28897 ], [ 13.28064, 57.29456 ], [ 13.28463, 57.29396 ], [ 13.28852, 57.29716 ], [ 13.28213, 57.30745 ], [ 13.32074, 57.31521 ], [ 13.34692, 57.3181 ], [ 13.35149, 57.32118 ], [ 13.36379, 57.323 ], [ 13.38318, 57.31692 ], [ 13.39084, 57.31885 ], [ 13.42642, 57.31482 ], [ 13.43856, 57.31853 ], [ 13.44771, 57.31844 ], [ 13.46744, 57.31348 ], [ 13.48986, 57.31189 ], [ 13.48711, 57.3031 ], [ 13.50124, 57.29745 ], [ 13.50473, 57.29298 ], [ 13.5087, 57.29159 ], [ 13.50873, 57.28514 ], [ 13.50129, 57.27187 ], [ 13.50941, 57.26642 ], [ 13.56052, 57.26708 ], [ 13.59405, 57.28623 ], [ 13.60065, 57.28341 ], [ 13.60638, 57.28896 ], [ 13.59846, 57.30468 ], [ 13.59058, 57.34378 ], [ 13.59721, 57.37964 ], [ 13.60172, 57.3944 ], [ 13.60615, 57.39919 ], [ 13.60364, 57.39936 ], [ 13.60357, 57.40285 ], [ 13.55331, 57.40233 ], [ 13.5242, 57.39455 ], [ 13.52074, 57.39651 ], [ 13.51642, 57.39588 ], [ 13.51252, 57.39763 ], [ 13.48919, 57.39565 ], [ 13.4433, 57.37123 ], [ 13.43273, 57.36819 ], [ 13.4127, 57.37794 ], [ 13.4051, 57.37757 ], [ 13.39543, 57.37191 ], [ 13.38255, 57.37103 ], [ 13.37818, 57.36898 ], [ 13.36663, 57.37089 ], [ 13.36344, 57.37316 ], [ 13.36419, 57.37757 ], [ 13.35789, 57.37929 ], [ 13.35881, 57.38658 ], [ 13.36773, 57.3965 ], [ 13.35335, 57.40412 ], [ 13.34175, 57.41304 ], [ 13.31145, 57.44031 ], [ 13.32736, 57.4457 ], [ 13.33347, 57.44602 ], [ 13.33704, 57.44828 ], [ 13.34834, 57.44809 ], [ 13.35559, 57.45206 ], [ 13.35867, 57.45189 ], [ 13.36022, 57.45464 ], [ 13.37778, 57.45833 ], [ 13.38006, 57.47043 ], [ 13.38504, 57.47071 ], [ 13.38822, 57.47456 ], [ 13.43243, 57.49964 ], [ 13.46467, 57.49903 ], [ 13.46506, 57.50086 ], [ 13.46774, 57.50091 ], [ 13.46946, 57.50652 ], [ 13.46299, 57.5105 ], [ 13.46205, 57.51307 ], [ 13.4529, 57.51769 ], [ 13.45292, 57.52185 ], [ 13.5532, 57.5173 ], [ 13.55812, 57.51184 ], [ 13.56935, 57.51353 ], [ 13.57272, 57.51637 ], [ 13.58686, 57.51811 ], [ 13.62185, 57.51575 ], [ 13.62667, 57.52042 ], [ 13.63502, 57.52371 ], [ 13.6444, 57.52462 ], [ 13.67152, 57.53853 ], [ 13.67087, 57.54103 ], [ 13.69166, 57.55865 ], [ 13.72195, 57.56053 ], [ 13.73045, 57.56997 ], [ 13.75092, 57.56752 ], [ 13.75281, 57.56965 ], [ 13.7657, 57.57107 ], [ 13.8024, 57.59121 ], [ 13.82043, 57.56855 ], [ 13.8867, 57.55621 ], [ 13.89066, 57.49897 ], [ 13.899, 57.49296 ], [ 13.90157, 57.48786 ], [ 13.87512, 57.47128 ], [ 13.88337, 57.46975 ], [ 13.8885, 57.46548 ], [ 13.8969, 57.44479 ], [ 13.90413, 57.4343 ], [ 13.88798, 57.41038 ], [ 13.89149, 57.40857 ], [ 13.9009, 57.40797 ], [ 13.9051, 57.40512 ], [ 13.92365, 57.38135 ], [ 13.92839, 57.37994 ], [ 13.92898, 57.37741 ], [ 13.94013, 57.37015 ], [ 13.94202, 57.36948 ], [ 13.94599, 57.37256 ], [ 13.95113, 57.37081 ], [ 13.96692, 57.37228 ], [ 13.98492, 57.36944 ], [ 13.98834, 57.36738 ], [ 13.98871, 57.3599 ], [ 13.99852, 57.35564 ], [ 14.00553, 57.35576 ], [ 14.00861, 57.35364 ], [ 14.01594, 57.34537 ], [ 14.01027, 57.32739 ], [ 14.01582, 57.3204 ], [ 14.00626, 57.31536 ], [ 14.00077, 57.30962 ], [ 14.00176, 57.30586 ], [ 14.00862, 57.29738 ], [ 14.02923, 57.28539 ], [ 14.04523, 57.29746 ], [ 14.04515, 57.32415 ], [ 14.06494, 57.32414 ], [ 14.10215, 57.32122 ], [ 14.10549, 57.32308 ], [ 14.10605, 57.32156 ], [ 14.10953, 57.33191 ], [ 14.10831, 57.34224 ], [ 14.16629, 57.3436 ], [ 14.16891, 57.33891 ], [ 14.21606, 57.33516 ], [ 14.22415, 57.36291 ], [ 14.22609, 57.37984 ], [ 14.23037, 57.38468 ], [ 14.29438, 57.37475 ], [ 14.32543, 57.36425 ], [ 14.36124, 57.37016 ], [ 14.3919, 57.32942 ], [ 14.41328, 57.32405 ], [ 14.41482, 57.31616 ], [ 14.43489, 57.31216 ], [ 14.44652, 57.31519 ], [ 14.47069, 57.30569 ], [ 14.48687, 57.30503 ], [ 14.44867, 57.34269 ], [ 14.41874, 57.36769 ], [ 14.38225, 57.39493 ], [ 14.34808, 57.41754 ], [ 14.27305, 57.45957 ], [ 14.18885, 57.49731 ], [ 14.14262, 57.52071 ], [ 14.10238, 57.53866 ], [ 14.01685, 57.57103 ], [ 13.96927, 57.58614 ], [ 13.87228, 57.61139 ], [ 13.77069, 57.63084 ], [ 13.71855, 57.63831 ], [ 13.63307, 57.64693 ], [ 13.59404, 57.66674 ], [ 13.50403, 57.70509 ], [ 13.41488, 57.73516 ], [ 13.36118, 57.75024 ], [ 13.32731, 57.76189 ], [ 13.25814, 57.78233 ], [ 13.22701, 57.81703 ], [ 13.20081, 57.8418 ], [ 13.14112, 57.88895 ], [ 13.05758, 57.94137 ], [ 12.96428, 57.99216 ], [ 12.88438, 58.02801 ], [ 12.79781, 58.05925 ], [ 12.7055, 58.08553 ], [ 12.60845, 58.10656 ], [ 12.55848, 58.11504 ], [ 12.45635, 58.12779 ], [ 12.35223, 58.13482 ], [ 12.24728, 58.13606 ], [ 12.19486, 58.1345 ], [ 12.09086, 58.12705 ], [ 11.98892, 58.1139 ], [ 11.9266, 58.10266 ], [ 11.79184, 58.09835 ], [ 11.62808, 58.08549 ], [ 11.57698, 58.07952 ], [ 11.47692, 58.0634 ], [ 11.42823, 58.05328 ], [ 11.36088, 58.03642 ], [ 11.29671, 58.03226 ], [ 11.24502, 58.02716 ], [ 11.14353, 58.01268 ], [ 11.09401, 58.00334 ], [ 10.99814, 57.98059 ], [ 10.95205, 57.96725 ], [ 10.90735, 57.95263 ], [ 10.8566, 57.9337 ], [ 11.04478, 57.8177 ], [ 11.40314, 57.4429 ], [ 11.79915, 56.95914 ], [ 11.86387, 56.86735 ], [ 12.25699, 56.99083 ], [ 12.26065, 56.98647 ], [ 12.36938, 56.9886 ], [ 12.36954, 56.98575 ], [ 12.38165, 56.98518 ], [ 12.38638, 56.98707 ], [ 12.38206, 56.99298 ] ] ] } },
{ "type": "Feature", "properties": { "elomrade": "SE4", "namn": "Elområde 4 (Malmö)" }, "geometry": { "type": "MultiPolygon", "coordinates": [ [ [ [ 12.38614, 56.98731 ], [ 12.38029, 56.98541 ], [ 12.37052, 56.98582 ], [ 12.36993, 56.98947 ], [ 12.35175, 56.98895 ], [ 12.35139, 56.98796 ], [ 12.26065, 56.98647 ], [ 12.2563, 56.99165 ], [ 11.86664, 56.86786 ], [ 12.14808, 56.50846 ], [ 12.08597, 56.3021 ], [ 12.37852, 56.21103 ], [ 12.57232, 55.99074 ], [ 12.69318, 55.84408 ], [ 12.7592, 55.83379 ], [ 12.82422, 55.82648 ], [ 12.87514, 55.8158 ], [ 12.956, 55.80213 ], [ 13.05192, 55.7912 ], [ 13.10048, 55.78779 ], [ 13.14929, 55.78576 ], [ 13.24713, 55.78589 ], [ 13.34445, 55.79156 ], [ 13.44029, 55.80273 ], [ 13.50864, 55.81353 ], [ 13.59807, 55.8322 ], [ 13.64147, 55.84336 ], [ 13.72512, 55.86924 ], [ 13.81043, 55.90204 ], [ 13.84594, 55.91787 ], [ 13.9001, 55.94537 ], [ 13.99439, 55.97694 ], [ 14.0369, 55.99374 ], [ 14.11687, 56.03106 ], [ 14.16177, 56.05562 ], [ 14.23813, 56.10527 ], [ 14.29471, 56.15096 ], [ 14.3427, 56.19964 ], [ 14.38157, 56.2508 ], [ 14.41086, 56.30391 ], [ 14.43023, 56.35841 ], [ 14.43612, 56.386 ], [ 14.44018, 56.4415 ], [ 14.43689, 56.47832 ], [ 14.43952, 56.53024 ], [ 14.4335, 56.57702 ], [ 14.47697, 56.6066 ], [ 14.50692, 56.62995 ], [ 14.53462, 56.65413 ], [ 14.58294, 56.70474 ], [ 14.62137, 56.75787 ], [ 14.64943, 56.81292 ], [ 14.65946, 56.84099 ], [ 14.67528, 56.91313 ], [ 14.6803, 56.96866 ], [ 14.6748, 57.02418 ], [ 14.65882, 57.0791 ], [ 14.63248, 57.13282 ], [ 14.59601, 57.18476 ], [ 14.57408, 57.2099 ], [ 14.52926, 57.25266 ], [ 14.48687, 57.30503 ], [ 14.47069, 57.30569 ], [ 14.44652, 57.31519 ], [ 14.43489, 57.31216 ], [ 14.41482, 57.31616 ], [ 14.41328, 57.32405 ], [ 14.3919, 57.32942 ], [ 14.36124, 57.37016 ], [ 14.32543, 57.36425 ], [ 14.29438, 57.37475 ], [ 14.30185, 57.37935 ], [ 14.25495, 57.40812 ], [ 14.23912, 57.38943 ], [ 14.22615, 57.37857 ], [ 14.22324, 57.35539 ], [ 14.21697, 57.33449 ], [ 14.17155, 57.33847 ], [ 14.16234, 57.34751 ], [ 14.13912, 57.34271 ], [ 14.10731, 57.34127 ], [ 14.10587, 57.3383 ], [ 14.10942, 57.33422 ], [ 14.10989, 57.3275 ], [ 14.10216, 57.32122 ], [ 14.10159, 57.32124 ], [ 14.1013, 57.32135 ], [ 14.10009, 57.32142 ], [ 14.09876, 57.32345 ], [ 14.09372, 57.32376 ], [ 14.09252, 57.32581 ], [ 14.04516, 57.32317 ], [ 14.04437, 57.29743 ], [ 14.02625, 57.2848 ], [ 14.00862, 57.29738 ], [ 14.00078, 57.30963 ], [ 14.01584, 57.32037 ], [ 14.01044, 57.32734 ], [ 14.01866, 57.34244 ], [ 14.00863, 57.35368 ], [ 14.00499, 57.35544 ], [ 13.99187, 57.35672 ], [ 13.98826, 57.36754 ], [ 13.98485, 57.36949 ], [ 13.9661, 57.37245 ], [ 13.95112, 57.37089 ], [ 13.94606, 57.37261 ], [ 13.93966, 57.37048 ], [ 13.92948, 57.37724 ], [ 13.92852, 57.37987 ], [ 13.92372, 57.38139 ], [ 13.92324, 57.38455 ], [ 13.90982, 57.39852 ], [ 13.90972, 57.40253 ], [ 13.90092, 57.40797 ], [ 13.89169, 57.40855 ], [ 13.88799, 57.4104 ], [ 13.90417, 57.43434 ], [ 13.89691, 57.4448 ], [ 13.8885, 57.46548 ], [ 13.87513, 57.47129 ], [ 13.90162, 57.48781 ], [ 13.89231, 57.49953 ], [ 13.88677, 57.55619 ], [ 13.82043, 57.56855 ], [ 13.8024, 57.59121 ], [ 13.7657, 57.57107 ], [ 13.75281, 57.56965 ], [ 13.75092, 57.56752 ], [ 13.73045, 57.56997 ], [ 13.72195, 57.56053 ], [ 13.69166, 57.55865 ], [ 13.67087, 57.54103 ], [ 13.67152, 57.53853 ], [ 13.6444, 57.52462 ], [ 13.63502, 57.52371 ], [ 13.62667, 57.52042 ], [ 13.62185, 57.51575 ], [ 13.58686, 57.51811 ], [ 13.57272, 57.51637 ], [ 13.56935, 57.51353 ], [ 13.55812, 57.51184 ], [ 13.5532, 57.5173 ], [ 13.45292, 57.52185 ], [ 13.4529, 57.51769 ], [ 13.46205, 57.51307 ], [ 13.46299, 57.5105 ], [ 13.46946, 57.50652 ], [ 13.46774, 57.50091 ], [ 13.43354, 57.50027 ], [ 13.38551, 57.47192 ], [ 13.38012, 57.47078 ], [ 13.37778, 57.45833 ], [ 13.34244, 57.4509 ], [ 13.33208, 57.44587 ], [ 13.32736, 57.4457 ], [ 13.31145, 57.44031 ], [ 13.34875, 57.40656 ], [ 13.36773, 57.3965 ], [ 13.35788, 57.38369 ], [ 13.35789, 57.37929 ], [ 13.36419, 57.37757 ], [ 13.36344, 57.37316 ], [ 13.36663, 57.37089 ], [ 13.38994, 57.36703 ], [ 13.40782, 57.37793 ], [ 13.4127, 57.37794 ], [ 13.43581, 57.36681 ], [ 13.43832, 57.36941 ], [ 13.48264, 57.39021 ], [ 13.49108, 57.39593 ], [ 13.51252, 57.39763 ], [ 13.51642, 57.39588 ], [ 13.52074, 57.39651 ], [ 13.52455, 57.39435 ], [ 13.55632, 57.40254 ], [ 13.60615, 57.39919 ], [ 13.60172, 57.3944 ], [ 13.59721, 57.37964 ], [ 13.59058, 57.34378 ], [ 13.59864, 57.3041 ], [ 13.60638, 57.28896 ], [ 13.60167, 57.2844 ], [ 13.59516, 57.28578 ], [ 13.56258, 57.26785 ], [ 13.51194, 57.26693 ], [ 13.50485, 57.27284 ], [ 13.51139, 57.28551 ], [ 13.51071, 57.29299 ], [ 13.50435, 57.29772 ], [ 13.49002, 57.30277 ], [ 13.49246, 57.31186 ], [ 13.47004, 57.3133 ], [ 13.45149, 57.31869 ], [ 13.44181, 57.3185 ], [ 13.42885, 57.315 ], [ 13.3962, 57.31911 ], [ 13.38448, 57.31785 ], [ 13.36932, 57.32131 ], [ 13.31546, 57.31413 ], [ 13.28487, 57.30771 ], [ 13.2831, 57.30634 ], [ 13.28852, 57.29716 ], [ 13.28463, 57.29396 ], [ 13.28064, 57.29456 ], [ 13.27746, 57.28897 ], [ 13.24667, 57.2885 ], [ 13.23781, 57.2953 ], [ 13.20322, 57.29612 ], [ 13.16336, 57.33726 ], [ 13.1636, 57.36388 ], [ 13.03453, 57.4005 ], [ 13.03959, 57.39037 ], [ 13.02633, 57.38102 ], [ 13.01642, 57.37791 ], [ 13.01345, 57.37852 ], [ 13.01185, 57.37703 ], [ 13.01497, 57.37447 ], [ 13.00201, 57.36908 ], [ 13.00706, 57.35244 ], [ 12.9931, 57.33377 ], [ 12.98788, 57.30089 ], [ 12.96249, 57.2894 ], [ 12.95392, 57.28217 ], [ 12.95227, 57.27578 ], [ 12.96003, 57.25569 ], [ 12.95109, 57.23732 ], [ 12.93543, 57.22791 ], [ 12.92802, 57.22861 ], [ 12.9203, 57.22364 ], [ 12.86991, 57.2142 ], [ 12.77154, 57.2156 ], [ 12.73955, 57.24209 ], [ 12.72889, 57.2579 ], [ 12.7195, 57.25425 ], [ 12.71001, 57.24508 ], [ 12.714, 57.2405 ], [ 12.71337, 57.23357 ], [ 12.70895, 57.22839 ], [ 12.71019, 57.22539 ], [ 12.67378, 57.22987 ], [ 12.66967, 57.2337 ], [ 12.66487, 57.23419 ], [ 12.6439, 57.22585 ], [ 12.63385, 57.21438 ], [ 12.6251, 57.20933 ], [ 12.61415, 57.18453 ], [ 12.6175, 57.1638 ], [ 12.6402, 57.15752 ], [ 12.64016, 57.146 ], [ 12.63154, 57.13651 ], [ 12.59269, 57.10888 ], [ 12.57474, 57.10898 ], [ 12.56858, 57.11571 ], [ 12.55565, 57.11929 ], [ 12.54347, 57.11714 ], [ 12.52642, 57.09738 ], [ 12.50837, 57.08842 ], [ 12.49659, 57.07914 ], [ 12.51305, 57.07101 ], [ 12.52762, 57.04787 ], [ 12.48749, 57.0395 ], [ 12.48679, 57.03249 ], [ 12.4784, 57.02075 ], [ 12.43817, 57.01996 ], [ 12.42882, 57.01655 ], [ 12.41586, 57.01551 ], [ 12.41154, 57.00169 ], [ 12.40458, 57.00292 ], [ 12.39041, 56.99928 ], [ 12.38196, 56.99308 ], [ 12.38614, 56.98731 ] ] ], [ [ [ 12.7145, 57.2548 ], [ 12.7149, 57.25301 ], [ 12.71492, 57.25298 ], [ 12.7145, 57.2548 ] ] ] ] } }
]
}
