{
"type": "FeatureCollection",
"xy_coordinate_resolution": 1e-05,
"features": [
{ "type": "Feature", "properties": { "namn": "Varberg Norra", "operator": "Solgrid", "effekt_mw": 4.8, "yta_ha": 8.7, "osm_typ": "plant", "osm_id": "w1065109985", "kommun": "Varberg", "i_halland": true }, "geometry": { "type": "Point", "coordinates": [ 12.29079, 57.15888 ] } },
{ "type": "Feature", "properties": { "namn": "Frillesås solpark", "operator": "Frillesås solpark AB", "effekt_mw": 1.2, "yta_ha": 2.0, "osm_typ": "plant", "osm_id": "w1089841661", "kommun": "Kungsbacka", "i_halland": true }, "geometry": { "type": "Point", "coordinates": [ 12.20349, 57.32885 ] } },
{ "type": "Feature", "properties": { "namn": "Susegårdens Solpark", "operator": "E.ON", "effekt_mw": 1.5, "yta_ha": 2.5, "osm_typ": "plant", "osm_id": "w1091500024", "kommun": "Halmstad", "i_halland": true }, "geometry": { "type": "Point", "coordinates": [ 12.80254, 56.80203 ] } },
{ "type": "Feature", "properties": { "namn": "Solsidan", "operator": "Varberg Energi;Coop Varberg", "effekt_mw": 2.7, "yta_ha": 5.4, "osm_typ": "plant", "osm_id": "w1094636064", "kommun": "Varberg", "i_halland": true }, "geometry": { "type": "Point", "coordinates": [ 12.3832, 57.03268 ] } },
{ "type": "Feature", "properties": { "namn": "Solcellspark (namn saknas i OSM)", "operator": null, "effekt_mw": null, "yta_ha": 1.3, "osm_typ": "plant", "osm_id": "w1316372104", "kommun": "Halmstad", "i_halland": true }, "geometry": { "type": "Point", "coordinates": [ 12.93817, 56.68905 ] } },
{ "type": "Feature", "properties": { "namn": "Solcellspark (namn saknas i OSM)", "operator": null, "effekt_mw": null, "yta_ha": 6.4, "osm_typ": "plant", "osm_id": "w1347832569", "kommun": "Halmstad", "i_halland": true }, "geometry": { "type": "Point", "coordinates": [ 12.88464, 56.71013 ] } },
{ "type": "Feature", "properties": { "namn": "Solcellspark (namn saknas i OSM)", "operator": null, "effekt_mw": null, "yta_ha": 6.5, "osm_typ": "plant", "osm_id": "w1347832570", "kommun": "Halmstad", "i_halland": true }, "geometry": { "type": "Point", "coordinates": [ 12.89198, 56.70902 ] } },
{ "type": "Feature", "properties": { "namn": "Henja solpark", "operator": "Sunna Group", "effekt_mw": 15.5, "yta_ha": 25.4, "osm_typ": "plant", "osm_id": "w1373421352", "kommun": "Gislaved", "i_halland": false }, "geometry": { "type": "Point", "coordinates": [ 13.55703, 57.27808 ] } },
{ "type": "Feature", "properties": { "namn": "Solcellspark (namn saknas i OSM)", "operator": null, "effekt_mw": null, "yta_ha": 1.4, "osm_typ": "plant", "osm_id": "w1481151780", "kommun": "Kungsbacka", "i_halland": true }, "geometry": { "type": "Point", "coordinates": [ 11.99694, 57.49001 ] } },
{ "type": "Feature", "properties": { "namn": "Solcellspark (namn saknas i OSM)", "operator": null, "effekt_mw": null, "yta_ha": 3.7, "osm_typ": "plant", "osm_id": "w1485628331", "kommun": "Varberg", "i_halland": true }, "geometry": { "type": "Point", "coordinates": [ 12.38474, 57.09529 ] } },
{ "type": "Feature", "properties": { "namn": "Nya Solevi", "operator": "Göteborg Energi AB", "effekt_mw": 5.5, "yta_ha": 9.8, "osm_typ": "plant", "osm_id": "r14067541", "kommun": "Göteborg", "i_halland": false }, "geometry": { "type": "Point", "coordinates": [ 11.86978, 57.78535 ] } },
{ "type": "Feature", "properties": { "namn": "Forsby solpark", "operator": "Kraftringen", "effekt_mw": 3.0, "yta_ha": 2.9, "osm_typ": "plant", "osm_id": "w1099996050", "kommun": "Klippan", "i_halland": false }, "geometry": { "type": "Point", "coordinates": [ 13.15048, 56.10769 ] } },
{ "type": "Feature", "properties": { "namn": "Öringe solpark", "operator": "Soltech Energy Solutions", "effekt_mw": null, "yta_ha": 8.7, "osm_typ": "generator", "osm_id": "w619410038", "kommun": "Halmstad", "i_halland": true }, "geometry": { "type": "Point", "coordinates": [ 12.71427, 56.81855 ] } },
{ "type": "Feature", "properties": { "namn": "Solcellspark (namn saknas i OSM)", "operator": null, "effekt_mw": null, "yta_ha": 1.7, "osm_typ": "generator", "osm_id": "w1347372611", "kommun": "Falkenberg", "i_halland": true }, "geometry": { "type": "Point", "coordinates": [ 12.55794, 56.9411 ] } },
{ "type": "Feature", "properties": { "namn": "Solcellspark (namn saknas i OSM)", "operator": null, "effekt_mw": null, "yta_ha": 2.5, "osm_typ": "generator", "osm_id": "w1433612280", "kommun": "Kungsbacka", "i_halland": true }, "geometry": { "type": "Point", "coordinates": [ 11.99729, 57.50173 ] } },
{ "type": "Feature", "properties": { "namn": "Solcellspark (namn saknas i OSM)", "operator": null, "effekt_mw": null, "yta_ha": 1.0, "osm_typ": "generator", "osm_id": "w1434698182", "kommun": "Kungsbacka", "i_halland": true }, "geometry": { "type": "Point", "coordinates": [ 12.32693, 57.37015 ] } },
{ "type": "Feature", "properties": { "namn": "Solcellspark (namn saknas i OSM)", "operator": null, "effekt_mw": null, "yta_ha": 3.5, "osm_typ": "generator", "osm_id": "r19100198", "kommun": "Partille", "i_halland": false }, "geometry": { "type": "Point", "coordinates": [ 12.13638, 57.72807 ] } }
]
}
