{
"type": "FeatureCollection",
"xy_coordinate_resolution": 1e-05,
"features": [
{ "type": "Feature", "properties": { "namn": "Gislaveds reningsverk", "typ": "Reningsverk", "undertyp": "Reningsverk", "agare": "Gislaveds kommun", "gwh": 1.0, "storleksklass": "<2 GWh", "startar": "1989", "uppgraderar": false, "status": null, "kommun": "Gislaved", "i_halland": false }, "geometry": { "type": "Point", "coordinates": [ 13.54326, 57.2985 ] } },
{ "type": "Feature", "properties": { "namn": "Ljungby reningsverk", "typ": "Reningsverk", "undertyp": "Reningsverk", "agare": "Ljungby kommun", "gwh": 1.7, "storleksklass": "<2 GWh", "startar": "2000", "uppgraderar": false, "status": null, "kommun": "Ljungby", "i_halland": false }, "geometry": { "type": "Point", "coordinates": [ 13.94104, 56.83388 ] } },
{ "type": "Feature", "properties": { "namn": "Perstorp reningsverk", "typ": "Reningsverk", "undertyp": "Reningsverk", "agare": "Perstorp kommun", "gwh": 0.5, "storleksklass": "<2 GWh", "startar": "1952", "uppgraderar": false, "status": null, "kommun": "Perstorp", "i_halland": false }, "geometry": { "type": "Point", "coordinates": [ 13.39499, 56.13797 ] } },
{ "type": "Feature", "properties": { "namn": "Örkelljunga reningsverk", "typ": "Reningsverk", "undertyp": "Reningsverk", "agare": "Örkelljunga kommun", "gwh": 0.6, "storleksklass": "<2 GWh", "startar": "1960", "uppgraderar": false, "status": null, "kommun": "Örkelljunga", "i_halland": false }, "geometry": { "type": "Point", "coordinates": [ 13.27883, 56.28363 ] } },
{ "type": "Feature", "properties": { "namn": "Nyvångsverket, Åstorp", "typ": "Reningsverk", "undertyp": "Reningsverk", "agare": "Åstorps kommun", "gwh": 1.2, "storleksklass": "<2 GWh", "startar": "1962", "uppgraderar": false, "status": null, "kommun": "Åstorp", "i_halland": false }, "geometry": { "type": "Point", "coordinates": [ 12.94591, 56.13426 ] } },
{ "type": "Feature", "properties": { "namn": "Ängelholms reningsverk", "typ": "Reningsverk", "undertyp": "Reningsverk", "agare": "Ängelholms kommun", "gwh": 3.3, "storleksklass": "2–10 GWh", "startar": "1963", "uppgraderar": false, "status": null, "kommun": "Ängelholm", "i_halland": false }, "geometry": { "type": "Point", "coordinates": [ 12.86388, 56.24575 ] } },
{ "type": "Feature", "properties": { "namn": "Klippans reningsverk", "typ": "Reningsverk", "undertyp": "Reningsverk", "agare": "Klippan kommun", "gwh": 1.0, "storleksklass": "<2 GWh", "startar": "1965", "uppgraderar": false, "status": null, "kommun": "Klippan", "i_halland": false }, "geometry": { "type": "Point", "coordinates": [ 13.12904, 56.1349 ] } },
{ "type": "Feature", "properties": { "namn": "Getteröverket, Varberg", "typ": "Reningsverk", "undertyp": "Reningsverk", "agare": "Varbergs kommun", "gwh": 4.5, "storleksklass": "2–10 GWh", "startar": "1961", "uppgraderar": false, "status": null, "kommun": "Varberg", "i_halland": true }, "geometry": { "type": "Point", "coordinates": [ 12.25209, 57.10712 ] } },
{ "type": "Feature", "properties": { "namn": "Västra Strandens reningsverk, Halmstad", "typ": "Reningsverk", "undertyp": "Reningsverk", "agare": "Halmstads kommun", "gwh": 8.9, "storleksklass": "2–10 GWh", "startar": "1962", "uppgraderar": false, "status": null, "kommun": "Halmstad", "i_halland": true }, "geometry": { "type": "Point", "coordinates": [ 12.85779, 56.67437 ] } },
{ "type": "Feature", "properties": { "namn": "Smedjeholms reningsverk, Falkenberg", "typ": "Reningsverk", "undertyp": "Reningsverk", "agare": "FAVRAB", "gwh": 3.9, "storleksklass": "2–10 GWh", "startar": "1994", "uppgraderar": false, "status": null, "kommun": "Falkenberg", "i_halland": true }, "geometry": { "type": "Point", "coordinates": [ 12.4888, 56.90273 ] } },
{ "type": "Feature", "properties": { "namn": "Ängstorps reningsverk, Laholm", "typ": "Reningsverk", "undertyp": "Reningsverk", "agare": "Laholms kommun", "gwh": 2.5, "storleksklass": "2–10 GWh", "startar": "1978", "uppgraderar": false, "status": null, "kommun": "Laholm", "i_halland": true }, "geometry": { "type": "Point", "coordinates": [ 13.0456, 56.50576 ] } },
{ "type": "Feature", "properties": { "namn": "Ryaverket, Göteborg", "typ": "Reningsverk", "undertyp": "Reningsverk", "agare": "Gryaab AB", "gwh": 74.3, "storleksklass": ">50 GWh", "startar": "1990", "uppgraderar": true, "status": null, "kommun": "Göteborg", "i_halland": false }, "geometry": { "type": "Point", "coordinates": [ 11.97456, 57.70887 ] } },
{ "type": "Feature", "properties": { "namn": "Hyllstofta avfallsanläggning", "typ": "Deponi", "undertyp": "Aktiv deponi", "agare": "Nårab", "gwh": 1.2, "storleksklass": "<2 GWh", "startar": "", "uppgraderar": false, "status": null, "kommun": "Klippan", "i_halland": false }, "geometry": { "type": "Point", "coordinates": [ 13.12904, 56.1349 ] } },
{ "type": "Feature", "properties": { "namn": "Tagene deponi", "typ": "Deponi", "undertyp": "Aktiv deponi", "agare": "Renova AB", "gwh": 0.2, "storleksklass": "<2 GWh", "startar": "", "uppgraderar": false, "status": null, "kommun": "Göteborg", "i_halland": false }, "geometry": { "type": "Point", "coordinates": [ 11.97456, 57.70887 ] } },
{ "type": "Feature", "properties": { "namn": "Kalset Biogas", "typ": "Gårdsanläggning", "undertyp": "Gårdsanläggning", "agare": "Hans Samuelsson", "gwh": 0.8, "storleksklass": "<2 GWh", "startar": "2018", "uppgraderar": false, "status": null, "kommun": "Gislaved", "i_halland": false }, "geometry": { "type": "Point", "coordinates": [ 13.51197, 57.3059 ] } },
{ "type": "Feature", "properties": { "namn": "Drömminge Biogas", "typ": "Gårdsanläggning", "undertyp": "Gårdsanläggning", "agare": "Drömminge Erlandsgård", "gwh": 2.1, "storleksklass": "2–10 GWh", "startar": "2024", "uppgraderar": false, "status": null, "kommun": "Värnamo", "i_halland": false }, "geometry": { "type": "Point", "coordinates": [ 13.99697, 57.20824 ] } },
{ "type": "Feature", "properties": { "namn": "Dalhem-Kvidinge Biogas", "typ": "Gårdsanläggning", "undertyp": "Gårdsanläggning", "agare": "Br Göransson AB", "gwh": 1.1, "storleksklass": "<2 GWh", "startar": "2011", "uppgraderar": false, "status": null, "kommun": "Åstorp", "i_halland": false }, "geometry": { "type": "Point", "coordinates": [ 12.97356, 56.11663 ] } },
{ "type": "Feature", "properties": { "namn": "Bjäragårdens Biogas", "typ": "Gårdsanläggning", "undertyp": "Gårdsanläggning", "agare": "Bjäragården i Västra Karup AB", "gwh": 0.6, "storleksklass": "<2 GWh", "startar": "2024", "uppgraderar": false, "status": null, "kommun": "Båstad", "i_halland": false }, "geometry": { "type": "Point", "coordinates": [ 12.80685, 56.42867 ] } },
{ "type": "Feature", "properties": { "namn": "Rubingårdens Biogas", "typ": "Gårdsanläggning", "undertyp": "Gårdsanläggning", "agare": "Göran Kulneff", "gwh": 0.6, "storleksklass": "<2 GWh", "startar": "2024", "uppgraderar": false, "status": null, "kommun": "Båstad", "i_halland": false }, "geometry": { "type": "Point", "coordinates": [ 12.86178, 56.4112 ] } },
{ "type": "Feature", "properties": { "namn": "Högryds Biogas", "typ": "Gårdsanläggning", "undertyp": "Gårdsanläggning", "agare": "Gert Jöransson", "gwh": 4.2, "storleksklass": "2–10 GWh", "startar": "2010", "uppgraderar": false, "status": null, "kommun": "Varberg", "i_halland": true }, "geometry": { "type": "Point", "coordinates": [ 12.28444, 57.14582 ] } },
{ "type": "Feature", "properties": { "namn": "Nya Skottorp Biogas", "typ": "Gårdsanläggning", "undertyp": "Gårdsanläggning", "agare": "Peter Kjaer Knudsen", "gwh": 0.9, "storleksklass": "<2 GWh", "startar": "2010", "uppgraderar": false, "status": null, "kommun": "Laholm", "i_halland": true }, "geometry": { "type": "Point", "coordinates": [ 13.27236, 56.44807 ] } },
{ "type": "Feature", "properties": { "namn": "Hede Biogas", "typ": "Gårdsanläggning", "undertyp": "Gårdsanläggning", "agare": "Tolverssons Lantbruk AB", "gwh": 1.1, "storleksklass": "<2 GWh", "startar": "2011", "uppgraderar": false, "status": null, "kommun": "Falkenberg", "i_halland": true }, "geometry": { "type": "Point", "coordinates": [ 12.44067, 56.94261 ] } },
{ "type": "Feature", "properties": { "namn": "Skottorps Säteri Biogas", "typ": "Gårdsanläggning", "undertyp": "Gårdsanläggning", "agare": "Skottorps Säteri AB", "gwh": 1.5, "storleksklass": "<2 GWh", "startar": "2011", "uppgraderar": false, "status": null, "kommun": "Laholm", "i_halland": true }, "geometry": { "type": "Point", "coordinates": [ 13.23734, 56.57613 ] } },
{ "type": "Feature", "properties": { "namn": "Kvarngården Biogas", "typ": "Gårdsanläggning", "undertyp": "Gårdsanläggning", "agare": "Lars Paulson", "gwh": 18.6, "storleksklass": "10–50 GWh", "startar": "2012", "uppgraderar": true, "status": null, "kommun": "Falkenberg", "i_halland": true }, "geometry": { "type": "Point", "coordinates": [ 12.57937, 56.87673 ] } },
{ "type": "Feature", "properties": { "namn": "Wapnö Biogas", "typ": "Gårdsanläggning", "undertyp": "Gårdsanläggning", "agare": "Wapnö AB", "gwh": 8.4, "storleksklass": "2–10 GWh", "startar": "2012", "uppgraderar": false, "status": null, "kommun": "Halmstad", "i_halland": true }, "geometry": { "type": "Point", "coordinates": [ 12.76143, 56.71046 ] } },
{ "type": "Feature", "properties": { "namn": "Berte Biogas", "typ": "Gårdsanläggning", "undertyp": "Gårdsanläggning", "agare": "Berte Gård AB", "gwh": 1.0, "storleksklass": "<2 GWh", "startar": "2016", "uppgraderar": false, "status": null, "kommun": "Falkenberg", "i_halland": true }, "geometry": { "type": "Point", "coordinates": [ 12.55053, 56.85796 ] } },
{ "type": "Feature", "properties": { "namn": "Våxtorp Biogas", "typ": "Gårdsanläggning", "undertyp": "Gårdsanläggning", "agare": "Våxtorp Lantbruk AB", "gwh": 2.1, "storleksklass": "2–10 GWh", "startar": "2022", "uppgraderar": false, "status": null, "kommun": "Laholm", "i_halland": true }, "geometry": { "type": "Point", "coordinates": [ 13.06019, 56.38464 ] } },
{ "type": "Feature", "properties": { "namn": "Häljered Biogas", "typ": "Gårdsanläggning", "undertyp": "Gårdsanläggning", "agare": "Göteborgs kommun/Elsa Ogalde", "gwh": 0.3, "storleksklass": "<2 GWh", "startar": "2017", "uppgraderar": false, "status": null, "kommun": "Göteborg", "i_halland": false }, "geometry": { "type": "Point", "coordinates": [ 12.14567, 57.85333 ] } },
{ "type": "Feature", "properties": { "namn": "Revesjö stom Biogas", "typ": "Gårdsanläggning", "undertyp": "Gårdsanläggning", "agare": "Revesjö Gård", "gwh": 0.1, "storleksklass": "<2 GWh", "startar": "2024", "uppgraderar": false, "status": null, "kommun": "Svenljunga", "i_halland": false }, "geometry": { "type": "Point", "coordinates": [ 13.07984, 57.49095 ] } },
{ "type": "Feature", "properties": { "namn": "Carlsbergs Anaerobianläggning", "typ": "Industri", "undertyp": "Industri", "agare": "Favrab", "gwh": 6.0, "storleksklass": "2–10 GWh", "startar": "2005", "uppgraderar": false, "status": null, "kommun": "Falkenberg", "i_halland": true }, "geometry": { "type": "Point", "coordinates": [ 12.53475, 56.90048 ] } },
{ "type": "Feature", "properties": { "namn": "Söderåsens biogasanläggning", "typ": "Samrötning", "undertyp": "Samrötning", "agare": "St1 Biokraft AB", "gwh": 24.1, "storleksklass": "10–50 GWh", "startar": "2006", "uppgraderar": true, "status": null, "kommun": "Bjuv", "i_halland": false }, "geometry": { "type": "Point", "coordinates": [ 12.96923, 56.10334 ] } },
{ "type": "Feature", "properties": { "namn": "St1 Biokraft Laholm", "typ": "Samrötning", "undertyp": "Samrötning", "agare": "St1 Biokraft AB", "gwh": 30.0, "storleksklass": "10–50 GWh", "startar": "1992, 2003", "uppgraderar": true, "status": null, "kommun": "Laholm", "i_halland": true }, "geometry": { "type": "Point", "coordinates": [ 13.06696, 56.48717 ] } },
{ "type": "Feature", "properties": { "namn": "Biogasanläggningen i Falkenberg", "typ": "Samrötning", "undertyp": "Samrötning", "agare": "St1 Biokraft AB", "gwh": 34.8, "storleksklass": "10–50 GWh", "startar": "2008", "uppgraderar": true, "status": null, "kommun": "Falkenberg", "i_halland": true }, "geometry": { "type": "Point", "coordinates": [ 12.61282, 56.90893 ] } },
{ "type": "Feature", "properties": { "namn": "Bjuv", "typ": "Uppgradering eller förvätskning", "undertyp": "Uppgradering", "agare": "St1 Biokraft AB", "gwh": 21.4, "storleksklass": "10–50 GWh", "startar": "2007", "uppgraderar": false, "status": null, "kommun": "Bjuv", "i_halland": false }, "geometry": { "type": "Point", "coordinates": [ 12.96923, 56.10334 ] } },
{ "type": "Feature", "properties": { "namn": "Falkenbergs biogas AB", "typ": "Uppgradering eller förvätskning", "undertyp": "Uppgradering", "agare": "Falkenbergs biogas AB", "gwh": 34.5, "storleksklass": "10–50 GWh", "startar": "2009", "uppgraderar": false, "status": null, "kommun": "Falkenberg", "i_halland": true }, "geometry": { "type": "Point", "coordinates": [ 12.61282, 56.90893 ] } },
{ "type": "Feature", "properties": { "namn": "Vessige Biogas", "typ": "Uppgradering eller förvätskning", "undertyp": "Uppgradering", "agare": "Vessinge Biogas Ek.för", "gwh": 15.9, "storleksklass": "10–50 GWh", "startar": "2021", "uppgraderar": false, "status": null, "kommun": "Falkenberg", "i_halland": true }, "geometry": { "type": "Point", "coordinates": [ 12.49225, 56.98125 ] } },
{ "type": "Feature", "properties": { "namn": "Göteborg Gasendal/Arendal", "typ": "Uppgradering eller förvätskning", "undertyp": "Uppgradering", "agare": "Göteborg Energi AB", "gwh": 68.8, "storleksklass": ">50 GWh", "startar": "2007", "uppgraderar": false, "status": null, "kommun": "Göteborg", "i_halland": false }, "geometry": { "type": "Point", "coordinates": [ 11.84291, 57.69748 ] } },
{ "type": "Feature", "properties": { "namn": "Laholm", "typ": "Uppgradering eller förvätskning", "undertyp": "Uppgradering", "agare": "St1 Biokraft AB", "gwh": 21.6, "storleksklass": "10–50 GWh", "startar": "2007", "uppgraderar": false, "status": null, "kommun": "Laholm", "i_halland": true }, "geometry": { "type": "Point", "coordinates": [ 13.06696, 56.48717 ] } },
{ "type": "Feature", "properties": { "namn": "St1 Biokraft Perstorp", "typ": "CBG (till gasnät)", "undertyp": "CBG (till gasnät)", "agare": null, "gwh": 130.0, "storleksklass": ">50 GWh", "startar": "slutet av 2027", "uppgraderar": false, "status": "Planerad", "kommun": "Perstorp", "i_halland": false }, "geometry": { "type": "Point", "coordinates": [ 13.39499, 56.13797 ] } },
{ "type": "Feature", "properties": { "namn": "St1 Biokraft Skånes Fagerhult", "typ": "CBG (till gasnät)", "undertyp": "CBG (till gasnät)", "agare": null, "gwh": 130.0, "storleksklass": ">50 GWh", "startar": "slutet av 2027", "uppgraderar": false, "status": "Planerad", "kommun": "Örkelljunga", "i_halland": false }, "geometry": { "type": "Point", "coordinates": [ 13.46544, 56.37157 ] } },
{ "type": "Feature", "properties": { "namn": "Nordion Energi förvätskningsanläggning i Göteborg", "typ": "Förvätskning (av biogas från nätet)", "undertyp": "Förvätskning (av biogas från nätet)", "agare": null, "gwh": 250.0, "storleksklass": ">50 GWh", "startar": "våren 2027", "uppgraderar": false, "status": "Investeringsbeslut taget", "kommun": "Göteborg", "i_halland": false }, "geometry": { "type": "Point", "coordinates": [ 11.97456, 57.70887 ] } },
{ "type": "Feature", "properties": { "namn": "Västbo Biogas AB", "typ": "CBG (till gasnät och tankställe)", "undertyp": "CBG (till gasnät och tankställe)", "agare": null, "gwh": 50.0, "storleksklass": ">50 GWh", "startar": "2028", "uppgraderar": false, "status": "Planerad", "kommun": "Gislaved", "i_halland": false }, "geometry": { "type": "Point", "coordinates": [ 13.59867, 57.17306 ] } }
]
}
