{
"type": "FeatureCollection",
"xy_coordinate_resolution": 1e-05,
"features": [
{ "type": "Feature", "properties": { "namn": "Gräns elområde 3/4", "km_i_halland": 92.1 }, "geometry": { "type": "LineString", "coordinates": [ [ 14.48687, 57.30503 ], [ 14.47069, 57.30569 ], [ 14.44652, 57.31519 ], [ 14.43489, 57.31216 ], [ 14.41482, 57.31616 ], [ 14.41328, 57.32405 ], [ 14.3919, 57.32942 ], [ 14.36124, 57.37016 ], [ 14.32543, 57.36425 ], [ 14.29438, 57.37475 ], [ 14.23037, 57.38468 ], [ 14.22609, 57.37984 ], [ 14.22415, 57.36291 ], [ 14.21606, 57.33516 ], [ 14.18366, 57.33756 ], [ 14.1824, 57.33724 ], [ 14.16891, 57.33891 ], [ 14.16629, 57.3436 ], [ 14.10831, 57.34224 ], [ 14.10756, 57.33541 ], [ 14.10942, 57.3343 ], [ 14.10953, 57.33191 ], [ 14.10883, 57.32954 ], [ 14.10918, 57.32887 ], [ 14.10666, 57.3271 ], [ 14.10605, 57.32156 ], [ 14.10552, 57.32178 ], [ 14.10549, 57.32308 ], [ 14.10468, 57.32275 ], [ 14.10431, 57.32207 ], [ 14.10323, 57.32209 ], [ 14.10288, 57.32133 ], [ 14.10215, 57.32122 ], [ 14.09992, 57.32164 ], [ 14.06494, 57.32414 ], [ 14.04515, 57.32415 ], [ 14.04569, 57.32063 ], [ 14.04407, 57.30837 ], [ 14.04523, 57.29746 ], [ 14.02923, 57.28539 ], [ 14.00862, 57.29738 ], [ 14.00176, 57.30586 ], [ 14.00077, 57.30962 ], [ 14.00626, 57.31536 ], [ 14.00773, 57.31573 ], [ 14.01388, 57.3196 ], [ 14.01582, 57.3204 ], [ 14.01228, 57.32635 ], [ 14.01027, 57.32739 ], [ 14.01594, 57.34537 ], [ 14.00861, 57.35364 ], [ 14.00817, 57.3539 ], [ 14.0068, 57.35386 ], [ 14.00709, 57.35448 ], [ 14.00626, 57.35448 ], [ 14.00576, 57.35497 ], [ 14.00504, 57.355 ], [ 14.00553, 57.35576 ], [ 14.00446, 57.35573 ], [ 14.00387, 57.35522 ], [ 14.00318, 57.35547 ], [ 14.00275, 57.35518 ], [ 14.0006, 57.35615 ], [ 14.00015, 57.35551 ], [ 13.99852, 57.35564 ], [ 13.98871, 57.3599 ], [ 13.98984, 57.35997 ], [ 13.98799, 57.36303 ], [ 13.98906, 57.36416 ], [ 13.98834, 57.36738 ], [ 13.98492, 57.36944 ], [ 13.96692, 57.37228 ], [ 13.95113, 57.37081 ], [ 13.94852, 57.37197 ], [ 13.94599, 57.37256 ], [ 13.94202, 57.36948 ], [ 13.94013, 57.37015 ], [ 13.93879, 57.37094 ], [ 13.93767, 57.37242 ], [ 13.93537, 57.3732 ], [ 13.93485, 57.37446 ], [ 13.93219, 57.37555 ], [ 13.93127, 57.37658 ], [ 13.93038, 57.37652 ], [ 13.93057, 57.37696 ], [ 13.92993, 57.3773 ], [ 13.92898, 57.37741 ], [ 13.92955, 57.37777 ], [ 13.92944, 57.37859 ], [ 13.92839, 57.37994 ], [ 13.92717, 57.38054 ], [ 13.92365, 57.38135 ], [ 13.92357, 57.38203 ], [ 13.9051, 57.40512 ], [ 13.9009, 57.40797 ], [ 13.894, 57.40825 ], [ 13.89358, 57.40863 ], [ 13.89149, 57.40857 ], [ 13.89033, 57.40976 ], [ 13.88798, 57.41038 ], [ 13.88858, 57.41155 ], [ 13.88983, 57.41205 ], [ 13.88938, 57.41233 ], [ 13.8897, 57.41311 ], [ 13.89079, 57.41359 ], [ 13.89204, 57.41493 ], [ 13.89199, 57.41557 ], [ 13.89302, 57.41675 ], [ 13.89264, 57.41734 ], [ 13.89306, 57.41808 ], [ 13.8987, 57.42596 ], [ 13.90014, 57.43017 ], [ 13.90413, 57.4343 ], [ 13.90325, 57.43728 ], [ 13.90117, 57.44039 ], [ 13.89946, 57.4415 ], [ 13.8969, 57.44479 ], [ 13.8885, 57.46548 ], [ 13.88611, 57.46696 ], [ 13.88337, 57.46975 ], [ 13.8817, 57.46976 ], [ 13.87512, 57.47128 ], [ 13.90157, 57.48786 ], [ 13.89959, 57.48996 ], [ 13.89945, 57.49243 ], [ 13.899, 57.49296 ], [ 13.89479, 57.49709 ], [ 13.89066, 57.49897 ], [ 13.89128, 57.51008 ], [ 13.8867, 57.55621 ], [ 13.82043, 57.56855 ], [ 13.8024, 57.59121 ], [ 13.7657, 57.57107 ], [ 13.75281, 57.56965 ], [ 13.75092, 57.56752 ], [ 13.74518, 57.56896 ], [ 13.74035, 57.56851 ], [ 13.73465, 57.56968 ], [ 13.73045, 57.56997 ], [ 13.72455, 57.56517 ], [ 13.72275, 57.56288 ], [ 13.72195, 57.56053 ], [ 13.70901, 57.55996 ], [ 13.70374, 57.5588 ], [ 13.69166, 57.55865 ], [ 13.68563, 57.55444 ], [ 13.67087, 57.54103 ], [ 13.67152, 57.53853 ], [ 13.66034, 57.5329 ], [ 13.65771, 57.53106 ], [ 13.65211, 57.52941 ], [ 13.6498, 57.52694 ], [ 13.6444, 57.52462 ], [ 13.63957, 57.52443 ], [ 13.63502, 57.52371 ], [ 13.62667, 57.52042 ], [ 13.62185, 57.51575 ], [ 13.58686, 57.51811 ], [ 13.57272, 57.51637 ], [ 13.56935, 57.51353 ], [ 13.5642, 57.51213 ], [ 13.55812, 57.51184 ], [ 13.55588, 57.51488 ], [ 13.5532, 57.5173 ], [ 13.50983, 57.51875 ], [ 13.45292, 57.52185 ], [ 13.4529, 57.51769 ], [ 13.46205, 57.51307 ], [ 13.46299, 57.5105 ], [ 13.46946, 57.50652 ], [ 13.46831, 57.50404 ], [ 13.46774, 57.50091 ], [ 13.46506, 57.50086 ], [ 13.46467, 57.49903 ], [ 13.43243, 57.49964 ], [ 13.39262, 57.47711 ], [ 13.39177, 57.47573 ], [ 13.39077, 57.4751 ], [ 13.38822, 57.47456 ], [ 13.3881, 57.47352 ], [ 13.387, 57.47299 ], [ 13.38665, 57.47212 ], [ 13.38504, 57.47071 ], [ 13.38006, 57.47043 ], [ 13.37778, 57.45833 ], [ 13.36022, 57.45464 ], [ 13.35958, 57.45397 ], [ 13.35976, 57.45296 ], [ 13.35867, 57.45189 ], [ 13.35559, 57.45206 ], [ 13.34834, 57.44809 ], [ 13.34694, 57.44798 ], [ 13.34606, 57.4483 ], [ 13.34521, 57.44772 ], [ 13.34395, 57.44779 ], [ 13.34293, 57.44737 ], [ 13.34062, 57.4477 ], [ 13.33931, 57.44747 ], [ 13.33704, 57.44828 ], [ 13.33667, 57.44773 ], [ 13.33532, 57.44744 ], [ 13.33347, 57.44602 ], [ 13.32954, 57.44577 ], [ 13.3289, 57.44551 ], [ 13.32736, 57.4457 ], [ 13.32361, 57.44447 ], [ 13.3205, 57.44253 ], [ 13.31145, 57.44031 ], [ 13.32433, 57.42915 ], [ 13.34175, 57.41304 ], [ 13.35335, 57.40412 ], [ 13.36773, 57.3965 ], [ 13.35881, 57.38658 ], [ 13.35788, 57.38369 ], [ 13.35789, 57.37929 ], [ 13.36419, 57.37757 ], [ 13.36344, 57.37316 ], [ 13.36663, 57.37089 ], [ 13.37818, 57.36898 ], [ 13.3795, 57.37024 ], [ 13.38097, 57.37034 ], [ 13.38255, 57.37103 ], [ 13.3841, 57.37121 ], [ 13.38641, 57.37097 ], [ 13.38745, 57.3716 ], [ 13.39543, 57.37191 ], [ 13.39831, 57.37328 ], [ 13.4051, 57.37757 ], [ 13.4073, 57.3776 ], [ 13.40782, 57.37793 ], [ 13.4127, 57.37794 ], [ 13.41799, 57.37648 ], [ 13.42722, 57.37066 ], [ 13.43273, 57.36819 ], [ 13.43954, 57.36985 ], [ 13.4433, 57.37123 ], [ 13.44424, 57.37225 ], [ 13.48919, 57.39565 ], [ 13.51252, 57.39763 ], [ 13.51642, 57.39588 ], [ 13.52074, 57.39651 ], [ 13.5242, 57.39455 ], [ 13.55331, 57.40233 ], [ 13.60357, 57.40285 ], [ 13.60271, 57.40143 ], [ 13.60418, 57.40063 ], [ 13.60364, 57.39936 ], [ 13.60615, 57.39919 ], [ 13.60533, 57.39698 ], [ 13.60358, 57.39573 ], [ 13.60269, 57.39571 ], [ 13.60251, 57.39497 ], [ 13.60172, 57.3944 ], [ 13.60214, 57.39341 ], [ 13.59926, 57.3813 ], [ 13.59721, 57.37964 ], [ 13.59058, 57.34378 ], [ 13.59858, 57.30924 ], [ 13.59846, 57.30468 ], [ 13.60101, 57.29636 ], [ 13.60638, 57.28896 ], [ 13.60065, 57.28341 ], [ 13.59405, 57.28623 ], [ 13.56052, 57.26708 ], [ 13.50941, 57.26642 ], [ 13.50129, 57.27187 ], [ 13.50576, 57.27762 ], [ 13.50581, 57.28244 ], [ 13.50625, 57.28369 ], [ 13.50873, 57.28514 ], [ 13.50777, 57.29013 ], [ 13.5087, 57.29159 ], [ 13.50764, 57.29269 ], [ 13.50473, 57.29298 ], [ 13.5047, 57.29486 ], [ 13.503, 57.29555 ], [ 13.50124, 57.29745 ], [ 13.4971, 57.2989 ], [ 13.49517, 57.30038 ], [ 13.48876, 57.30211 ], [ 13.48711, 57.3031 ], [ 13.48812, 57.30576 ], [ 13.48681, 57.30707 ], [ 13.48924, 57.30985 ], [ 13.49026, 57.31034 ], [ 13.48986, 57.31189 ], [ 13.46744, 57.31348 ], [ 13.44771, 57.31844 ], [ 13.43856, 57.31853 ], [ 13.42642, 57.31482 ], [ 13.39084, 57.31885 ], [ 13.38892, 57.31847 ], [ 13.38569, 57.317 ], [ 13.38318, 57.31692 ], [ 13.37309, 57.32026 ], [ 13.37176, 57.32014 ], [ 13.36877, 57.32159 ], [ 13.36379, 57.323 ], [ 13.35149, 57.32118 ], [ 13.34881, 57.31935 ], [ 13.34849, 57.31873 ], [ 13.34692, 57.3181 ], [ 13.34324, 57.31839 ], [ 13.34024, 57.31766 ], [ 13.33843, 57.31761 ], [ 13.33742, 57.31681 ], [ 13.33577, 57.31642 ], [ 13.33491, 57.31652 ], [ 13.33423, 57.31589 ], [ 13.33348, 57.31577 ], [ 13.33284, 57.3159 ], [ 13.3335, 57.31643 ], [ 13.33166, 57.31665 ], [ 13.32831, 57.31632 ], [ 13.32754, 57.31591 ], [ 13.32586, 57.31601 ], [ 13.32479, 57.31558 ], [ 13.32074, 57.31521 ], [ 13.31964, 57.3145 ], [ 13.31259, 57.31378 ], [ 13.31006, 57.31279 ], [ 13.3057, 57.31194 ], [ 13.30518, 57.31218 ], [ 13.30318, 57.31173 ], [ 13.30228, 57.31208 ], [ 13.30192, 57.31178 ], [ 13.30008, 57.3117 ], [ 13.29934, 57.31108 ], [ 13.29287, 57.31022 ], [ 13.28963, 57.30907 ], [ 13.28495, 57.3083 ], [ 13.28213, 57.30745 ], [ 13.2872, 57.30168 ], [ 13.28607, 57.29972 ], [ 13.28852, 57.29716 ], [ 13.28757, 57.29544 ], [ 13.28546, 57.29491 ], [ 13.28463, 57.29396 ], [ 13.28338, 57.29406 ], [ 13.28268, 57.29449 ], [ 13.28064, 57.29456 ], [ 13.27757, 57.29123 ], [ 13.27746, 57.28897 ], [ 13.25446, 57.28833 ], [ 13.24454, 57.28855 ], [ 13.21628, 57.29629 ], [ 13.20272, 57.29565 ], [ 13.18741, 57.29837 ], [ 13.17492, 57.30739 ], [ 13.16176, 57.32985 ], [ 13.15888, 57.34227 ], [ 13.16133, 57.36161 ], [ 13.15122, 57.36759 ], [ 13.07129, 57.38442 ], [ 13.07069, 57.38432 ], [ 13.07039, 57.38468 ], [ 13.06665, 57.38543 ], [ 13.06646, 57.38581 ], [ 13.06733, 57.38663 ], [ 13.06715, 57.38747 ], [ 13.06772, 57.38783 ], [ 13.06742, 57.38835 ], [ 13.06648, 57.38887 ], [ 13.06613, 57.38875 ], [ 13.06639, 57.38907 ], [ 13.06588, 57.38915 ], [ 13.06576, 57.38964 ], [ 13.0627, 57.39046 ], [ 13.05933, 57.39197 ], [ 13.05649, 57.39252 ], [ 13.05488, 57.39237 ], [ 13.0529, 57.39288 ], [ 13.05082, 57.3916 ], [ 13.04638, 57.39185 ], [ 13.04189, 57.39124 ], [ 13.03671, 57.38929 ], [ 13.03462, 57.38721 ], [ 13.03061, 57.38523 ], [ 13.03002, 57.38447 ], [ 13.02819, 57.38358 ], [ 13.02633, 57.38102 ], [ 13.02148, 57.37989 ], [ 13.01642, 57.37791 ], [ 13.01404, 57.3786 ], [ 13.01054, 57.3781 ], [ 13.01792, 57.37204 ], [ 13.00251, 57.36613 ], [ 13.0039, 57.35908 ], [ 13.01555, 57.35331 ], [ 13.00595, 57.34252 ], [ 12.99276, 57.33041 ], [ 12.99127, 57.31573 ], [ 12.9882, 57.30336 ], [ 12.98479, 57.30183 ], [ 12.98473, 57.30141 ], [ 12.97213, 57.29575 ], [ 12.97181, 57.29282 ], [ 12.97009, 57.29203 ], [ 12.96701, 57.29203 ], [ 12.96553, 57.29174 ], [ 12.96386, 57.29189 ], [ 12.96252, 57.29128 ], [ 12.96144, 57.29143 ], [ 12.96028, 57.29092 ], [ 12.95273, 57.28045 ], [ 12.95181, 57.27878 ], [ 12.96023, 57.25844 ], [ 12.9532, 57.24465 ], [ 12.9537, 57.24346 ], [ 12.95296, 57.24263 ], [ 12.95416, 57.2412 ], [ 12.95238, 57.23914 ], [ 12.94978, 57.23744 ], [ 12.94589, 57.23597 ], [ 12.93906, 57.23141 ], [ 12.935, 57.2275 ], [ 12.92725, 57.22811 ], [ 12.92348, 57.22635 ], [ 12.92115, 57.22401 ], [ 12.8667, 57.21515 ], [ 12.83962, 57.212 ], [ 12.76861, 57.21473 ], [ 12.76421, 57.2173 ], [ 12.7618, 57.21951 ], [ 12.7524, 57.23146 ], [ 12.75102, 57.23261 ], [ 12.74191, 57.23705 ], [ 12.7356, 57.24168 ], [ 12.73354, 57.24522 ], [ 12.73105, 57.25779 ], [ 12.73083, 57.25823 ], [ 12.72728, 57.25839 ], [ 12.72576, 57.2577 ], [ 12.72326, 57.25573 ], [ 12.72155, 57.25529 ], [ 12.7195, 57.25425 ], [ 12.7185, 57.25296 ], [ 12.7162, 57.25184 ], [ 12.71643, 57.25124 ], [ 12.7102, 57.24763 ], [ 12.71019, 57.24381 ], [ 12.7117, 57.24311 ], [ 12.7133, 57.24181 ], [ 12.714, 57.2405 ], [ 12.71312, 57.23795 ], [ 12.71337, 57.23357 ], [ 12.71015, 57.23134 ], [ 12.71014, 57.2293 ], [ 12.70895, 57.22839 ], [ 12.71013, 57.2272 ], [ 12.71013, 57.2264 ], [ 12.70818, 57.22662 ], [ 12.70994, 57.22475 ], [ 12.6725, 57.22891 ], [ 12.67144, 57.22961 ], [ 12.67048, 57.22967 ], [ 12.66978, 57.23007 ], [ 12.66955, 57.23073 ], [ 12.66786, 57.23205 ], [ 12.66756, 57.23325 ], [ 12.6631, 57.23434 ], [ 12.64398, 57.22672 ], [ 12.64287, 57.22585 ], [ 12.6391, 57.22087 ], [ 12.63378, 57.21768 ], [ 12.63385, 57.21438 ], [ 12.62836, 57.21275 ], [ 12.62451, 57.21013 ], [ 12.62383, 57.20856 ], [ 12.62387, 57.20526 ], [ 12.62137, 57.20297 ], [ 12.61453, 57.18739 ], [ 12.61472, 57.18595 ], [ 12.61415, 57.18453 ], [ 12.61559, 57.17918 ], [ 12.61729, 57.16595 ], [ 12.61933, 57.16535 ], [ 12.61955, 57.16451 ], [ 12.63918, 57.15902 ], [ 12.63871, 57.15793 ], [ 12.6402, 57.15752 ], [ 12.64016, 57.146 ], [ 12.63068, 57.13694 ], [ 12.59139, 57.1094 ], [ 12.57397, 57.10814 ], [ 12.5722, 57.11101 ], [ 12.5664, 57.1161 ], [ 12.55289, 57.12028 ], [ 12.54267, 57.11692 ], [ 12.5317, 57.10498 ], [ 12.52579, 57.09709 ], [ 12.52461, 57.0974 ], [ 12.52401, 57.0972 ], [ 12.52063, 57.09517 ], [ 12.51815, 57.0942 ], [ 12.51342, 57.09095 ], [ 12.50837, 57.08842 ], [ 12.50491, 57.08569 ], [ 12.49808, 57.08158 ], [ 12.499, 57.08104 ], [ 12.49659, 57.07914 ], [ 12.5139, 57.07067 ], [ 12.52787, 57.04821 ], [ 12.48679, 57.04022 ], [ 12.48642, 57.03943 ], [ 12.48679, 57.03249 ], [ 12.47726, 57.02107 ], [ 12.43856, 57.01977 ], [ 12.42855, 57.01646 ], [ 12.41537, 57.01542 ], [ 12.41333, 57.00273 ], [ 12.41115, 57.00146 ], [ 12.40484, 57.00285 ], [ 12.38992, 56.99901 ], [ 12.38206, 56.99298 ], [ 12.38075, 56.99253 ], [ 12.38638, 56.98707 ], [ 12.38165, 56.98518 ], [ 12.37579, 56.98617 ], [ 12.36954, 56.98575 ], [ 12.36938, 56.9886 ], [ 12.35079, 56.98879 ], [ 12.26065, 56.98647 ], [ 12.25699, 56.99083 ], [ 11.86387, 56.86735 ], [ 11.86116, 56.8712 ] ] } }
]
}
