{
"type": "FeatureCollection",
"xy_coordinate_resolution": 1e-05,
"features": [
{ "type": "Feature", "properties": { "osm_id": "n10942950813", "namn": null, "niva": "Okänd spänning", "spanning_kv": null, "spanningar": null, "typ": "Distribution", "operator": null, "yta_m2": null, "kommun": "Göteborg", "i_halland": false, "svk_station": false }, "geometry": { "type": "Point", "coordinates": [ 11.96414, 57.69125 ] } },
{ "type": "Feature", "properties": { "osm_id": "w25003309", "namn": null, "niva": "Regionnät 130 kV", "spanning_kv": 132.0, "spanningar": "132", "typ": "Distribution", "operator": null, "yta_m2": 9440.0, "kommun": "Mölndal", "i_halland": false, "svk_station": false }, "geometry": { "type": "Point", "coordinates": [ 12.01364, 57.6723 ] } },
{ "type": "Feature", "properties": { "osm_id": "w57674971", "namn": null, "niva": "Regionnät 40–70 kV", "spanning_kv": 45.0, "spanningar": "45", "typ": "Distribution", "operator": null, "yta_m2": 3697.0, "kommun": "Härryda", "i_halland": false, "svk_station": false }, "geometry": { "type": "Point", "coordinates": [ 12.26222, 57.68007 ] } },
{ "type": "Feature", "properties": { "osm_id": "w57675923", "namn": "Ställverk Stenkullen", "niva": "Transmissionsnät 400 kV", "spanning_kv": 400.0, "spanningar": "400;132", "typ": "Transmission", "operator": null, "yta_m2": 400015.0, "kommun": "Lerum", "i_halland": false, "svk_station": true }, "geometry": { "type": "Point", "coordinates": [ 12.32217, 57.80205 ] } },
{ "type": "Feature", "properties": { "osm_id": "w59178177", "namn": null, "niva": "Regionnät 130 kV", "spanning_kv": 132.0, "spanningar": "132", "typ": "Distribution", "operator": null, "yta_m2": 1699.0, "kommun": "Göteborg", "i_halland": false, "svk_station": false }, "geometry": { "type": "Point", "coordinates": [ 11.90444, 57.65088 ] } },
{ "type": "Feature", "properties": { "osm_id": "w61902278", "namn": null, "niva": "Regionnät 130 kV", "spanning_kv": 132.0, "spanningar": "132;45", "typ": "Transmission", "operator": null, "yta_m2": 4711.0, "kommun": "Bollebygd", "i_halland": false, "svk_station": false }, "geometry": { "type": "Point", "coordinates": [ 12.56548, 57.7519 ] } },
{ "type": "Feature", "properties": { "osm_id": "w88216929", "namn": "Hanhals", "niva": "Regionnät 130 kV", "spanning_kv": 132.0, "spanningar": "132;55;11", "typ": "Distribution", "operator": null, "yta_m2": 8821.0, "kommun": "Kungsbacka", "i_halland": true, "svk_station": false }, "geometry": { "type": "Point", "coordinates": [ 12.09894, 57.46442 ] } },
{ "type": "Feature", "properties": { "osm_id": "w88222572", "namn": null, "niva": "Regionnät 130 kV", "spanning_kv": 132.0, "spanningar": "132", "typ": "Distribution", "operator": "Varberg Energi", "yta_m2": 3727.0, "kommun": "Varberg", "i_halland": true, "svk_station": false }, "geometry": { "type": "Point", "coordinates": [ 12.28107, 57.08249 ] } },
{ "type": "Feature", "properties": { "osm_id": "w88222585", "namn": null, "niva": "Regionnät 130 kV", "spanning_kv": 132.0, "spanningar": "132", "typ": "Distribution", "operator": null, "yta_m2": 3349.0, "kommun": "Kungsbacka", "i_halland": true, "svk_station": false }, "geometry": { "type": "Point", "coordinates": [ 12.07031, 57.50613 ] } },
{ "type": "Feature", "properties": { "osm_id": "w101320612", "namn": "Söderåsen", "niva": "Transmissionsnät 400 kV", "spanning_kv": 400.0, "spanningar": "400;132", "typ": "Transmission", "operator": null, "yta_m2": 62295.0, "kommun": "Bjuv", "i_halland": false, "svk_station": true }, "geometry": { "type": "Point", "coordinates": [ 13.00398, 56.07927 ] } },
{ "type": "Feature", "properties": { "osm_id": "w154042207", "namn": null, "niva": "Regionnät 130 kV", "spanning_kv": 132.0, "spanningar": "132", "typ": "Distribution", "operator": null, "yta_m2": 3942.0, "kommun": "Mölndal", "i_halland": false, "svk_station": false }, "geometry": { "type": "Point", "coordinates": [ 12.11229, 57.58355 ] } },
{ "type": "Feature", "properties": { "osm_id": "w172201471", "namn": "Breared", "niva": "Transmissionsnät 400 kV", "spanning_kv": 400.0, "spanningar": "400;132", "typ": "Transmission", "operator": null, "yta_m2": 54888.0, "kommun": "Halmstad", "i_halland": true, "svk_station": true }, "geometry": { "type": "Point", "coordinates": [ 13.05576, 56.81871 ] } },
{ "type": "Feature", "properties": { "osm_id": "w172270594", "namn": null, "niva": "Regionnät 130 kV", "spanning_kv": 132.0, "spanningar": "132", "typ": "Transmission", "operator": null, "yta_m2": 16825.0, "kommun": "Gislaved", "i_halland": false, "svk_station": false }, "geometry": { "type": "Point", "coordinates": [ 13.58503, 57.29203 ] } },
{ "type": "Feature", "properties": { "osm_id": "w172788140", "namn": null, "niva": "Regionnät 40–70 kV", "spanning_kv": 45.0, "spanningar": "45", "typ": "Distribution", "operator": null, "yta_m2": 2882.0, "kommun": "Gislaved", "i_halland": false, "svk_station": false }, "geometry": { "type": "Point", "coordinates": [ 13.59703, 57.17872 ] } },
{ "type": "Feature", "properties": { "osm_id": "w182747193", "namn": "Lerum", "niva": "Regionnät 130 kV", "spanning_kv": 132.0, "spanningar": "132", "typ": "Distribution", "operator": "Vattenfall", "yta_m2": 8765.0, "kommun": "Lerum", "i_halland": false, "svk_station": false }, "geometry": { "type": "Point", "coordinates": [ 12.31285, 57.80143 ] } },
{ "type": "Feature", "properties": { "osm_id": "w211476833", "namn": null, "niva": "Regionnät 130 kV", "spanning_kv": 132.0, "spanningar": "132;45", "typ": "Distribution", "operator": null, "yta_m2": 9133.0, "kommun": "Härryda", "i_halland": false, "svk_station": false }, "geometry": { "type": "Point", "coordinates": [ 12.11701, 57.66956 ] } },
{ "type": "Feature", "properties": { "osm_id": "w246523013", "namn": null, "niva": "Regionnät 130 kV", "spanning_kv": 132.0, "spanningar": "132", "typ": "Distribution", "operator": null, "yta_m2": 3158.0, "kommun": "Mölndal", "i_halland": false, "svk_station": false }, "geometry": { "type": "Point", "coordinates": [ 12.03529, 57.60185 ] } },
{ "type": "Feature", "properties": { "osm_id": "w254135216", "namn": "Hisingen", "niva": "Transmissionsnät 400 kV", "spanning_kv": 400.0, "spanningar": "400;132", "typ": "Transmission", "operator": null, "yta_m2": 11803.0, "kommun": "Göteborg", "i_halland": false, "svk_station": true }, "geometry": { "type": "Point", "coordinates": [ 11.92039, 57.76874 ] } },
{ "type": "Feature", "properties": { "osm_id": "w254135217", "namn": null, "niva": "Regionnät 130 kV", "spanning_kv": 132.0, "spanningar": "132;11", "typ": "Distribution", "operator": null, "yta_m2": 5627.0, "kommun": "Göteborg", "i_halland": false, "svk_station": true }, "geometry": { "type": "Point", "coordinates": [ 11.92385, 57.76793 ] } },
{ "type": "Feature", "properties": { "osm_id": "w254227283", "namn": null, "niva": "Regionnät 130 kV", "spanning_kv": 132.0, "spanningar": "132", "typ": "Transmission", "operator": null, "yta_m2": 5956.0, "kommun": "Göteborg", "i_halland": false, "svk_station": false }, "geometry": { "type": "Point", "coordinates": [ 12.02087, 57.68139 ] } },
{ "type": "Feature", "properties": { "osm_id": "w254343484", "namn": null, "niva": "Regionnät 130 kV", "spanning_kv": 132.0, "spanningar": "132", "typ": "transition", "operator": null, "yta_m2": 343.0, "kommun": "Mölndal", "i_halland": false, "svk_station": false }, "geometry": { "type": "Point", "coordinates": [ 12.04155, 57.6614 ] } },
{ "type": "Feature", "properties": { "osm_id": "w254343485", "namn": null, "niva": "Regionnät 130 kV", "spanning_kv": 132.0, "spanningar": "132", "typ": "transition", "operator": null, "yta_m2": 325.0, "kommun": "Mölndal", "i_halland": false, "svk_station": false }, "geometry": { "type": "Point", "coordinates": [ 12.04185, 57.66144 ] } },
{ "type": "Feature", "properties": { "osm_id": "w254344699", "namn": "Ställverk Rantorp", "niva": "Regionnät 130 kV", "spanning_kv": 132.0, "spanningar": "132", "typ": "Distribution", "operator": null, "yta_m2": 3465.0, "kommun": "Mölndal", "i_halland": false, "svk_station": false }, "geometry": { "type": "Point", "coordinates": [ 12.04214, 57.56958 ] } },
{ "type": "Feature", "properties": { "osm_id": "w254362168", "namn": null, "niva": "Regionnät 130 kV", "spanning_kv": 132.0, "spanningar": "132", "typ": "Distribution", "operator": null, "yta_m2": 3270.0, "kommun": "Kungsbacka", "i_halland": true, "svk_station": false }, "geometry": { "type": "Point", "coordinates": [ 11.98449, 57.5241 ] } },
{ "type": "Feature", "properties": { "osm_id": "w263688590", "namn": "Ringhals", "niva": "Transmissionsnät 400 kV", "spanning_kv": 400.0, "spanningar": "400", "typ": "Transmission", "operator": null, "yta_m2": 63269.0, "kommun": "Varberg", "i_halland": true, "svk_station": true }, "geometry": { "type": "Point", "coordinates": [ 12.11835, 57.26202 ] } },
{ "type": "Feature", "properties": { "osm_id": "w263697062", "namn": "Ställverk Horred", "niva": "Transmissionsnät 400 kV", "spanning_kv": 400.0, "spanningar": "400", "typ": "Transmission", "operator": null, "yta_m2": 116400.0, "kommun": "Mark", "i_halland": false, "svk_station": true }, "geometry": { "type": "Point", "coordinates": [ 12.55779, 57.3798 ] } },
{ "type": "Feature", "properties": { "osm_id": "w263701163", "namn": "Ställverk Strömma", "niva": "Transmissionsnät 400 kV", "spanning_kv": 400.0, "spanningar": "400", "typ": "Transmission", "operator": "Svenska kraftnät", "yta_m2": 27075.0, "kommun": "Mark", "i_halland": false, "svk_station": true }, "geometry": { "type": "Point", "coordinates": [ 12.45644, 57.57935 ] } },
{ "type": "Feature", "properties": { "osm_id": "w270580457", "namn": null, "niva": "Regionnät 130 kV", "spanning_kv": 132.0, "spanningar": "132", "typ": "Transmission", "operator": null, "yta_m2": 3875.0, "kommun": "Varberg", "i_halland": true, "svk_station": false }, "geometry": { "type": "Point", "coordinates": [ 12.16715, 57.22418 ] } },
{ "type": "Feature", "properties": { "osm_id": "w284182193", "namn": null, "niva": "Transmissionsnät 400 kV", "spanning_kv": 400.0, "spanningar": "400;132", "typ": "Transmission", "operator": null, "yta_m2": 29443.0, "kommun": "Svenljunga", "i_halland": false, "svk_station": true }, "geometry": { "type": "Point", "coordinates": [ 13.17354, 57.47095 ] } },
{ "type": "Feature", "properties": { "osm_id": "w304635614", "namn": null, "niva": "Regionnät 40–70 kV", "spanning_kv": 45.0, "spanningar": "45", "typ": "Distribution", "operator": null, "yta_m2": 1672.0, "kommun": "Mark", "i_halland": false, "svk_station": false }, "geometry": { "type": "Point", "coordinates": [ 12.50872, 57.34068 ] } },
{ "type": "Feature", "properties": { "osm_id": "w329659977", "namn": null, "niva": "Regionnät 40–70 kV", "spanning_kv": 45.0, "spanningar": "45", "typ": "Distribution", "operator": null, "yta_m2": 535.0, "kommun": "Tranemo", "i_halland": false, "svk_station": false }, "geometry": { "type": "Point", "coordinates": [ 13.30338, 57.36549 ] } },
{ "type": "Feature", "properties": { "osm_id": "w357628878", "namn": "Kärra", "niva": "Regionnät 130 kV", "spanning_kv": 132.0, "spanningar": "132", "typ": "Distribution", "operator": null, "yta_m2": 4912.0, "kommun": "Mölndal", "i_halland": false, "svk_station": false }, "geometry": { "type": "Point", "coordinates": [ 12.0285, 57.64238 ] } },
{ "type": "Feature", "properties": { "osm_id": "w358491603", "namn": null, "niva": "Regionnät 40–70 kV", "spanning_kv": 45.0, "spanningar": "45", "typ": "Distribution", "operator": null, "yta_m2": 976.0, "kommun": "Helsingborg", "i_halland": false, "svk_station": false }, "geometry": { "type": "Point", "coordinates": [ 12.80044, 56.13349 ] } },
{ "type": "Feature", "properties": { "osm_id": "w528968205", "namn": null, "niva": "Regionnät 130 kV", "spanning_kv": 132.0, "spanningar": "132;45", "typ": "Transmission", "operator": null, "yta_m2": 6756.0, "kommun": "Mark", "i_halland": false, "svk_station": false }, "geometry": { "type": "Point", "coordinates": [ 12.67053, 57.48681 ] } },
{ "type": "Feature", "properties": { "osm_id": "w528973309", "namn": null, "niva": "Regionnät 40–70 kV", "spanning_kv": 45.0, "spanningar": "45", "typ": "Distribution", "operator": null, "yta_m2": 937.0, "kommun": "Mark", "i_halland": false, "svk_station": false }, "geometry": { "type": "Point", "coordinates": [ 12.69003, 57.50205 ] } },
{ "type": "Feature", "properties": { "osm_id": "w529342237", "namn": null, "niva": "Regionnät 40–70 kV", "spanning_kv": 45.0, "spanningar": "45", "typ": "ej angiven", "operator": null, "yta_m2": 723.0, "kommun": "Mark", "i_halland": false, "svk_station": false }, "geometry": { "type": "Point", "coordinates": [ 12.68175, 57.51193 ] } },
{ "type": "Feature", "properties": { "osm_id": "w540453555", "namn": null, "niva": "Regionnät 40–70 kV", "spanning_kv": 55.0, "spanningar": "55", "typ": "Distribution", "operator": null, "yta_m2": 1982.0, "kommun": "Falkenberg", "i_halland": true, "svk_station": false }, "geometry": { "type": "Point", "coordinates": [ 12.72736, 57.14642 ] } },
{ "type": "Feature", "properties": { "osm_id": "w541718577", "namn": null, "niva": "Regionnät 40–70 kV", "spanning_kv": 55.0, "spanningar": "55", "typ": "Distribution", "operator": null, "yta_m2": 1096.0, "kommun": "Kungsbacka", "i_halland": true, "svk_station": false }, "geometry": { "type": "Point", "coordinates": [ 12.17119, 57.42866 ] } },
{ "type": "Feature", "properties": { "osm_id": "w612170495", "namn": null, "niva": "Regionnät 130 kV", "spanning_kv": 132.0, "spanningar": "132;45", "typ": "Distribution", "operator": null, "yta_m2": 7549.0, "kommun": "Åstorp", "i_halland": false, "svk_station": false }, "geometry": { "type": "Point", "coordinates": [ 12.86615, 56.10105 ] } },
{ "type": "Feature", "properties": { "osm_id": "w621793740", "namn": null, "niva": "Regionnät 130 kV", "spanning_kv": 132.0, "spanningar": "132", "typ": "Distribution", "operator": null, "yta_m2": 2010.0, "kommun": "Hässleholm", "i_halland": false, "svk_station": false }, "geometry": { "type": "Point", "coordinates": [ 13.6388, 56.17637 ] } },
{ "type": "Feature", "properties": { "osm_id": "w621793741", "namn": "Skånes-Fagerhult", "niva": "Regionnät 130 kV", "spanning_kv": 132.0, "spanningar": "132", "typ": "Distribution", "operator": null, "yta_m2": 4296.0, "kommun": "Örkelljunga", "i_halland": false, "svk_station": false }, "geometry": { "type": "Point", "coordinates": [ 13.46169, 56.36379 ] } },
{ "type": "Feature", "properties": { "osm_id": "w622018419", "namn": "Bjärnum", "niva": "Regionnät 130 kV", "spanning_kv": 132.0, "spanningar": "132", "typ": "Distribution", "operator": null, "yta_m2": 2740.0, "kommun": "Hässleholm", "i_halland": false, "svk_station": false }, "geometry": { "type": "Point", "coordinates": [ 13.69317, 56.28888 ] } },
{ "type": "Feature", "properties": { "osm_id": "w622363618", "namn": "Perstorp", "niva": "Regionnät 130 kV", "spanning_kv": 132.0, "spanningar": "132", "typ": "Distribution", "operator": null, "yta_m2": 11753.0, "kommun": "Perstorp", "i_halland": false, "svk_station": false }, "geometry": { "type": "Point", "coordinates": [ 13.37988, 56.13931 ] } },
{ "type": "Feature", "properties": { "osm_id": "w673126741", "namn": null, "niva": "Regionnät 40–70 kV", "spanning_kv": 45.0, "spanningar": "45", "typ": "Distribution", "operator": null, "yta_m2": 585.0, "kommun": "Härryda", "i_halland": false, "svk_station": false }, "geometry": { "type": "Point", "coordinates": [ 12.49755, 57.64593 ] } },
{ "type": "Feature", "properties": { "osm_id": "w682994982", "namn": null, "niva": "Regionnät 130 kV", "spanning_kv": 132.0, "spanningar": "132", "typ": "Järnväg", "operator": null, "yta_m2": 18066.0, "kommun": "Åstorp", "i_halland": false, "svk_station": false }, "geometry": { "type": "Point", "coordinates": [ 12.94367, 56.12619 ] } },
{ "type": "Feature", "properties": { "osm_id": "w707336012", "namn": null, "niva": "Regionnät 130 kV", "spanning_kv": 132.0, "spanningar": "132;55", "typ": "Järnväg", "operator": null, "yta_m2": 3665.0, "kommun": "Varberg", "i_halland": true, "svk_station": false }, "geometry": { "type": "Point", "coordinates": [ 12.28029, 57.14945 ] } },
{ "type": "Feature", "properties": { "osm_id": "w727994434", "namn": null, "niva": "Regionnät 130 kV", "spanning_kv": 132.0, "spanningar": "132", "typ": "Distribution", "operator": null, "yta_m2": 2764.0, "kommun": "Halmstad", "i_halland": true, "svk_station": false }, "geometry": { "type": "Point", "coordinates": [ 12.72376, 56.81829 ] } },
{ "type": "Feature", "properties": { "osm_id": "w731748795", "namn": null, "niva": "Okänd spänning", "spanning_kv": null, "spanningar": null, "typ": "Distribution", "operator": null, "yta_m2": 14.0, "kommun": "Kungsbacka", "i_halland": true, "svk_station": false }, "geometry": { "type": "Point", "coordinates": [ 11.95813, 57.54937 ] } },
{ "type": "Feature", "properties": { "osm_id": "w747833703", "namn": null, "niva": "Regionnät 130 kV", "spanning_kv": 132.0, "spanningar": "132", "typ": "Distribution", "operator": null, "yta_m2": 4029.0, "kommun": "Falkenberg", "i_halland": true, "svk_station": false }, "geometry": { "type": "Point", "coordinates": [ 12.71596, 56.92872 ] } },
{ "type": "Feature", "properties": { "osm_id": "w758148658", "namn": null, "niva": "Regionnät 40–70 kV", "spanning_kv": 45.0, "spanningar": "45", "typ": "Distribution", "operator": null, "yta_m2": 1896.0, "kommun": "Markaryd", "i_halland": false, "svk_station": false }, "geometry": { "type": "Point", "coordinates": [ 13.59979, 56.44544 ] } },
{ "type": "Feature", "properties": { "osm_id": "w760197728", "namn": null, "niva": "Regionnät 130 kV", "spanning_kv": 132.0, "spanningar": "132;45", "typ": "Distribution", "operator": null, "yta_m2": 6195.0, "kommun": "Hylte", "i_halland": true, "svk_station": false }, "geometry": { "type": "Point", "coordinates": [ 13.11849, 56.95052 ] } },
{ "type": "Feature", "properties": { "osm_id": "w789048577", "namn": "Grevie", "niva": "Regionnät 130 kV", "spanning_kv": 132.0, "spanningar": "132", "typ": "Distribution", "operator": null, "yta_m2": 9553.0, "kommun": "Båstad", "i_halland": false, "svk_station": false }, "geometry": { "type": "Point", "coordinates": [ 12.78713, 56.38455 ] } },
{ "type": "Feature", "properties": { "osm_id": "w797547739", "namn": null, "niva": "Regionnät 40–70 kV", "spanning_kv": 45.0, "spanningar": "45", "typ": "Distribution", "operator": null, "yta_m2": 1734.0, "kommun": "Härryda", "i_halland": false, "svk_station": false }, "geometry": { "type": "Point", "coordinates": [ 12.20578, 57.69244 ] } },
{ "type": "Feature", "properties": { "osm_id": "w963909780", "namn": "Grimeton", "niva": "Regionnät 40–70 kV", "spanning_kv": 55.0, "spanningar": "55", "typ": "Distribution", "operator": null, "yta_m2": 3364.0, "kommun": "Varberg", "i_halland": true, "svk_station": false }, "geometry": { "type": "Point", "coordinates": [ 12.40258, 57.11484 ] } },
{ "type": "Feature", "properties": { "osm_id": "w963916115", "namn": null, "niva": "Regionnät 40–70 kV", "spanning_kv": 45.0, "spanningar": "45", "typ": "Distribution", "operator": null, "yta_m2": 920.0, "kommun": "Mark", "i_halland": false, "svk_station": false }, "geometry": { "type": "Point", "coordinates": [ 12.65247, 57.48772 ] } },
{ "type": "Feature", "properties": { "osm_id": "w983748440", "namn": null, "niva": "Regionnät 40–70 kV", "spanning_kv": 45.0, "spanningar": "45", "typ": "Distribution", "operator": null, "yta_m2": 1066.0, "kommun": "Falkenberg", "i_halland": true, "svk_station": false }, "geometry": { "type": "Point", "coordinates": [ 12.81594, 57.26827 ] } },
{ "type": "Feature", "properties": { "osm_id": "w987387122", "namn": null, "niva": "Regionnät 40–70 kV", "spanning_kv": 45.0, "spanningar": "45", "typ": "Distribution", "operator": null, "yta_m2": 858.0, "kommun": "Mark", "i_halland": false, "svk_station": false }, "geometry": { "type": "Point", "coordinates": [ 12.55959, 57.55393 ] } },
{ "type": "Feature", "properties": { "osm_id": "w1001611861", "namn": null, "niva": "Regionnät 130 kV", "spanning_kv": 132.0, "spanningar": "132", "typ": "Järnväg", "operator": null, "yta_m2": 7906.0, "kommun": "Halmstad", "i_halland": true, "svk_station": false }, "geometry": { "type": "Point", "coordinates": [ 12.99902, 56.59152 ] } },
{ "type": "Feature", "properties": { "osm_id": "w1004599780", "namn": "Ätrafors", "niva": "Regionnät 40–70 kV", "spanning_kv": 55.0, "spanningar": "55", "typ": "Distribution", "operator": null, "yta_m2": 2301.0, "kommun": "Falkenberg", "i_halland": true, "svk_station": false }, "geometry": { "type": "Point", "coordinates": [ 12.66321, 57.03422 ] } },
{ "type": "Feature", "properties": { "osm_id": "w1005801931", "namn": null, "niva": "Regionnät 130 kV", "spanning_kv": 132.0, "spanningar": "132", "typ": "Distribution", "operator": null, "yta_m2": 1894.0, "kommun": "Ljungby", "i_halland": false, "svk_station": false }, "geometry": { "type": "Point", "coordinates": [ 13.6574, 56.75895 ] } },
{ "type": "Feature", "properties": { "osm_id": "w1014584887", "namn": null, "niva": "Regionnät 40–70 kV", "spanning_kv": 55.0, "spanningar": "55", "typ": "Distribution", "operator": null, "yta_m2": 610.0, "kommun": "Varberg", "i_halland": true, "svk_station": false }, "geometry": { "type": "Point", "coordinates": [ 12.4699, 57.18031 ] } },
{ "type": "Feature", "properties": { "osm_id": "w1017699403", "namn": null, "niva": "Regionnät 40–70 kV", "spanning_kv": 45.0, "spanningar": "45", "typ": "Distribution", "operator": null, "yta_m2": 797.0, "kommun": "Mark", "i_halland": false, "svk_station": false }, "geometry": { "type": "Point", "coordinates": [ 12.83593, 57.5213 ] } },
{ "type": "Feature", "properties": { "osm_id": "w1025505726", "namn": "Häradsbo", "niva": "Transmissionsnät 400 kV", "spanning_kv": 400.0, "spanningar": "400;132", "typ": "ej angiven", "operator": "Svenska kraftnät", "yta_m2": 17040.0, "kommun": "Hylte", "i_halland": true, "svk_station": true }, "geometry": { "type": "Point", "coordinates": [ 12.98532, 56.93934 ] } },
{ "type": "Feature", "properties": { "osm_id": "w1035464560", "namn": "Åstorp Södra", "niva": "Regionnät 130 kV", "spanning_kv": 132.0, "spanningar": "132", "typ": "Distribution", "operator": null, "yta_m2": 8299.0, "kommun": "Åstorp", "i_halland": false, "svk_station": false }, "geometry": { "type": "Point", "coordinates": [ 12.93386, 56.12309 ] } },
{ "type": "Feature", "properties": { "osm_id": "w1099996053", "namn": null, "niva": "Regionnät 130 kV", "spanning_kv": 132.0, "spanningar": "132", "typ": "Distribution", "operator": null, "yta_m2": 4213.0, "kommun": "Klippan", "i_halland": false, "svk_station": false }, "geometry": { "type": "Point", "coordinates": [ 13.15413, 56.11214 ] } },
{ "type": "Feature", "properties": { "osm_id": "w1122171947", "namn": null, "niva": "Regionnät 40–70 kV", "spanning_kv": 45.0, "spanningar": "45", "typ": "Distribution", "operator": null, "yta_m2": 1070.0, "kommun": "Svenljunga", "i_halland": false, "svk_station": false }, "geometry": { "type": "Point", "coordinates": [ 12.87485, 57.31654 ] } },
{ "type": "Feature", "properties": { "osm_id": "w1122913922", "namn": "Skogsforsen", "niva": "Regionnät 40–70 kV", "spanning_kv": 55.0, "spanningar": "55", "typ": "Distribution", "operator": null, "yta_m2": 2827.0, "kommun": "Falkenberg", "i_halland": true, "svk_station": false }, "geometry": { "type": "Point", "coordinates": [ 12.86711, 57.09425 ] } },
{ "type": "Feature", "properties": { "osm_id": "w1122935865", "namn": null, "niva": "Regionnät 40–70 kV", "spanning_kv": 55.0, "spanningar": "55", "typ": "Distribution", "operator": null, "yta_m2": 1267.0, "kommun": "Falkenberg", "i_halland": true, "svk_station": false }, "geometry": { "type": "Point", "coordinates": [ 12.61931, 56.97899 ] } },
{ "type": "Feature", "properties": { "osm_id": "w1124740994", "namn": null, "niva": "Regionnät 130 kV", "spanning_kv": 132.0, "spanningar": "132", "typ": "Distribution", "operator": null, "yta_m2": 4304.0, "kommun": "Lerum", "i_halland": false, "svk_station": false }, "geometry": { "type": "Point", "coordinates": [ 12.24772, 57.7876 ] } },
{ "type": "Feature", "properties": { "osm_id": "w1124989806", "namn": null, "niva": "Regionnät 40–70 kV", "spanning_kv": 45.0, "spanningar": "45", "typ": "Distribution", "operator": null, "yta_m2": 699.0, "kommun": "Härryda", "i_halland": false, "svk_station": false }, "geometry": { "type": "Point", "coordinates": [ 12.3043, 57.68914 ] } },
{ "type": "Feature", "properties": { "osm_id": "w1125014876", "namn": "Traryd", "niva": "Regionnät 130 kV", "spanning_kv": 132.0, "spanningar": "132;45", "typ": "Distribution", "operator": null, "yta_m2": 13144.0, "kommun": "Markaryd", "i_halland": false, "svk_station": false }, "geometry": { "type": "Point", "coordinates": [ 13.74226, 56.58107 ] } },
{ "type": "Feature", "properties": { "osm_id": "w1125014878", "namn": null, "niva": "Regionnät 40–70 kV", "spanning_kv": 45.0, "spanningar": "45", "typ": "Distribution", "operator": null, "yta_m2": 601.0, "kommun": "Markaryd", "i_halland": false, "svk_station": false }, "geometry": { "type": "Point", "coordinates": [ 13.71376, 56.53822 ] } },
{ "type": "Feature", "properties": { "osm_id": "w1125014879", "namn": null, "niva": "Regionnät 40–70 kV", "spanning_kv": 45.0, "spanningar": "45", "typ": "Distribution", "operator": null, "yta_m2": 1001.0, "kommun": "Markaryd", "i_halland": false, "svk_station": false }, "geometry": { "type": "Point", "coordinates": [ 13.50933, 56.49402 ] } },
{ "type": "Feature", "properties": { "osm_id": "w1125014881", "namn": null, "niva": "Regionnät 40–70 kV", "spanning_kv": 45.0, "spanningar": "45", "typ": "Distribution", "operator": null, "yta_m2": 738.0, "kommun": "Laholm", "i_halland": true, "svk_station": false }, "geometry": { "type": "Point", "coordinates": [ 13.45377, 56.49649 ] } },
{ "type": "Feature", "properties": { "osm_id": "w1125021818", "namn": null, "niva": "Regionnät 40–70 kV", "spanning_kv": 45.0, "spanningar": "45", "typ": "Distribution", "operator": null, "yta_m2": 982.0, "kommun": "Bollebygd", "i_halland": false, "svk_station": false }, "geometry": { "type": "Point", "coordinates": [ 12.56063, 57.66452 ] } },
{ "type": "Feature", "properties": { "osm_id": "w1125021827", "namn": "Erikstorp", "niva": "Regionnät 40–70 kV", "spanning_kv": 45.0, "spanningar": "45", "typ": "Distribution", "operator": null, "yta_m2": 1195.0, "kommun": "Bollebygd", "i_halland": false, "svk_station": false }, "geometry": { "type": "Point", "coordinates": [ 12.565, 57.68262 ] } },
{ "type": "Feature", "properties": { "osm_id": "w1125021829", "namn": null, "niva": "Regionnät 40–70 kV", "spanning_kv": 45.0, "spanningar": "45", "typ": "Distribution", "operator": null, "yta_m2": 430.0, "kommun": "Bollebygd", "i_halland": false, "svk_station": false }, "geometry": { "type": "Point", "coordinates": [ 12.5845, 57.72165 ] } },
{ "type": "Feature", "properties": { "osm_id": "w1125021831", "namn": null, "niva": "Regionnät 40–70 kV", "spanning_kv": 45.0, "spanningar": "45", "typ": "Distribution", "operator": null, "yta_m2": 602.0, "kommun": "Bollebygd", "i_halland": false, "svk_station": false }, "geometry": { "type": "Point", "coordinates": [ 12.63328, 57.78774 ] } },
{ "type": "Feature", "properties": { "osm_id": "w1125305974", "namn": null, "niva": "Regionnät 130 kV", "spanning_kv": 132.0, "spanningar": "132", "typ": "Transmission", "operator": null, "yta_m2": 739.0, "kommun": "Hylte", "i_halland": true, "svk_station": false }, "geometry": { "type": "Point", "coordinates": [ 13.16422, 56.97762 ] } },
{ "type": "Feature", "properties": { "osm_id": "w1125458685", "namn": null, "niva": "Regionnät 40–70 kV", "spanning_kv": 45.0, "spanningar": "45", "typ": "Distribution", "operator": null, "yta_m2": 572.0, "kommun": "Mark", "i_halland": false, "svk_station": false }, "geometry": { "type": "Point", "coordinates": [ 12.41873, 57.61412 ] } },
{ "type": "Feature", "properties": { "osm_id": "w1125458690", "namn": null, "niva": "Regionnät 40–70 kV", "spanning_kv": 45.0, "spanningar": "45", "typ": "Distribution", "operator": null, "yta_m2": 844.0, "kommun": "Härryda", "i_halland": false, "svk_station": false }, "geometry": { "type": "Point", "coordinates": [ 12.45342, 57.69199 ] } },
{ "type": "Feature", "properties": { "osm_id": "w1125458704", "namn": "Hultafors", "niva": "Regionnät 40–70 kV", "spanning_kv": 45.0, "spanningar": "45", "typ": "Distribution", "operator": null, "yta_m2": 1280.0, "kommun": "Bollebygd", "i_halland": false, "svk_station": false }, "geometry": { "type": "Point", "coordinates": [ 12.71464, 57.6925 ] } },
{ "type": "Feature", "properties": { "osm_id": "w1125542446", "namn": null, "niva": "Regionnät 40–70 kV", "spanning_kv": 45.0, "spanningar": "45", "typ": "Distribution", "operator": null, "yta_m2": 665.0, "kommun": "Mark", "i_halland": false, "svk_station": false }, "geometry": { "type": "Point", "coordinates": [ 12.58537, 57.45778 ] } },
{ "type": "Feature", "properties": { "osm_id": "w1125542448", "namn": null, "niva": "Regionnät 40–70 kV", "spanning_kv": 45.0, "spanningar": "45", "typ": "Distribution", "operator": null, "yta_m2": 1267.0, "kommun": "Mark", "i_halland": false, "svk_station": false }, "geometry": { "type": "Point", "coordinates": [ 12.62712, 57.48364 ] } },
{ "type": "Feature", "properties": { "osm_id": "w1125757693", "namn": null, "niva": "Regionnät 40–70 kV", "spanning_kv": 45.0, "spanningar": "45", "typ": "Distribution", "operator": null, "yta_m2": 436.0, "kommun": "Svenljunga", "i_halland": false, "svk_station": false }, "geometry": { "type": "Point", "coordinates": [ 13.17397, 57.45231 ] } },
{ "type": "Feature", "properties": { "osm_id": "w1125936594", "namn": null, "niva": "Regionnät 40–70 kV", "spanning_kv": 55.0, "spanningar": "55", "typ": "Distribution", "operator": null, "yta_m2": 1329.0, "kommun": "Kungsbacka", "i_halland": true, "svk_station": false }, "geometry": { "type": "Point", "coordinates": [ 12.05807, 57.47566 ] } },
{ "type": "Feature", "properties": { "osm_id": "w1126128499", "namn": null, "niva": "Regionnät 130 kV", "spanning_kv": 132.0, "spanningar": "132", "typ": "Distribution", "operator": null, "yta_m2": 1115.0, "kommun": "Kungsbacka", "i_halland": true, "svk_station": false }, "geometry": { "type": "Point", "coordinates": [ 12.27833, 57.38014 ] } },
{ "type": "Feature", "properties": { "osm_id": "w1126159616", "namn": null, "niva": "Regionnät 130 kV", "spanning_kv": 132.0, "spanningar": "132", "typ": "Distribution", "operator": null, "yta_m2": 2371.0, "kommun": "Varberg", "i_halland": true, "svk_station": false }, "geometry": { "type": "Point", "coordinates": [ 12.28887, 57.11918 ] } },
{ "type": "Feature", "properties": { "osm_id": "w1126368672", "namn": null, "niva": "Regionnät 130 kV", "spanning_kv": 132.0, "spanningar": "132;55", "typ": "Distribution", "operator": null, "yta_m2": 2470.0, "kommun": "Falkenberg", "i_halland": true, "svk_station": false }, "geometry": { "type": "Point", "coordinates": [ 12.43071, 56.9626 ] } },
{ "type": "Feature", "properties": { "osm_id": "w1126368705", "namn": "Varberg Centrum", "niva": "Regionnät 130 kV", "spanning_kv": 132.0, "spanningar": "132", "typ": "Distribution", "operator": "Varberg Energi", "yta_m2": 1466.0, "kommun": "Varberg", "i_halland": true, "svk_station": false }, "geometry": { "type": "Point", "coordinates": [ 12.26216, 57.11989 ] } },
{ "type": "Feature", "properties": { "osm_id": "w1126431633", "namn": "Kvibille", "niva": "Regionnät 40–70 kV", "spanning_kv": 45.0, "spanningar": "45", "typ": "Distribution", "operator": null, "yta_m2": 2211.0, "kommun": "Halmstad", "i_halland": true, "svk_station": false }, "geometry": { "type": "Point", "coordinates": [ 12.81329, 56.77462 ] } },
{ "type": "Feature", "properties": { "osm_id": "w1126431651", "namn": "Skedala", "niva": "Regionnät 130 kV", "spanning_kv": 132.0, "spanningar": "132;45", "typ": "Distribution", "operator": null, "yta_m2": 5633.0, "kommun": "Halmstad", "i_halland": true, "svk_station": false }, "geometry": { "type": "Point", "coordinates": [ 12.94097, 56.70706 ] } },
{ "type": "Feature", "properties": { "osm_id": "w1126595191", "namn": null, "niva": "Regionnät 130 kV", "spanning_kv": 132.0, "spanningar": "132", "typ": "Transmission", "operator": null, "yta_m2": 2979.0, "kommun": "Hylte", "i_halland": true, "svk_station": false }, "geometry": { "type": "Point", "coordinates": [ 13.07408, 56.88466 ] } },
{ "type": "Feature", "properties": { "osm_id": "w1126595221", "namn": "Sennan", "niva": "Regionnät 40–70 kV", "spanning_kv": 45.0, "spanningar": "45", "typ": "Distribution", "operator": null, "yta_m2": 3009.0, "kommun": "Halmstad", "i_halland": true, "svk_station": false }, "geometry": { "type": "Point", "coordinates": [ 12.98243, 56.7886 ] } },
{ "type": "Feature", "properties": { "osm_id": "w1126712123", "namn": null, "niva": "Regionnät 40–70 kV", "spanning_kv": 45.0, "spanningar": "45", "typ": "Distribution", "operator": null, "yta_m2": 1938.0, "kommun": "Gislaved", "i_halland": false, "svk_station": false }, "geometry": { "type": "Point", "coordinates": [ 13.56916, 57.29294 ] } },
{ "type": "Feature", "properties": { "osm_id": "w1127702664", "namn": null, "niva": "Regionnät 130 kV", "spanning_kv": 132.0, "spanningar": "132", "typ": "Distribution", "operator": null, "yta_m2": 3621.0, "kommun": "Laholm", "i_halland": true, "svk_station": false }, "geometry": { "type": "Point", "coordinates": [ 13.05293, 56.51277 ] } },
{ "type": "Feature", "properties": { "osm_id": "w1127702673", "namn": null, "niva": "Regionnät 130 kV", "spanning_kv": 132.0, "spanningar": "132", "typ": "Transmission", "operator": null, "yta_m2": 3973.0, "kommun": "Laholm", "i_halland": true, "svk_station": false }, "geometry": { "type": "Point", "coordinates": [ 13.10775, 56.49795 ] } },
{ "type": "Feature", "properties": { "osm_id": "w1127833243", "namn": null, "niva": "Regionnät 130 kV", "spanning_kv": 132.0, "spanningar": "132", "typ": "Distribution", "operator": "Öresundskraft", "yta_m2": 3956.0, "kommun": "Ängelholm", "i_halland": false, "svk_station": false }, "geometry": { "type": "Point", "coordinates": [ 12.90376, 56.24751 ] } },
{ "type": "Feature", "properties": { "osm_id": "w1127833253", "namn": "Ängelholm Östra", "niva": "Regionnät 130 kV", "spanning_kv": 132.0, "spanningar": "132", "typ": "Transmission", "operator": null, "yta_m2": 8555.0, "kommun": "Ängelholm", "i_halland": false, "svk_station": false }, "geometry": { "type": "Point", "coordinates": [ 12.91014, 56.25181 ] } },
{ "type": "Feature", "properties": { "osm_id": "w1127833275", "namn": null, "niva": "Regionnät 130 kV", "spanning_kv": 132.0, "spanningar": "132", "typ": "Distribution", "operator": null, "yta_m2": 1753.0, "kommun": "Ängelholm", "i_halland": false, "svk_station": false }, "geometry": { "type": "Point", "coordinates": [ 13.16776, 56.3072 ] } },
{ "type": "Feature", "properties": { "osm_id": "w1127894077", "namn": null, "niva": "Regionnät 130 kV", "spanning_kv": 132.0, "spanningar": "132;45", "typ": "Distribution", "operator": null, "yta_m2": 1612.0, "kommun": "Åstorp", "i_halland": false, "svk_station": false }, "geometry": { "type": "Point", "coordinates": [ 12.88996, 56.1307 ] } },
{ "type": "Feature", "properties": { "osm_id": "w1127991279", "namn": null, "niva": "Regionnät 130 kV", "spanning_kv": 132.0, "spanningar": "132", "typ": "Distribution", "operator": null, "yta_m2": 2609.0, "kommun": "Helsingborg", "i_halland": false, "svk_station": false }, "geometry": { "type": "Point", "coordinates": [ 12.74316, 56.16591 ] } },
{ "type": "Feature", "properties": { "osm_id": "w1128424922", "namn": null, "niva": "Regionnät 40–70 kV", "spanning_kv": 45.0, "spanningar": "45", "typ": "Distribution", "operator": null, "yta_m2": 10175.0, "kommun": "Markaryd", "i_halland": false, "svk_station": false }, "geometry": { "type": "Point", "coordinates": [ 13.59893, 56.48675 ] } },
{ "type": "Feature", "properties": { "osm_id": "w1128424962", "namn": null, "niva": "Regionnät 40–70 kV", "spanning_kv": 45.0, "spanningar": "45", "typ": "Distribution", "operator": null, "yta_m2": 424.0, "kommun": "Laholm", "i_halland": true, "svk_station": false }, "geometry": { "type": "Point", "coordinates": [ 13.39988, 56.51128 ] } },
{ "type": "Feature", "properties": { "osm_id": "w1128471586", "namn": null, "niva": "Regionnät 40–70 kV", "spanning_kv": 45.0, "spanningar": "45", "typ": "Distribution", "operator": null, "yta_m2": 2526.0, "kommun": "Ljungby", "i_halland": false, "svk_station": false }, "geometry": { "type": "Point", "coordinates": [ 13.96884, 56.82799 ] } },
{ "type": "Feature", "properties": { "osm_id": "w1128471619", "namn": null, "niva": "Regionnät 130 kV", "spanning_kv": 132.0, "spanningar": "132;45", "typ": "Transmission", "operator": null, "yta_m2": 7938.0, "kommun": "Ljungby", "i_halland": false, "svk_station": false }, "geometry": { "type": "Point", "coordinates": [ 13.94036, 56.80806 ] } },
{ "type": "Feature", "properties": { "osm_id": "w1130604012", "namn": null, "niva": "Regionnät 40–70 kV", "spanning_kv": 45.0, "spanningar": "45", "typ": "Distribution", "operator": null, "yta_m2": 1076.0, "kommun": "Gislaved", "i_halland": false, "svk_station": false }, "geometry": { "type": "Point", "coordinates": [ 13.61389, 57.26805 ] } },
{ "type": "Feature", "properties": { "osm_id": "w1346380309", "namn": "Konti-Skan Lindome HVDC Static Inverter", "niva": "Transmissionsnät 400 kV", "spanning_kv": 400.0, "spanningar": "400;132", "typ": "Omriktare", "operator": "Svenska Kraftnät", "yta_m2": null, "kommun": "Mölndal", "i_halland": false, "svk_station": true }, "geometry": { "type": "Point", "coordinates": [ 12.11255, 57.60543 ] } },
{ "type": "Feature", "properties": { "osm_id": "w1451345383", "namn": "Konti-Skan Lindome HVDC Static Inverter", "niva": "Transmissionsnät 400 kV", "spanning_kv": 400.0, "spanningar": "400;132", "typ": "Omriktare", "operator": "Svenska Kraftnät", "yta_m2": 77296.0, "kommun": "Mölndal", "i_halland": false, "svk_station": true }, "geometry": { "type": "Point", "coordinates": [ 12.11048, 57.60671 ] } },
{ "type": "Feature", "properties": { "osm_id": "r10431096", "namn": null, "niva": "Regionnät 130 kV", "spanning_kv": 132.0, "spanningar": "132", "typ": "Distribution", "operator": null, "yta_m2": 5555.0, "kommun": "Göteborg", "i_halland": false, "svk_station": false }, "geometry": { "type": "Point", "coordinates": [ 11.78354, 57.72495 ] } },
{ "type": "Feature", "properties": { "osm_id": "r10465157", "namn": "Linehed", "niva": "Regionnät 130 kV", "spanning_kv": 132.0, "spanningar": "132", "typ": "Distribution", "operator": "E.ON", "yta_m2": 43208.0, "kommun": "Halmstad", "i_halland": true, "svk_station": false }, "geometry": { "type": "Point", "coordinates": [ 12.90302, 56.66453 ] } },
{ "type": "Feature", "properties": { "osm_id": "r10465651", "namn": null, "niva": "Regionnät 130 kV", "spanning_kv": 132.0, "spanningar": "132", "typ": "Distribution", "operator": null, "yta_m2": 3575.0, "kommun": "Halmstad", "i_halland": true, "svk_station": false }, "geometry": { "type": "Point", "coordinates": [ 12.94041, 56.64378 ] } },
{ "type": "Feature", "properties": { "osm_id": "r10604779", "namn": "K1 Marieholm", "niva": "Regionnät 130 kV", "spanning_kv": 132.0, "spanningar": "132", "typ": "Transmission", "operator": null, "yta_m2": 17730.0, "kommun": "Göteborg", "i_halland": false, "svk_station": false }, "geometry": { "type": "Point", "coordinates": [ 12.01341, 57.74856 ] } },
{ "type": "Feature", "properties": { "osm_id": "r11087516", "namn": null, "niva": "Regionnät 130 kV", "spanning_kv": 132.0, "spanningar": "132;45", "typ": "Transmission", "operator": "Vattenfall", "yta_m2": 7543.0, "kommun": "Mark", "i_halland": false, "svk_station": false }, "geometry": { "type": "Point", "coordinates": [ 12.67796, 57.51627 ] } },
{ "type": "Feature", "properties": { "osm_id": "r13383233", "namn": null, "niva": "Regionnät 130 kV", "spanning_kv": 132.0, "spanningar": "132", "typ": "Distribution", "operator": null, "yta_m2": 11204.0, "kommun": "Göteborg", "i_halland": false, "svk_station": false }, "geometry": { "type": "Point", "coordinates": [ 12.02898, 57.7843 ] } },
{ "type": "Feature", "properties": { "osm_id": "r13460015", "namn": "Yngeredsfors", "niva": "Regionnät 40–70 kV", "spanning_kv": 55.0, "spanningar": "55", "typ": "Distribution", "operator": null, "yta_m2": 1139.0, "kommun": "Falkenberg", "i_halland": true, "svk_station": false }, "geometry": { "type": "Point", "coordinates": [ 12.75877, 57.03302 ] } },
{ "type": "Feature", "properties": { "osm_id": "r13460040", "namn": "Bällforsen", "niva": "Regionnät 40–70 kV", "spanning_kv": 55.0, "spanningar": "55", "typ": "Distribution", "operator": null, "yta_m2": 2064.0, "kommun": "Falkenberg", "i_halland": true, "svk_station": false }, "geometry": { "type": "Point", "coordinates": [ 12.80699, 57.07609 ] } },
{ "type": "Feature", "properties": { "osm_id": "r13532879", "namn": "Ställverk Biskopsgården", "niva": "Regionnät 130 kV", "spanning_kv": 132.0, "spanningar": "132", "typ": "Distribution", "operator": null, "yta_m2": 11556.0, "kommun": "Göteborg", "i_halland": false, "svk_station": false }, "geometry": { "type": "Point", "coordinates": [ 11.88286, 57.70942 ] } },
{ "type": "Feature", "properties": { "osm_id": "r13565861", "namn": "Smålandsstenar", "niva": "Regionnät 130 kV", "spanning_kv": 132.0, "spanningar": "132;45", "typ": "Distribution", "operator": null, "yta_m2": 6610.0, "kommun": "Gislaved", "i_halland": false, "svk_station": false }, "geometry": { "type": "Point", "coordinates": [ 13.4171, 57.15887 ] } },
{ "type": "Feature", "properties": { "osm_id": "r13628063", "namn": null, "niva": "Regionnät 40–70 kV", "spanning_kv": 45.0, "spanningar": "45", "typ": "Distribution", "operator": null, "yta_m2": 1057.0, "kommun": "Mark", "i_halland": false, "svk_station": false }, "geometry": { "type": "Point", "coordinates": [ 12.77808, 57.40316 ] } },
{ "type": "Feature", "properties": { "osm_id": "r13704797", "namn": null, "niva": "Regionnät 130 kV", "spanning_kv": 132.0, "spanningar": "132", "typ": "Distribution", "operator": null, "yta_m2": 4750.0, "kommun": "Göteborg", "i_halland": false, "svk_station": false }, "geometry": { "type": "Point", "coordinates": [ 11.96771, 57.58761 ] } },
{ "type": "Feature", "properties": { "osm_id": "r13764183", "namn": null, "niva": "Regionnät 130 kV", "spanning_kv": 132.0, "spanningar": "132", "typ": "Distribution", "operator": null, "yta_m2": 5221.0, "kommun": "Göteborg", "i_halland": false, "svk_station": false }, "geometry": { "type": "Point", "coordinates": [ 11.87196, 57.72706 ] } },
{ "type": "Feature", "properties": { "osm_id": "r15010701", "namn": null, "niva": "Regionnät 40–70 kV", "spanning_kv": 55.0, "spanningar": "55;45", "typ": "Distribution", "operator": null, "yta_m2": 1459.0, "kommun": "Svenljunga", "i_halland": false, "svk_station": false }, "geometry": { "type": "Point", "coordinates": [ 13.05304, 57.29422 ] } },
{ "type": "Feature", "properties": { "osm_id": "r15011416", "namn": null, "niva": "Regionnät 40–70 kV", "spanning_kv": 45.0, "spanningar": "45", "typ": "Distribution", "operator": null, "yta_m2": 293.0, "kommun": "Varberg", "i_halland": true, "svk_station": false }, "geometry": { "type": "Point", "coordinates": [ 12.65024, 57.30447 ] } },
{ "type": "Feature", "properties": { "osm_id": "r15013256", "namn": null, "niva": "Regionnät 130 kV", "spanning_kv": 132.0, "spanningar": "132", "typ": "Distribution", "operator": null, "yta_m2": 5306.0, "kommun": "Varberg", "i_halland": true, "svk_station": false }, "geometry": { "type": "Point", "coordinates": [ 12.20559, 57.23844 ] } },
{ "type": "Feature", "properties": { "osm_id": "r15016338", "namn": null, "niva": "Regionnät 130 kV", "spanning_kv": 132.0, "spanningar": "132", "typ": "Distribution", "operator": null, "yta_m2": 4632.0, "kommun": "Falkenberg", "i_halland": true, "svk_station": false }, "geometry": { "type": "Point", "coordinates": [ 12.52327, 56.90008 ] } },
{ "type": "Feature", "properties": { "osm_id": "r15045960", "namn": "Kåbäcken", "niva": "Regionnät 130 kV", "spanning_kv": 132.0, "spanningar": "132", "typ": "Distribution", "operator": null, "yta_m2": 2116.0, "kommun": "Partille", "i_halland": false, "svk_station": false }, "geometry": { "type": "Point", "coordinates": [ 12.1393, 57.73913 ] } },
{ "type": "Feature", "properties": { "osm_id": "r15047001", "namn": null, "niva": "Regionnät 130 kV", "spanning_kv": 132.0, "spanningar": "132", "typ": "Industri", "operator": null, "yta_m2": 1279.0, "kommun": "Göteborg", "i_halland": false, "svk_station": false }, "geometry": { "type": "Point", "coordinates": [ 12.03588, 57.73084 ] } },
{ "type": "Feature", "properties": { "osm_id": "r15047004", "namn": "Ställverk Slakthusgatan", "niva": "Regionnät 130 kV", "spanning_kv": 132.0, "spanningar": "132", "typ": "Distribution", "operator": "Göteborg Energi AB", "yta_m2": 940.0, "kommun": "Göteborg", "i_halland": false, "svk_station": false }, "geometry": { "type": "Point", "coordinates": [ 12.00127, 57.73132 ] } },
{ "type": "Feature", "properties": { "osm_id": "r15048107", "namn": "K5 Sisjön", "niva": "Regionnät 130 kV", "spanning_kv": 132.0, "spanningar": "132", "typ": "Distribution", "operator": null, "yta_m2": 18903.0, "kommun": "Göteborg", "i_halland": false, "svk_station": false }, "geometry": { "type": "Point", "coordinates": [ 11.94704, 57.6445 ] } },
{ "type": "Feature", "properties": { "osm_id": "r15049531", "namn": null, "niva": "Regionnät 130 kV", "spanning_kv": 132.0, "spanningar": "132", "typ": "Distribution", "operator": null, "yta_m2": 908.0, "kommun": "Göteborg", "i_halland": false, "svk_station": false }, "geometry": { "type": "Point", "coordinates": [ 11.83082, 57.7334 ] } },
{ "type": "Feature", "properties": { "osm_id": "r15049981", "namn": null, "niva": "Regionnät 40–70 kV", "spanning_kv": 45.0, "spanningar": "45", "typ": "Distribution", "operator": null, "yta_m2": 1822.0, "kommun": "Härryda", "i_halland": false, "svk_station": false }, "geometry": { "type": "Point", "coordinates": [ 12.14387, 57.6503 ] } },
{ "type": "Feature", "properties": { "osm_id": "r15053315", "namn": null, "niva": "Regionnät 40–70 kV", "spanning_kv": 45.0, "spanningar": "45", "typ": "Distribution", "operator": null, "yta_m2": 1274.0, "kommun": "Mark", "i_halland": false, "svk_station": false }, "geometry": { "type": "Point", "coordinates": [ 12.66452, 57.49223 ] } },
{ "type": "Feature", "properties": { "osm_id": "r15058995", "namn": null, "niva": "Regionnät 40–70 kV", "spanning_kv": 45.0, "spanningar": "45", "typ": "Distribution", "operator": null, "yta_m2": 746.0, "kommun": "Borås", "i_halland": false, "svk_station": false }, "geometry": { "type": "Point", "coordinates": [ 12.81951, 57.61932 ] } },
{ "type": "Feature", "properties": { "osm_id": "r15058997", "namn": null, "niva": "Regionnät 40–70 kV", "spanning_kv": 45.0, "spanningar": "45", "typ": "Distribution", "operator": null, "yta_m2": 1186.0, "kommun": "Mark", "i_halland": false, "svk_station": false }, "geometry": { "type": "Point", "coordinates": [ 12.76369, 57.55595 ] } },
{ "type": "Feature", "properties": { "osm_id": "r15059120", "namn": null, "niva": "Regionnät 40–70 kV", "spanning_kv": 45.0, "spanningar": "45", "typ": "Distribution", "operator": null, "yta_m2": 1293.0, "kommun": "Mark", "i_halland": false, "svk_station": false }, "geometry": { "type": "Point", "coordinates": [ 12.73425, 57.5281 ] } },
{ "type": "Feature", "properties": { "osm_id": "r15063088", "namn": null, "niva": "Regionnät 40–70 kV", "spanning_kv": 45.0, "spanningar": "45", "typ": "Distribution", "operator": null, "yta_m2": 217.0, "kommun": "Svenljunga", "i_halland": false, "svk_station": false }, "geometry": { "type": "Point", "coordinates": [ 13.11985, 57.49769 ] } },
{ "type": "Feature", "properties": { "osm_id": "r15070662", "namn": null, "niva": "Regionnät 40–70 kV", "spanning_kv": 55.0, "spanningar": "55", "typ": "Distribution", "operator": null, "yta_m2": 1130.0, "kommun": "Kungsbacka", "i_halland": true, "svk_station": false }, "geometry": { "type": "Point", "coordinates": [ 11.97456, 57.39696 ] } },
{ "type": "Feature", "properties": { "osm_id": "r15070664", "namn": null, "niva": "Regionnät 130 kV", "spanning_kv": 132.0, "spanningar": "132;55;11", "typ": "Distribution", "operator": null, "yta_m2": 2591.0, "kommun": "Kungsbacka", "i_halland": true, "svk_station": false }, "geometry": { "type": "Point", "coordinates": [ 11.98963, 57.43105 ] } },
{ "type": "Feature", "properties": { "osm_id": "r15070666", "namn": null, "niva": "Regionnät 40–70 kV", "spanning_kv": 55.0, "spanningar": "55", "typ": "Distribution", "operator": null, "yta_m2": 3155.0, "kommun": "Kungsbacka", "i_halland": true, "svk_station": false }, "geometry": { "type": "Point", "coordinates": [ 12.01339, 57.46918 ] } },
{ "type": "Feature", "properties": { "osm_id": "r15070846", "namn": null, "niva": "Regionnät 40–70 kV", "spanning_kv": 55.0, "spanningar": "55", "typ": "Distribution", "operator": null, "yta_m2": 1645.0, "kommun": "Mark", "i_halland": false, "svk_station": false }, "geometry": { "type": "Point", "coordinates": [ 12.42273, 57.5432 ] } },
{ "type": "Feature", "properties": { "osm_id": "r15070848", "namn": null, "niva": "Regionnät 40–70 kV", "spanning_kv": 55.0, "spanningar": "55", "typ": "Distribution", "operator": null, "yta_m2": 1903.0, "kommun": "Kungsbacka", "i_halland": true, "svk_station": false }, "geometry": { "type": "Point", "coordinates": [ 12.24292, 57.48775 ] } },
{ "type": "Feature", "properties": { "osm_id": "r15070950", "namn": "Lahall", "niva": "Regionnät 130 kV", "spanning_kv": 132.0, "spanningar": "132", "typ": "Transmission", "operator": null, "yta_m2": 10245.0, "kommun": "Varberg", "i_halland": true, "svk_station": true }, "geometry": { "type": "Point", "coordinates": [ 12.17517, 57.23329 ] } },
{ "type": "Feature", "properties": { "osm_id": "r15070954", "namn": null, "niva": "Regionnät 40–70 kV", "spanning_kv": 55.0, "spanningar": "55", "typ": "Distribution", "operator": null, "yta_m2": 1747.0, "kommun": "Varberg", "i_halland": true, "svk_station": false }, "geometry": { "type": "Point", "coordinates": [ 12.35595, 57.27395 ] } },
{ "type": "Feature", "properties": { "osm_id": "r15070956", "namn": null, "niva": "Regionnät 40–70 kV", "spanning_kv": 55.0, "spanningar": "55", "typ": "Distribution", "operator": null, "yta_m2": 1875.0, "kommun": "Kungsbacka", "i_halland": true, "svk_station": false }, "geometry": { "type": "Point", "coordinates": [ 12.19142, 57.32007 ] } },
{ "type": "Feature", "properties": { "osm_id": "r15070957", "namn": null, "niva": "Regionnät 40–70 kV", "spanning_kv": 55.0, "spanningar": "55", "typ": "Distribution", "operator": null, "yta_m2": 1993.0, "kommun": "Kungsbacka", "i_halland": true, "svk_station": false }, "geometry": { "type": "Point", "coordinates": [ 12.12409, 57.35788 ] } },
{ "type": "Feature", "properties": { "osm_id": "r15071179", "namn": null, "niva": "Regionnät 40–70 kV", "spanning_kv": 45.0, "spanningar": "45", "typ": "Distribution", "operator": null, "yta_m2": 846.0, "kommun": "Mark", "i_halland": false, "svk_station": false }, "geometry": { "type": "Point", "coordinates": [ 12.53363, 57.42375 ] } },
{ "type": "Feature", "properties": { "osm_id": "r15071404", "namn": "Holmagärde", "niva": "Regionnät 130 kV", "spanning_kv": 132.0, "spanningar": "132;55", "typ": "Transmission", "operator": "Ellevio", "yta_m2": 10169.0, "kommun": "Varberg", "i_halland": true, "svk_station": false }, "geometry": { "type": "Point", "coordinates": [ 12.30269, 57.12732 ] } },
{ "type": "Feature", "properties": { "osm_id": "r15071406", "namn": null, "niva": "Regionnät 40–70 kV", "spanning_kv": 55.0, "spanningar": "55", "typ": "Distribution", "operator": null, "yta_m2": 1319.0, "kommun": "Varberg", "i_halland": true, "svk_station": false }, "geometry": { "type": "Point", "coordinates": [ 12.30228, 57.17397 ] } },
{ "type": "Feature", "properties": { "osm_id": "r15074064", "namn": null, "niva": "Regionnät 130 kV", "spanning_kv": 132.0, "spanningar": "132", "typ": "Distribution", "operator": null, "yta_m2": 2488.0, "kommun": "Varberg", "i_halland": true, "svk_station": false }, "geometry": { "type": "Point", "coordinates": [ 12.36747, 57.04365 ] } },
{ "type": "Feature", "properties": { "osm_id": "r15074508", "namn": null, "niva": "Regionnät 130 kV", "spanning_kv": 132.0, "spanningar": "132", "typ": "Distribution", "operator": null, "yta_m2": 3140.0, "kommun": "Falkenberg", "i_halland": true, "svk_station": false }, "geometry": { "type": "Point", "coordinates": [ 12.60595, 56.86705 ] } },
{ "type": "Feature", "properties": { "osm_id": "r15074511", "namn": null, "niva": "Regionnät 130 kV", "spanning_kv": 132.0, "spanningar": "132", "typ": "Distribution", "operator": null, "yta_m2": 3123.0, "kommun": "Falkenberg", "i_halland": true, "svk_station": false }, "geometry": { "type": "Point", "coordinates": [ 12.46994, 56.9104 ] } },
{ "type": "Feature", "properties": { "osm_id": "r15075137", "namn": "Hovgård", "niva": "Regionnät 130 kV", "spanning_kv": 132.0, "spanningar": "132", "typ": "Distribution", "operator": null, "yta_m2": 2303.0, "kommun": "Halmstad", "i_halland": true, "svk_station": false }, "geometry": { "type": "Point", "coordinates": [ 12.78281, 56.67115 ] } },
{ "type": "Feature", "properties": { "osm_id": "r15080551", "namn": null, "niva": "Regionnät 40–70 kV", "spanning_kv": 45.0, "spanningar": "45", "typ": "Distribution", "operator": null, "yta_m2": 1483.0, "kommun": "Gislaved", "i_halland": false, "svk_station": false }, "geometry": { "type": "Point", "coordinates": [ 13.38925, 57.1234 ] } },
{ "type": "Feature", "properties": { "osm_id": "r15080554", "namn": null, "niva": "Regionnät 130 kV", "spanning_kv": 132.0, "spanningar": "132", "typ": "Distribution", "operator": null, "yta_m2": 7023.0, "kommun": "Hylte", "i_halland": true, "svk_station": false }, "geometry": { "type": "Point", "coordinates": [ 13.22639, 56.99565 ] } },
{ "type": "Feature", "properties": { "osm_id": "r15080555", "namn": null, "niva": "Regionnät 40–70 kV", "spanning_kv": 45.0, "spanningar": "45", "typ": "Distribution", "operator": null, "yta_m2": 693.0, "kommun": "Hylte", "i_halland": true, "svk_station": false }, "geometry": { "type": "Point", "coordinates": [ 13.2654, 57.08024 ] } },
{ "type": "Feature", "properties": { "osm_id": "r15080557", "namn": null, "niva": "Regionnät 40–70 kV", "spanning_kv": 45.0, "spanningar": "45", "typ": "Distribution", "operator": null, "yta_m2": 1285.0, "kommun": "Hylte", "i_halland": true, "svk_station": false }, "geometry": { "type": "Point", "coordinates": [ 13.10136, 57.01609 ] } },
{ "type": "Feature", "properties": { "osm_id": "r15081847", "namn": null, "niva": "Regionnät 40–70 kV", "spanning_kv": 45.0, "spanningar": "45", "typ": "Distribution", "operator": null, "yta_m2": 949.0, "kommun": "Gislaved", "i_halland": false, "svk_station": false }, "geometry": { "type": "Point", "coordinates": [ 13.54708, 57.30156 ] } },
{ "type": "Feature", "properties": { "osm_id": "r15084521", "namn": "Skåpanäs", "niva": "Regionnät 40–70 kV", "spanning_kv": 55.0, "spanningar": "55", "typ": "Distribution", "operator": null, "yta_m2": 5692.0, "kommun": "Svenljunga", "i_halland": false, "svk_station": false }, "geometry": { "type": "Point", "coordinates": [ 12.96683, 57.18918 ] } },
{ "type": "Feature", "properties": { "osm_id": "r15087551", "namn": null, "niva": "Regionnät 40–70 kV", "spanning_kv": 45.0, "spanningar": "45", "typ": "Distribution", "operator": null, "yta_m2": 1525.0, "kommun": "Värnamo", "i_halland": false, "svk_station": false }, "geometry": { "type": "Point", "coordinates": [ 13.8442, 57.16428 ] } },
{ "type": "Feature", "properties": { "osm_id": "r15087553", "namn": null, "niva": "Regionnät 40–70 kV", "spanning_kv": 45.0, "spanningar": "45", "typ": "Distribution", "operator": null, "yta_m2": 1069.0, "kommun": "Värnamo", "i_halland": false, "svk_station": false }, "geometry": { "type": "Point", "coordinates": [ 13.76083, 57.16316 ] } },
{ "type": "Feature", "properties": { "osm_id": "r15091529", "namn": null, "niva": "Regionnät 130 kV", "spanning_kv": 132.0, "spanningar": "132;45", "typ": "Transmission", "operator": null, "yta_m2": 4126.0, "kommun": "Laholm", "i_halland": true, "svk_station": false }, "geometry": { "type": "Point", "coordinates": [ 13.10261, 56.50222 ] } },
{ "type": "Feature", "properties": { "osm_id": "r15092013", "namn": "Skogaby", "niva": "Regionnät 40–70 kV", "spanning_kv": 45.0, "spanningar": "45", "typ": "Transmission", "operator": null, "yta_m2": 2939.0, "kommun": "Laholm", "i_halland": true, "svk_station": false }, "geometry": { "type": "Point", "coordinates": [ 13.18051, 56.51988 ] } },
{ "type": "Feature", "properties": { "osm_id": "r15092016", "namn": "Knäred", "niva": "Regionnät 130 kV", "spanning_kv": 132.0, "spanningar": "132;45", "typ": "Transmission", "operator": null, "yta_m2": 3878.0, "kommun": "Laholm", "i_halland": true, "svk_station": false }, "geometry": { "type": "Point", "coordinates": [ 13.35029, 56.50895 ] } },
{ "type": "Feature", "properties": { "osm_id": "r15094191", "namn": null, "niva": "Regionnät 40–70 kV", "spanning_kv": 45.0, "spanningar": "45", "typ": "Distribution", "operator": null, "yta_m2": 1666.0, "kommun": "Ängelholm", "i_halland": false, "svk_station": false }, "geometry": { "type": "Point", "coordinates": [ 12.85789, 56.22505 ] } },
{ "type": "Feature", "properties": { "osm_id": "r15094723", "namn": null, "niva": "Regionnät 130 kV", "spanning_kv": 132.0, "spanningar": "132;45", "typ": "Distribution", "operator": null, "yta_m2": 12558.0, "kommun": "Höganäs", "i_halland": false, "svk_station": false }, "geometry": { "type": "Point", "coordinates": [ 12.59659, 56.18917 ] } },
{ "type": "Feature", "properties": { "osm_id": "r15101376", "namn": null, "niva": "Regionnät 40–70 kV", "spanning_kv": 45.0, "spanningar": "45", "typ": "Distribution", "operator": null, "yta_m2": 3523.0, "kommun": "Markaryd", "i_halland": false, "svk_station": false }, "geometry": { "type": "Point", "coordinates": [ 13.59422, 56.463 ] } },
{ "type": "Feature", "properties": { "osm_id": "r15102181", "namn": null, "niva": "Regionnät 130 kV", "spanning_kv": 132.0, "spanningar": "132", "typ": "Distribution", "operator": null, "yta_m2": 461.0, "kommun": "Ljungby", "i_halland": false, "svk_station": false }, "geometry": { "type": "Point", "coordinates": [ 13.87514, 56.97993 ] } },
{ "type": "Feature", "properties": { "osm_id": "r15102183", "namn": null, "niva": "Regionnät 40–70 kV", "spanning_kv": 45.0, "spanningar": "45", "typ": "Distribution", "operator": null, "yta_m2": 1592.0, "kommun": "Ljungby", "i_halland": false, "svk_station": false }, "geometry": { "type": "Point", "coordinates": [ 13.92309, 56.84669 ] } },
{ "type": "Feature", "properties": { "osm_id": "r15102185", "namn": null, "niva": "Regionnät 40–70 kV", "spanning_kv": 45.0, "spanningar": "45", "typ": "Distribution", "operator": null, "yta_m2": 1491.0, "kommun": "Ljungby", "i_halland": false, "svk_station": false }, "geometry": { "type": "Point", "coordinates": [ 13.91432, 56.8195 ] } },
{ "type": "Feature", "properties": { "osm_id": "r15102187", "namn": null, "niva": "Regionnät 130 kV", "spanning_kv": 132.0, "spanningar": "132", "typ": "Distribution", "operator": null, "yta_m2": 1522.0, "kommun": "Markaryd", "i_halland": false, "svk_station": false }, "geometry": { "type": "Point", "coordinates": [ 13.48826, 56.603 ] } },
{ "type": "Feature", "properties": { "osm_id": "r15195783", "namn": null, "niva": "Regionnät 40–70 kV", "spanning_kv": 45.0, "spanningar": "45", "typ": "Distribution", "operator": null, "yta_m2": 631.0, "kommun": "Ljungby", "i_halland": false, "svk_station": false }, "geometry": { "type": "Point", "coordinates": [ 13.43727, 56.83371 ] } },
{ "type": "Feature", "properties": { "osm_id": "r15195785", "namn": null, "niva": "Regionnät 40–70 kV", "spanning_kv": 45.0, "spanningar": "45", "typ": "Distribution", "operator": null, "yta_m2": 1115.0, "kommun": "Hylte", "i_halland": true, "svk_station": false }, "geometry": { "type": "Point", "coordinates": [ 13.52329, 56.95717 ] } },
{ "type": "Feature", "properties": { "osm_id": "r15257271", "namn": null, "niva": "Regionnät 40–70 kV", "spanning_kv": 45.0, "spanningar": "45", "typ": "Distribution", "operator": null, "yta_m2": 1098.0, "kommun": "Gislaved", "i_halland": false, "svk_station": false }, "geometry": { "type": "Point", "coordinates": [ 13.63051, 57.28508 ] } },
{ "type": "Feature", "properties": { "osm_id": "r15257273", "namn": null, "niva": "Regionnät 40–70 kV", "spanning_kv": 45.0, "spanningar": "45", "typ": "Industri", "operator": null, "yta_m2": 513.0, "kommun": "Gnosjö", "i_halland": false, "svk_station": false }, "geometry": { "type": "Point", "coordinates": [ 13.81709, 57.29542 ] } },
{ "type": "Feature", "properties": { "osm_id": "r15257275", "namn": null, "niva": "Regionnät 40–70 kV", "spanning_kv": 45.0, "spanningar": "45", "typ": "Distribution", "operator": null, "yta_m2": 605.0, "kommun": "Gnosjö", "i_halland": false, "svk_station": false }, "geometry": { "type": "Point", "coordinates": [ 13.78566, 57.26658 ] } },
{ "type": "Feature", "properties": { "osm_id": "r15257276", "namn": "Fänestad transformatorstation", "niva": "Regionnät 130 kV", "spanning_kv": 132.0, "spanningar": "132", "typ": "Distribution", "operator": null, "yta_m2": 4656.0, "kommun": "Värnamo", "i_halland": false, "svk_station": false }, "geometry": { "type": "Point", "coordinates": [ 13.84957, 57.19513 ] } },
{ "type": "Feature", "properties": { "osm_id": "r16117907", "namn": null, "niva": "Regionnät 40–70 kV", "spanning_kv": 45.0, "spanningar": "45", "typ": "ej angiven", "operator": null, "yta_m2": 2525.0, "kommun": "Halmstad", "i_halland": true, "svk_station": false }, "geometry": { "type": "Point", "coordinates": [ 13.00791, 56.84211 ] } },
{ "type": "Feature", "properties": { "osm_id": "w72878594", "namn": null, "niva": "Okänd spänning", "spanning_kv": null, "spanningar": null, "typ": "Distribution", "operator": null, "yta_m2": 38.0, "kommun": "Göteborg", "i_halland": false, "svk_station": false }, "geometry": { "type": "Point", "coordinates": [ 11.86678, 57.65082 ] } },
{ "type": "Feature", "properties": { "osm_id": "w72878621", "namn": null, "niva": "Okänd spänning", "spanning_kv": null, "spanningar": null, "typ": "Distribution", "operator": null, "yta_m2": 25.0, "kommun": "Göteborg", "i_halland": false, "svk_station": false }, "geometry": { "type": "Point", "coordinates": [ 11.86694, 57.65265 ] } },
{ "type": "Feature", "properties": { "osm_id": "w73849320", "namn": null, "niva": "Okänd spänning", "spanning_kv": null, "spanningar": null, "typ": "Distribution", "operator": null, "yta_m2": 54.0, "kommun": "Göteborg", "i_halland": false, "svk_station": false }, "geometry": { "type": "Point", "coordinates": [ 11.86225, 57.66541 ] } },
{ "type": "Feature", "properties": { "osm_id": "w77191742", "namn": null, "niva": "Okänd spänning", "spanning_kv": null, "spanningar": null, "typ": "Distribution", "operator": null, "yta_m2": 17.0, "kommun": "Göteborg", "i_halland": false, "svk_station": false }, "geometry": { "type": "Point", "coordinates": [ 11.8748, 57.67983 ] } },
{ "type": "Feature", "properties": { "osm_id": "w93219590", "namn": null, "niva": "Okänd spänning", "spanning_kv": null, "spanningar": null, "typ": "Distribution", "operator": null, "yta_m2": 39.0, "kommun": "Göteborg", "i_halland": false, "svk_station": false }, "geometry": { "type": "Point", "coordinates": [ 11.9475, 57.73235 ] } },
{ "type": "Feature", "properties": { "osm_id": "w113109538", "namn": null, "niva": "Okänd spänning", "spanning_kv": null, "spanningar": null, "typ": "Distribution", "operator": null, "yta_m2": 19.0, "kommun": "Göteborg", "i_halland": false, "svk_station": false }, "geometry": { "type": "Point", "coordinates": [ 11.91018, 57.70637 ] } },
{ "type": "Feature", "properties": { "osm_id": "w113109545", "namn": null, "niva": "Okänd spänning", "spanning_kv": null, "spanningar": null, "typ": "Distribution", "operator": null, "yta_m2": 15.0, "kommun": "Göteborg", "i_halland": false, "svk_station": false }, "geometry": { "type": "Point", "coordinates": [ 11.91005, 57.70653 ] } },
{ "type": "Feature", "properties": { "osm_id": "w138557425", "namn": null, "niva": "Okänd spänning", "spanning_kv": null, "spanningar": null, "typ": "Distribution", "operator": null, "yta_m2": 16.0, "kommun": "Göteborg", "i_halland": false, "svk_station": false }, "geometry": { "type": "Point", "coordinates": [ 11.93105, 57.68107 ] } },
{ "type": "Feature", "properties": { "osm_id": "w142700580", "namn": "4216", "niva": "Okänd spänning", "spanning_kv": null, "spanningar": null, "typ": "Distribution", "operator": null, "yta_m2": 17.0, "kommun": "Göteborg", "i_halland": false, "svk_station": false }, "geometry": { "type": "Point", "coordinates": [ 11.94068, 57.66554 ] } },
{ "type": "Feature", "properties": { "osm_id": "w142700582", "namn": "4236", "niva": "Okänd spänning", "spanning_kv": null, "spanningar": null, "typ": "Distribution", "operator": null, "yta_m2": 41.0, "kommun": "Göteborg", "i_halland": false, "svk_station": false }, "geometry": { "type": "Point", "coordinates": [ 11.93988, 57.66766 ] } },
{ "type": "Feature", "properties": { "osm_id": "w143033477", "namn": "4235", "niva": "Okänd spänning", "spanning_kv": null, "spanningar": null, "typ": "Distribution", "operator": null, "yta_m2": 17.0, "kommun": "Göteborg", "i_halland": false, "svk_station": false }, "geometry": { "type": "Point", "coordinates": [ 11.94329, 57.664 ] } },
{ "type": "Feature", "properties": { "osm_id": "w159490058", "namn": null, "niva": "Okänd spänning", "spanning_kv": null, "spanningar": null, "typ": "Distribution", "operator": null, "yta_m2": 40.0, "kommun": "Göteborg", "i_halland": false, "svk_station": false }, "geometry": { "type": "Point", "coordinates": [ 11.87941, 57.66084 ] } },
{ "type": "Feature", "properties": { "osm_id": "w159663254", "namn": null, "niva": "Okänd spänning", "spanning_kv": null, "spanningar": null, "typ": "Distribution", "operator": null, "yta_m2": 41.0, "kommun": "Göteborg", "i_halland": false, "svk_station": false }, "geometry": { "type": "Point", "coordinates": [ 11.88832, 57.66119 ] } },
{ "type": "Feature", "properties": { "osm_id": "w160485036", "namn": null, "niva": "Okänd spänning", "spanning_kv": null, "spanningar": null, "typ": "Distribution", "operator": null, "yta_m2": 22.0, "kommun": "Göteborg", "i_halland": false, "svk_station": false }, "geometry": { "type": "Point", "coordinates": [ 11.88118, 57.67345 ] } },
{ "type": "Feature", "properties": { "osm_id": "w161201248", "namn": null, "niva": "Okänd spänning", "spanning_kv": null, "spanningar": null, "typ": "Distribution", "operator": null, "yta_m2": 18.0, "kommun": "Göteborg", "i_halland": false, "svk_station": false }, "geometry": { "type": "Point", "coordinates": [ 11.8781, 57.64205 ] } },
{ "type": "Feature", "properties": { "osm_id": "w161409580", "namn": null, "niva": "Okänd spänning", "spanning_kv": null, "spanningar": null, "typ": "Distribution", "operator": null, "yta_m2": 17.0, "kommun": "Göteborg", "i_halland": false, "svk_station": false }, "geometry": { "type": "Point", "coordinates": [ 11.87281, 57.63801 ] } },
{ "type": "Feature", "properties": { "osm_id": "w161579043", "namn": null, "niva": "Okänd spänning", "spanning_kv": null, "spanningar": null, "typ": "Distribution", "operator": null, "yta_m2": 33.0, "kommun": "Göteborg", "i_halland": false, "svk_station": false }, "geometry": { "type": "Point", "coordinates": [ 11.86148, 57.64565 ] } },
{ "type": "Feature", "properties": { "osm_id": "w161579049", "namn": null, "niva": "Okänd spänning", "spanning_kv": null, "spanningar": null, "typ": "Distribution", "operator": null, "yta_m2": 17.0, "kommun": "Göteborg", "i_halland": false, "svk_station": false }, "geometry": { "type": "Point", "coordinates": [ 11.86101, 57.64551 ] } },
{ "type": "Feature", "properties": { "osm_id": "w161764702", "namn": null, "niva": "Okänd spänning", "spanning_kv": null, "spanningar": null, "typ": "Distribution", "operator": null, "yta_m2": 38.0, "kommun": "Göteborg", "i_halland": false, "svk_station": false }, "geometry": { "type": "Point", "coordinates": [ 11.864, 57.6474 ] } },
{ "type": "Feature", "properties": { "osm_id": "w162116280", "namn": null, "niva": "Okänd spänning", "spanning_kv": null, "spanningar": null, "typ": "Distribution", "operator": null, "yta_m2": 40.0, "kommun": "Göteborg", "i_halland": false, "svk_station": false }, "geometry": { "type": "Point", "coordinates": [ 11.86703, 57.65412 ] } },
{ "type": "Feature", "properties": { "osm_id": "w162250960", "namn": null, "niva": "Okänd spänning", "spanning_kv": null, "spanningar": null, "typ": "Distribution", "operator": null, "yta_m2": 39.0, "kommun": "Göteborg", "i_halland": false, "svk_station": false }, "geometry": { "type": "Point", "coordinates": [ 11.86813, 57.65617 ] } },
{ "type": "Feature", "properties": { "osm_id": "w162392059", "namn": null, "niva": "Okänd spänning", "spanning_kv": null, "spanningar": null, "typ": "Distribution", "operator": null, "yta_m2": 17.0, "kommun": "Göteborg", "i_halland": false, "svk_station": false }, "geometry": { "type": "Point", "coordinates": [ 11.86479, 57.65942 ] } },
{ "type": "Feature", "properties": { "osm_id": "w163003793", "namn": null, "niva": "Okänd spänning", "spanning_kv": null, "spanningar": null, "typ": "Distribution", "operator": null, "yta_m2": 23.0, "kommun": "Göteborg", "i_halland": false, "svk_station": false }, "geometry": { "type": "Point", "coordinates": [ 11.87011, 57.66387 ] } },
{ "type": "Feature", "properties": { "osm_id": "w163099147", "namn": null, "niva": "Okänd spänning", "spanning_kv": null, "spanningar": null, "typ": "Distribution", "operator": null, "yta_m2": 24.0, "kommun": "Göteborg", "i_halland": false, "svk_station": false }, "geometry": { "type": "Point", "coordinates": [ 11.86589, 57.66325 ] } },
{ "type": "Feature", "properties": { "osm_id": "w163290151", "namn": null, "niva": "Okänd spänning", "spanning_kv": null, "spanningar": null, "typ": "Distribution", "operator": null, "yta_m2": 16.0, "kommun": "Göteborg", "i_halland": false, "svk_station": false }, "geometry": { "type": "Point", "coordinates": [ 11.86191, 57.66589 ] } },
{ "type": "Feature", "properties": { "osm_id": "w164634409", "namn": null, "niva": "Okänd spänning", "spanning_kv": null, "spanningar": null, "typ": "Distribution", "operator": null, "yta_m2": 20.0, "kommun": "Göteborg", "i_halland": false, "svk_station": false }, "geometry": { "type": "Point", "coordinates": [ 11.85522, 57.66963 ] } },
{ "type": "Feature", "properties": { "osm_id": "w164634410", "namn": null, "niva": "Okänd spänning", "spanning_kv": null, "spanningar": null, "typ": "Distribution", "operator": null, "yta_m2": 29.0, "kommun": "Göteborg", "i_halland": false, "svk_station": false }, "geometry": { "type": "Point", "coordinates": [ 11.85479, 57.66945 ] } },
{ "type": "Feature", "properties": { "osm_id": "w165941585", "namn": null, "niva": "Okänd spänning", "spanning_kv": null, "spanningar": null, "typ": "Distribution", "operator": null, "yta_m2": 19.0, "kommun": "Göteborg", "i_halland": false, "svk_station": false }, "geometry": { "type": "Point", "coordinates": [ 11.88055, 57.67465 ] } },
{ "type": "Feature", "properties": { "osm_id": "w166624936", "namn": null, "niva": "Okänd spänning", "spanning_kv": null, "spanningar": null, "typ": "Distribution", "operator": null, "yta_m2": 26.0, "kommun": "Göteborg", "i_halland": false, "svk_station": false }, "geometry": { "type": "Point", "coordinates": [ 11.99684, 57.68859 ] } },
{ "type": "Feature", "properties": { "osm_id": "w171431792", "namn": null, "niva": "Okänd spänning", "spanning_kv": null, "spanningar": null, "typ": "Distribution", "operator": null, "yta_m2": 21.0, "kommun": "Göteborg", "i_halland": false, "svk_station": false }, "geometry": { "type": "Point", "coordinates": [ 11.95378, 57.74902 ] } },
{ "type": "Feature", "properties": { "osm_id": "w174956200", "namn": null, "niva": "Okänd spänning", "spanning_kv": null, "spanningar": null, "typ": "Distribution", "operator": null, "yta_m2": 26.0, "kommun": "Göteborg", "i_halland": false, "svk_station": false }, "geometry": { "type": "Point", "coordinates": [ 11.89506, 57.6344 ] } },
{ "type": "Feature", "properties": { "osm_id": "w174958970", "namn": null, "niva": "Okänd spänning", "spanning_kv": null, "spanningar": null, "typ": "Distribution", "operator": null, "yta_m2": 22.0, "kommun": "Göteborg", "i_halland": false, "svk_station": false }, "geometry": { "type": "Point", "coordinates": [ 11.89622, 57.63197 ] } },
{ "type": "Feature", "properties": { "osm_id": "w175236177", "namn": null, "niva": "Okänd spänning", "spanning_kv": null, "spanningar": null, "typ": "Distribution", "operator": null, "yta_m2": 25.0, "kommun": "Göteborg", "i_halland": false, "svk_station": false }, "geometry": { "type": "Point", "coordinates": [ 11.89934, 57.63008 ] } },
{ "type": "Feature", "properties": { "osm_id": "w175697735", "namn": null, "niva": "Okänd spänning", "spanning_kv": null, "spanningar": null, "typ": "Distribution", "operator": null, "yta_m2": 26.0, "kommun": "Göteborg", "i_halland": false, "svk_station": false }, "geometry": { "type": "Point", "coordinates": [ 11.91603, 57.64467 ] } },
{ "type": "Feature", "properties": { "osm_id": "w175701980", "namn": null, "niva": "Okänd spänning", "spanning_kv": null, "spanningar": null, "typ": "Distribution", "operator": null, "yta_m2": 21.0, "kommun": "Göteborg", "i_halland": false, "svk_station": false }, "geometry": { "type": "Point", "coordinates": [ 11.94652, 57.60531 ] } },
{ "type": "Feature", "properties": { "osm_id": "w175967916", "namn": null, "niva": "Okänd spänning", "spanning_kv": null, "spanningar": null, "typ": "Distribution", "operator": null, "yta_m2": 10.0, "kommun": "Göteborg", "i_halland": false, "svk_station": false }, "geometry": { "type": "Point", "coordinates": [ 11.94464, 57.60109 ] } },
{ "type": "Feature", "properties": { "osm_id": "w176129975", "namn": null, "niva": "Okänd spänning", "spanning_kv": null, "spanningar": null, "typ": "Distribution", "operator": null, "yta_m2": 10.0, "kommun": "Göteborg", "i_halland": false, "svk_station": false }, "geometry": { "type": "Point", "coordinates": [ 11.92527, 57.66898 ] } },
{ "type": "Feature", "properties": { "osm_id": "w177563405", "namn": "4150", "niva": "Okänd spänning", "spanning_kv": null, "spanningar": null, "typ": "Distribution", "operator": null, "yta_m2": 26.0, "kommun": "Göteborg", "i_halland": false, "svk_station": false }, "geometry": { "type": "Point", "coordinates": [ 11.93975, 57.66513 ] } },
{ "type": "Feature", "properties": { "osm_id": "w177690932", "namn": null, "niva": "Okänd spänning", "spanning_kv": null, "spanningar": null, "typ": "Distribution", "operator": null, "yta_m2": 12.0, "kommun": "Göteborg", "i_halland": false, "svk_station": false }, "geometry": { "type": "Point", "coordinates": [ 11.95241, 57.68655 ] } },
{ "type": "Feature", "properties": { "osm_id": "w212772473", "namn": null, "niva": "Okänd spänning", "spanning_kv": null, "spanningar": null, "typ": "Distribution", "operator": null, "yta_m2": 20.0, "kommun": "Göteborg", "i_halland": false, "svk_station": false }, "geometry": { "type": "Point", "coordinates": [ 12.03186, 57.78953 ] } },
{ "type": "Feature", "properties": { "osm_id": "w236856085", "namn": "S9", "niva": "Regionnät 130 kV", "spanning_kv": 150.0, "spanningar": "150;10;690", "typ": "ej angiven", "operator": "Liseberg", "yta_m2": 85.0, "kommun": "Göteborg", "i_halland": false, "svk_station": false }, "geometry": { "type": "Point", "coordinates": [ 11.99175, 57.695 ] } },
{ "type": "Feature", "properties": { "osm_id": "w244354936", "namn": null, "niva": "Okänd spänning", "spanning_kv": null, "spanningar": null, "typ": "Distribution", "operator": null, "yta_m2": 40.0, "kommun": "Halmstad", "i_halland": true, "svk_station": false }, "geometry": { "type": "Point", "coordinates": [ 12.85853, 56.6791 ] } },
{ "type": "Feature", "properties": { "osm_id": "w245346295", "namn": null, "niva": "Okänd spänning", "spanning_kv": null, "spanningar": null, "typ": "Distribution", "operator": "HEM", "yta_m2": 837.0, "kommun": "Halmstad", "i_halland": true, "svk_station": false }, "geometry": { "type": "Point", "coordinates": [ 12.86741, 56.67601 ] } },
{ "type": "Feature", "properties": { "osm_id": "w250429988", "namn": null, "niva": "Okänd spänning", "spanning_kv": null, "spanningar": null, "typ": "Distribution", "operator": null, "yta_m2": 42.0, "kommun": "Göteborg", "i_halland": false, "svk_station": false }, "geometry": { "type": "Point", "coordinates": [ 11.89473, 57.62551 ] } },
{ "type": "Feature", "properties": { "osm_id": "w250816362", "namn": null, "niva": "Okänd spänning", "spanning_kv": null, "spanningar": null, "typ": "Distribution", "operator": null, "yta_m2": 12.0, "kommun": "Göteborg", "i_halland": false, "svk_station": false }, "geometry": { "type": "Point", "coordinates": [ 11.88454, 57.62295 ] } },
{ "type": "Feature", "properties": { "osm_id": "w275004463", "namn": null, "niva": "Okänd spänning", "spanning_kv": null, "spanningar": null, "typ": "Distribution", "operator": null, "yta_m2": 23.0, "kommun": "Göteborg", "i_halland": false, "svk_station": false }, "geometry": { "type": "Point", "coordinates": [ 11.89398, 57.66725 ] } },
{ "type": "Feature", "properties": { "osm_id": "w288844916", "namn": null, "niva": "Okänd spänning", "spanning_kv": null, "spanningar": null, "typ": "Distribution", "operator": null, "yta_m2": 23.0, "kommun": "Göteborg", "i_halland": false, "svk_station": false }, "geometry": { "type": "Point", "coordinates": [ 12.0039, 57.67759 ] } },
{ "type": "Feature", "properties": { "osm_id": "w303956552", "namn": null, "niva": "Okänd spänning", "spanning_kv": null, "spanningar": null, "typ": "Distribution", "operator": null, "yta_m2": 41.0, "kommun": "Göteborg", "i_halland": false, "svk_station": false }, "geometry": { "type": "Point", "coordinates": [ 11.96785, 57.68919 ] } },
{ "type": "Feature", "properties": { "osm_id": "w309564440", "namn": null, "niva": "Okänd spänning", "spanning_kv": null, "spanningar": null, "typ": "Distribution", "operator": null, "yta_m2": 18.0, "kommun": "Göteborg", "i_halland": false, "svk_station": false }, "geometry": { "type": "Point", "coordinates": [ 11.92621, 57.70915 ] } },
{ "type": "Feature", "properties": { "osm_id": "w337045385", "namn": null, "niva": "Okänd spänning", "spanning_kv": null, "spanningar": null, "typ": "Distribution", "operator": null, "yta_m2": 26.0, "kommun": "Halmstad", "i_halland": true, "svk_station": false }, "geometry": { "type": "Point", "coordinates": [ 12.87372, 56.68233 ] } },
{ "type": "Feature", "properties": { "osm_id": "w360770055", "namn": null, "niva": "Regionnät 40–70 kV", "spanning_kv": 55.0, "spanningar": "55", "typ": "Industri", "operator": null, "yta_m2": 92.0, "kommun": "Varberg", "i_halland": true, "svk_station": false }, "geometry": { "type": "Point", "coordinates": [ 12.40151, 57.11437 ] } },
{ "type": "Feature", "properties": { "osm_id": "w618280796", "namn": null, "niva": "Okänd spänning", "spanning_kv": null, "spanningar": null, "typ": "Distribution", "operator": null, "yta_m2": 13.0, "kommun": "Göteborg", "i_halland": false, "svk_station": false }, "geometry": { "type": "Point", "coordinates": [ 11.95695, 57.69559 ] } },
{ "type": "Feature", "properties": { "osm_id": "w670711849", "namn": null, "niva": "Okänd spänning", "spanning_kv": null, "spanningar": null, "typ": "Distribution", "operator": null, "yta_m2": 46.0, "kommun": "Göteborg", "i_halland": false, "svk_station": false }, "geometry": { "type": "Point", "coordinates": [ 12.00057, 57.6874 ] } },
{ "type": "Feature", "properties": { "osm_id": "w824682635", "namn": null, "niva": "Okänd spänning", "spanning_kv": null, "spanningar": null, "typ": "Distribution", "operator": null, "yta_m2": 23.0, "kommun": "Göteborg", "i_halland": false, "svk_station": false }, "geometry": { "type": "Point", "coordinates": [ 12.02588, 57.79652 ] } },
{ "type": "Feature", "properties": { "osm_id": "w825732593", "namn": null, "niva": "Okänd spänning", "spanning_kv": null, "spanningar": null, "typ": "Distribution", "operator": null, "yta_m2": 5.0, "kommun": "Göteborg", "i_halland": false, "svk_station": false }, "geometry": { "type": "Point", "coordinates": [ 11.85373, 57.67712 ] } },
{ "type": "Feature", "properties": { "osm_id": "w1074478952", "namn": "Station Håve", "niva": "Regionnät 130 kV", "spanning_kv": 132.0, "spanningar": "132", "typ": "Distribution", "operator": null, "yta_m2": 399.0, "kommun": "Ängelholm", "i_halland": false, "svk_station": false }, "geometry": { "type": "Point", "coordinates": [ 12.87511, 56.24841 ] } },
{ "type": "Feature", "properties": { "osm_id": "w1122156566", "namn": null, "niva": "Okänd spänning", "spanning_kv": null, "spanningar": null, "typ": "Distribution", "operator": null, "yta_m2": 14.0, "kommun": "Göteborg", "i_halland": false, "svk_station": false }, "geometry": { "type": "Point", "coordinates": [ 11.97018, 57.68838 ] } },
{ "type": "Feature", "properties": { "osm_id": "w1174213568", "namn": null, "niva": "Okänd spänning", "spanning_kv": null, "spanningar": null, "typ": "Distribution", "operator": null, "yta_m2": 51.0, "kommun": "Göteborg", "i_halland": false, "svk_station": false }, "geometry": { "type": "Point", "coordinates": [ 11.96452, 57.69209 ] } },
{ "type": "Feature", "properties": { "osm_id": null, "namn": "Svk-station (id 5)", "niva": "Transmissionsnät (Svk)", "spanning_kv": null, "spanningar": null, "typ": "Transmission", "operator": "Svenska kraftnät", "yta_m2": null, "kommun": "Göteborg", "i_halland": false, "svk_station": true }, "geometry": { "type": "Point", "coordinates": [ 11.97403, 57.56972 ] } },
{ "type": "Feature", "properties": { "osm_id": null, "namn": "Svk-station (id 12)", "niva": "Transmissionsnät (Svk)", "spanning_kv": null, "spanningar": null, "typ": "Transmission", "operator": "Svenska kraftnät", "yta_m2": null, "kommun": "Kungsbacka", "i_halland": true, "svk_station": true }, "geometry": { "type": "Point", "coordinates": [ 11.88505, 57.51471 ] } },
{ "type": "Feature", "properties": { "osm_id": null, "namn": "Svk-station (id 14)", "niva": "Transmissionsnät (Svk)", "spanning_kv": null, "spanningar": null, "typ": "Transmission", "operator": "Svenska kraftnät", "yta_m2": null, "kommun": "Kungsbacka", "i_halland": true, "svk_station": true }, "geometry": { "type": "Point", "coordinates": [ 11.93911, 57.53026 ] } },
{ "type": "Feature", "properties": { "osm_id": null, "namn": "Svk-station (id 15)", "niva": "Transmissionsnät (Svk)", "spanning_kv": null, "spanningar": null, "typ": "Transmission", "operator": "Svenska kraftnät", "yta_m2": null, "kommun": "Kungsbacka", "i_halland": true, "svk_station": true }, "geometry": { "type": "Point", "coordinates": [ 11.98828, 57.55183 ] } },
{ "type": "Feature", "properties": { "osm_id": null, "namn": "Svk-station (id 214)", "niva": "Transmissionsnät (Svk)", "spanning_kv": null, "spanningar": null, "typ": "Transmission", "operator": "Svenska kraftnät", "yta_m2": null, "kommun": "Göteborg", "i_halland": false, "svk_station": true }, "geometry": { "type": "Point", "coordinates": [ 11.84524, 57.70093 ] } }
]
}
