{
"type": "FeatureCollection",
"xy_coordinate_resolution": 1e-05,
"features": [
{ "type": "Feature", "properties": { "projekt": "Vindpark Falkenberg", "status": "Tillståndsansökan beviljad", "status_grupp": "Beviljat, ej byggt", "projektor": "Favonius AB", "effekt_mw": null, "max_verk": null, "max_hojd_m": null, "max_gwh": null, "elomrade": "SE4", "zon": "Territorialhav, Falkenberg", "avst_lansgrans_km": 0.0, "uppdaterad": "2026-09-03" }, "geometry": { "type": "Polygon", "coordinates": [ [ [ 12.33454, 56.86014 ], [ 12.30315, 56.84272 ], [ 12.31082, 56.81321 ], [ 12.33521, 56.80194 ], [ 12.37558, 56.80965 ], [ 12.39302, 56.82827 ], [ 12.33454, 56.86014 ] ] ] } },
{ "type": "Feature", "properties": { "projekt": "Vindplats Göteborg", "status": "Tillståndsansökan avslagen", "status_grupp": "Avslag eller återkallat", "projektor": "Göteborg Energi AB", "effekt_mw": null, "max_verk": null, "max_hojd_m": 190, "max_gwh": null, "elomrade": "SE3", "zon": "Territorialhav, Göteborg", "avst_lansgrans_km": 11.6, "uppdaterad": "2024-01-29" }, "geometry": { "type": "Polygon", "coordinates": [ [ [ 11.71574, 57.65887 ], [ 11.71983, 57.64923 ], [ 11.7521, 57.65424 ], [ 11.79954, 57.6642 ], [ 11.81242, 57.6716 ], [ 11.80797, 57.67952 ], [ 11.79094, 57.67738 ], [ 11.76963, 57.67708 ], [ 11.72991, 57.67395 ], [ 11.71435, 57.66994 ], [ 11.71574, 57.65887 ] ] ] } },
{ "type": "Feature", "properties": { "projekt": "Stora Middelgrund", "status": "Inte aktuell eller återkallad", "status_grupp": "Avslag eller återkallat", "projektor": "Vattenfall Vindkraft AB", "effekt_mw": null, "max_verk": 108, "max_hojd_m": null, "max_gwh": null, "elomrade": "SE4", "zon": "Ekonomisk zon", "avst_lansgrans_km": 3.8, "uppdaterad": "2024-01-29" }, "geometry": { "type": "Polygon", "coordinates": [ [ [ 12.03527, 56.65285 ], [ 12.13511, 56.52206 ], [ 12.138, 56.5229 ], [ 12.14161, 56.53541 ], [ 12.16551, 56.54102 ], [ 12.18, 56.5605 ], [ 12.17499, 56.5671 ], [ 12.18199, 56.5765 ], [ 12.16138, 56.6037 ], [ 12.14439, 56.60751 ], [ 12.1293, 56.62739 ], [ 12.1123, 56.6312 ], [ 12.08911, 56.66149 ], [ 12.08183, 56.65981 ], [ 12.06132, 56.65892 ], [ 12.03527, 56.65285 ] ] ] } },
{ "type": "Feature", "properties": { "projekt": "Kattegatt Syd", "status": "Tillståndsansökan beviljad", "status_grupp": "Beviljat, ej byggt", "projektor": "Vattenfall Vindkraft AB", "effekt_mw": 1200.0, "max_verk": null, "max_hojd_m": 350, "max_gwh": 5000.0, "elomrade": "SE4", "zon": "Ekonomisk zon", "avst_lansgrans_km": 4.2, "uppdaterad": "2025-04-09" }, "geometry": { "type": "Polygon", "coordinates": [ [ [ 11.99108, 56.88149 ], [ 11.94666, 56.81155 ], [ 11.99333, 56.73863 ], [ 11.99555, 56.7333 ], [ 12.00467, 56.69309 ], [ 12.0164, 56.67808 ], [ 12.06849, 56.73709 ], [ 12.0794, 56.74191 ], [ 12.0921, 56.74136 ], [ 12.09592, 56.74252 ], [ 12.10289, 56.74309 ], [ 12.03495, 56.8519 ], [ 11.99108, 56.88149 ] ] ] } },
{ "type": "Feature", "properties": { "projekt": "Galatea", "status": "Tillståndsansökan avslagen", "status_grupp": "Avslag eller återkallat", "projektor": "Projektör ej registrerad ", "effekt_mw": null, "max_verk": 80, "max_hojd_m": 340, "max_gwh": 4800.0, "elomrade": "SE3", "zon": "Ekonomisk zon", "avst_lansgrans_km": 2.5, "uppdaterad": "2024-01-29" }, "geometry": { "type": "Polygon", "coordinates": [ [ [ 12.02317, 56.67021 ], [ 12.04491, 56.70253 ], [ 12.05187, 56.71739 ], [ 12.06807, 56.72918 ], [ 12.10131, 56.74846 ], [ 12.03008, 56.89411 ], [ 12.00756, 56.89041 ], [ 11.97445, 56.88727 ], [ 11.88803, 56.87057 ], [ 11.94126, 56.77511 ], [ 12.02317, 56.67021 ] ] ] } },
{ "type": "Feature", "properties": { "projekt": "Stora Middelgrund", "status": "Tillståndsansökan avslagen", "status_grupp": "Avslag eller återkallat", "projektor": "Vattenfall Vindkraft AB", "effekt_mw": null, "max_verk": null, "max_hojd_m": null, "max_gwh": 3000.0, "elomrade": "SE4", "zon": "Ekonomisk zon", "avst_lansgrans_km": 3.7, "uppdaterad": "2024-01-29" }, "geometry": { "type": "Polygon", "coordinates": [ [ [ 12.03586, 56.65326 ], [ 12.13715, 56.52295 ], [ 12.13853, 56.52378 ], [ 12.14154, 56.53504 ], [ 12.16519, 56.54118 ], [ 12.18076, 56.55885 ], [ 12.17488, 56.56645 ], [ 12.18186, 56.57646 ], [ 12.16195, 56.60372 ], [ 12.14381, 56.6073 ], [ 12.1297, 56.62775 ], [ 12.11255, 56.63082 ], [ 12.08942, 56.66119 ], [ 12.08131, 56.65967 ], [ 12.06202, 56.65895 ], [ 12.03586, 56.65326 ] ] ] } },
{ "type": "Feature", "properties": { "projekt": "Poseidon Syd", "status": "Inte aktuell eller återkallad", "status_grupp": "Avslag eller återkallat", "projektor": "KonTiki Vind AB", "effekt_mw": null, "max_verk": 19, "max_hojd_m": 340, "max_gwh": 1112.0, "elomrade": "SE3", "zon": "Ekonomisk zon", "avst_lansgrans_km": 34.8, "uppdaterad": "2024-03-11" }, "geometry": { "type": "Polygon", "coordinates": [ [ [ 11.04049, 57.82207 ], [ 11.04877, 57.81683 ], [ 11.06412, 57.80095 ], [ 11.1688, 57.77309 ], [ 11.15219, 57.82125 ], [ 11.04049, 57.82207 ] ] ] } },
{ "type": "Feature", "properties": { "projekt": "Västvind", "status": "Tillståndsansökan avslagen", "status_grupp": "Avslag eller återkallat", "projektor": "Eolus Vind AB", "effekt_mw": 1000.0, "max_verk": 50, "max_hojd_m": 320, "max_gwh": 4500.0, "elomrade": "SE3", "zon": "Ekonomisk zon", "avst_lansgrans_km": 25.1, "uppdaterad": "2026-07-15" }, "geometry": { "type": "Polygon", "coordinates": [ [ [ 11.32127, 57.71366 ], [ 11.33534, 57.81967 ], [ 11.03829, 57.82209 ], [ 11.0474, 57.8163 ], [ 11.08577, 57.77663 ], [ 11.32127, 57.71366 ] ] ] } },
{ "type": "Feature", "properties": { "projekt": "Galene", "status": "Tillståndsansökan beviljad", "status_grupp": "Beviljat, ej byggt", "projektor": "OX2 AB", "effekt_mw": 400.0, "max_verk": 21, "max_hojd_m": 340, "max_gwh": 1700.0, "elomrade": "SE3", "zon": "Ekonomisk zon", "avst_lansgrans_km": 0.0, "uppdaterad": "2025-04-09" }, "geometry": { "type": "Polygon", "coordinates": [ [ [ 11.76691, 57.07895 ], [ 11.81284, 57.00535 ], [ 11.83135, 57.00552 ], [ 11.84561, 57.02222 ], [ 11.87158, 57.04156 ], [ 11.89232, 57.04391 ], [ 11.83265, 57.081 ], [ 11.79843, 57.0933 ], [ 11.76691, 57.07895 ] ] ] } },
{ "type": "Feature", "properties": { "projekt": "Warberg Offshore Wind", "status": "Inte aktuell eller återkallad", "status_grupp": "Avslag eller återkallat", "projektor": "Nordic Offshore Wind AB", "effekt_mw": null, "max_verk": 50, "max_hojd_m": 275, "max_gwh": 3000.0, "elomrade": "SE3", "zon": "Ekonomisk zon", "avst_lansgrans_km": 0.0, "uppdaterad": "2026-08-26" }, "geometry": { "type": "Polygon", "coordinates": [ [ [ 11.92325, 57.03991 ], [ 11.93235, 57.03955 ], [ 11.93687, 57.03739 ], [ 11.94031, 57.03743 ], [ 11.94374, 57.03521 ], [ 11.9564, 57.03528 ], [ 11.87863, 57.16721 ], [ 11.82361, 57.13585 ], [ 11.82285, 57.12638 ], [ 11.8202, 57.11718 ], [ 11.81338, 57.1125 ], [ 11.80906, 57.10796 ], [ 11.8014, 57.10354 ], [ 11.79948, 57.09955 ], [ 11.77748, 57.08952 ], [ 11.77653, 57.08635 ], [ 11.77433, 57.08408 ], [ 11.76768, 57.08391 ], [ 11.76472, 57.0826 ], [ 11.8172, 56.9984 ], [ 11.82771, 57.00205 ], [ 11.84047, 57.01478 ], [ 11.84674, 57.02253 ], [ 11.85523, 57.02694 ], [ 11.86382, 57.02984 ], [ 11.86952, 57.03087 ], [ 11.87719, 57.03734 ], [ 11.92325, 57.03991 ] ] ] } },
{ "type": "Feature", "properties": { "projekt": "Falkenberg-Halmstad", "status": "Samråd inför tillståndsansökan", "status_grupp": "Ansökt, samråd eller utredning", "projektor": "Landinfra Alpha 2 AB", "effekt_mw": 1210.0, "max_verk": 80, "max_hojd_m": null, "max_gwh": 6000.0, "elomrade": "SE4", "zon": "Ekonomisk zon", "avst_lansgrans_km": 0.0, "uppdaterad": "2026-08-26" }, "geometry": { "type": "Polygon", "coordinates": [ [ [ 12.33455, 56.86014 ], [ 12.1899, 56.83867 ], [ 12.22338, 56.76538 ], [ 12.20223, 56.76439 ], [ 12.29948, 56.55951 ], [ 12.44323, 56.55838 ], [ 12.4668, 56.61286 ], [ 12.3833, 56.77281 ], [ 12.37444, 56.80944 ], [ 12.39302, 56.82829 ], [ 12.33455, 56.86014 ] ] ] } },
{ "type": "Feature", "properties": { "projekt": "Kattegatt havsvindpark", "status": "Inledande undersökningar", "status_grupp": "Ansökt, samråd eller utredning", "projektor": "Örsted AB", "effekt_mw": null, "max_verk": null, "max_hojd_m": null, "max_gwh": null, "elomrade": "SE4", "zon": "Ekonomisk zon", "avst_lansgrans_km": 0.0, "uppdaterad": "2026-08-18" }, "geometry": { "type": "Polygon", "coordinates": [ [ [ 12.25125, 56.69022 ], [ 12.29876, 56.637 ], [ 12.27702, 56.60793 ], [ 12.30116, 56.5568 ], [ 12.44077, 56.5557 ], [ 12.4668, 56.61286 ], [ 12.42461, 56.69388 ], [ 12.25125, 56.69022 ] ] ] } }
]
}
