{
"type": "FeatureCollection",
"xy_coordinate_resolution": 1e-05,
"features": [
{ "type": "Feature", "properties": { "anlaggning": "Circle K, Varberg Nord", "kommun": "Varberg", "status": "I drift", "max_kw": 400.0, "laddpunkter": 8.0, "lage": "OSM-laddare, namn/operatör matchad (Trafikplats Varberg N (OSM-kluster))", "osm_id": "n10742015402", "kalla": "Länsstyrelsen Halland, Energi- och klimatläget i Halland 2026, tabell 7 (Skogforsk TREE, Chargefinder, juni 2026)" }, "geometry": { "type": "Point", "coordinates": [ 12.27747, 57.16845 ] } },
{ "type": "Feature", "properties": { "anlaggning": "Milence, Varberg Nord", "kommun": "Varberg", "status": "I drift", "max_kw": 400.0, "laddpunkter": 8.0, "lage": "OSM-laddare, namn/operatör matchad (Trafikplats Varberg N (OSM-kluster))", "osm_id": "n13032152105", "kalla": "Länsstyrelsen Halland, Energi- och klimatläget i Halland 2026, tabell 7 (Skogforsk TREE, Chargefinder, juni 2026)" }, "geometry": { "type": "Point", "coordinates": [ 12.27422, 57.16746 ] } },
{ "type": "Feature", "properties": { "anlaggning": "Einride, Varberg Nord", "kommun": "Varberg", "status": "I drift", "max_kw": 400.0, "laddpunkter": 10.0, "lage": "OSM-laddare, namn/operatör matchad (Trafikplats Varberg N (OSM-kluster))", "osm_id": "n13008905602", "kalla": "Länsstyrelsen Halland, Energi- och klimatläget i Halland 2026, tabell 7 (Skogforsk TREE, Chargefinder, juni 2026)" }, "geometry": { "type": "Point", "coordinates": [ 12.27446, 57.16814 ] } },
{ "type": "Feature", "properties": { "anlaggning": "IDS – OKQ8 Björkäng", "kommun": "Varberg", "status": "I drift", "max_kw": 400.0, "laddpunkter": 4.0, "lage": "OSM-laddare, namn/operatör matchad (OKQ8 vid E6 Himle (Nominatim), trolig)", "osm_id": "n11850878031", "kalla": "Länsstyrelsen Halland, Energi- och klimatläget i Halland 2026, tabell 7 (Skogforsk TREE, Chargefinder, juni 2026)" }, "geometry": { "type": "Point", "coordinates": [ 12.35234, 57.06272 ] } },
{ "type": "Feature", "properties": { "anlaggning": "Preem/Recharge Sweden AB", "kommun": "Falkenberg", "status": "I drift", "max_kw": 400.0, "laddpunkter": 2.0, "lage": "OSM-laddare, namn/operatör matchad (Trafikplats Falkenberg (E6))", "osm_id": "n13607923221", "kalla": "Länsstyrelsen Halland, Energi- och klimatläget i Halland 2026, tabell 7 (Skogforsk TREE, Chargefinder, juni 2026)" }, "geometry": { "type": "Point", "coordinates": [ 12.51831, 56.93276 ] } },
{ "type": "Feature", "properties": { "anlaggning": "Motor Halland", "kommun": "Halmstad", "status": "I drift", "max_kw": 300.0, "laddpunkter": 4.0, "lage": "OSM-laddare, namn/operatör matchad (MotorHallands laddare i OSM (personbil?))", "osm_id": "n10742030964", "kalla": "Länsstyrelsen Halland, Energi- och klimatläget i Halland 2026, tabell 7 (Skogforsk TREE, Chargefinder, juni 2026)" }, "geometry": { "type": "Point", "coordinates": [ 12.79762, 56.67243 ] } },
{ "type": "Feature", "properties": { "anlaggning": "Circle K, Snapparp", "kommun": "Laholm", "status": "I drift", "max_kw": 360.0, "laddpunkter": 4.0, "lage": "Referensläge: Circle K E6/E20 Snapparp (Nominatim)", "osm_id": null, "kalla": "Länsstyrelsen Halland, Energi- och klimatläget i Halland 2026, tabell 7 (Skogforsk TREE, Chargefinder, juni 2026)" }, "geometry": { "type": "Point", "coordinates": [ 12.9693, 56.5407 ] } }
]
}
