{
"type": "FeatureCollection",
"name": "05-isokron-bas",
"xy_coordinate_resolution": 1e-05,
"features": [
{ "type": "Feature", "properties": { "typ": "lan", "namn": null, "bef": null }, "geometry": { "type": "MultiLineString", "coordinates": [ [ [ 14.19497, 56.99026 ], [ 14.13485, 57.04196 ], [ 14.11335, 57.0322 ], [ 14.07426, 57.05396 ], [ 14.01988, 57.06382 ], [ 13.93173, 57.05001 ], [ 13.92092, 57.02525 ], [ 13.86203, 57.00821 ], [ 13.8187, 57.06436 ], [ 13.74676, 57.0683 ], [ 13.70474, 57.0534 ], [ 13.68498, 56.98636 ], [ 13.62019, 56.99953 ], [ 13.59239, 57.03144 ], [ 13.60826, 57.0686 ], [ 13.52681, 57.09568 ], [ 13.49647, 57.09161 ], [ 13.4849, 57.12277 ], [ 13.45969, 57.10946 ], [ 13.35858, 57.11744 ], [ 13.26949, 57.096 ], [ 13.22823, 57.10676 ], [ 13.22034, 57.07644 ], [ 13.13123, 57.03148 ], [ 13.09018, 57.09564 ], [ 13.08603, 57.12705 ], [ 13.13331, 57.14914 ], [ 13.18047, 57.18444 ], [ 13.19789, 57.23419 ], [ 13.22774, 57.25638 ], [ 13.27274, 57.24728 ], [ 13.29351, 57.30349 ], [ 13.36917, 57.3135 ], [ 13.38545, 57.33264 ], [ 13.42973, 57.33974 ], [ 13.4301, 57.36317 ], [ 13.48606, 57.38058 ], [ 13.50829, 57.41567 ], [ 13.62109, 57.51528 ], [ 13.66741, 57.53304 ], [ 13.68209, 57.56124 ], [ 13.67289, 57.60674 ], [ 13.67643, 57.62823 ], [ 13.72205, 57.6406 ], [ 13.73681, 57.6688 ], [ 13.70745, 57.70739 ], [ 13.71093, 57.73489 ], [ 13.74269, 57.76412 ], [ 13.74145, 57.84354 ], [ 13.74919, 57.88287 ], [ 13.70887, 57.93757 ], [ 13.70845, 57.98208 ], [ 13.75785, 58.01414 ], [ 13.77634, 58.04998 ], [ 13.79846, 58.05379 ], [ 13.84675, 58.03897 ], [ 13.87583, 58.05027 ], [ 13.95097, 58.03419 ], [ 13.96018, 58.00941 ], [ 14.0686, 58.02868 ], [ 14.07178, 58.04657 ], [ 14.11422, 58.07524 ], [ 14.11324, 58.15167 ], [ 14.21303, 58.14569 ], [ 14.19398, 58.066 ], [ 14.15783, 57.99736 ], [ 14.11689, 57.95782 ], [ 14.11412, 57.88577 ], [ 14.14202, 57.8718 ], [ 14.15835, 57.83131 ], [ 14.15094, 57.79016 ], [ 14.17939, 57.77976 ], [ 14.20867, 57.79277 ], [ 14.25972, 57.79569 ], [ 14.26683, 57.85309 ], [ 14.28571, 57.90091 ], [ 14.3522, 57.96802 ], [ 14.45014, 58.00283 ], [ 14.46833, 58.04524 ], [ 14.53765, 58.10613 ], [ 14.60413, 58.09249 ], [ 14.74814, 58.10487 ], [ 14.75559, 58.07378 ], [ 14.89472, 58.08986 ], [ 14.93369, 58.13112 ], [ 14.98199, 58.11766 ], [ 15.02564, 58.03216 ], [ 15.04962, 58.00011 ], [ 15.01431, 57.97676 ], [ 14.98311, 57.9345 ], [ 15.00458, 57.89598 ], [ 15.07638, 57.85044 ], [ 15.06457, 57.8258 ], [ 15.10026, 57.75875 ], [ 15.14134, 57.70765 ], [ 15.28438, 57.71577 ], [ 15.41585, 57.70091 ], [ 15.4404, 57.67416 ], [ 15.51269, 57.66628 ], [ 15.65323, 57.6072 ], [ 15.5782, 57.55565 ], [ 15.62174, 57.53495 ], [ 15.6357, 57.50696 ], [ 15.60537, 57.49071 ], [ 15.60224, 57.44567 ], [ 15.5467, 57.4671 ], [ 15.49879, 57.44646 ], [ 15.50376, 57.39191 ], [ 15.48966, 57.37285 ], [ 15.50681, 57.32842 ], [ 15.45984, 57.31133 ], [ 15.46526, 57.25856 ], [ 15.49907, 57.24569 ], [ 15.52998, 57.19996 ], [ 15.37674, 57.23306 ], [ 15.21769, 57.21884 ], [ 15.17176, 57.23775 ], [ 15.11192, 57.23756 ], [ 15.1546, 57.20259 ], [ 15.08535, 57.20472 ], [ 15.06776, 57.18885 ], [ 15.02604, 57.17374 ], [ 14.98492, 57.16701 ], [ 14.96683, 57.14271 ], [ 14.91009, 57.14045 ], [ 14.89337, 57.19015 ], [ 14.85163, 57.21414 ], [ 14.78766, 57.23207 ], [ 14.72894, 57.23164 ], [ 14.67229, 57.213 ], [ 14.6082, 57.20736 ], [ 14.59236, 57.19376 ], [ 14.55332, 57.19762 ], [ 14.544, 57.1656 ], [ 14.48733, 57.15771 ], [ 14.34, 57.15444 ], [ 14.33981, 57.06239 ], [ 14.32021, 57.04533 ], [ 14.33041, 57.01051 ], [ 14.39217, 56.96943 ], [ 14.33975, 56.8981 ], [ 14.29201, 56.88247 ], [ 14.24725, 56.89557 ], [ 14.20399, 56.94828 ], [ 14.19497, 56.99026 ] ] ] } },
{ "type": "Feature", "properties": { "typ": "lan", "namn": null, "bef": null }, "geometry": { "type": "MultiLineString", "coordinates": [ [ [ 14.71001, 56.39082 ], [ 14.66864, 56.40091 ], [ 14.5969, 56.45177 ], [ 14.52439, 56.45807 ], [ 14.41474, 56.48072 ], [ 14.25297, 56.50353 ], [ 14.23787, 56.49166 ], [ 14.13338, 56.50777 ], [ 14.10193, 56.53281 ], [ 14.06258, 56.53115 ], [ 14.05476, 56.50447 ], [ 14.01612, 56.46848 ], [ 13.92824, 56.46735 ], [ 13.86988, 56.44851 ], [ 13.78879, 56.44876 ], [ 13.70508, 56.42789 ], [ 13.57701, 56.40932 ], [ 13.49719, 56.40993 ], [ 13.45722, 56.43096 ], [ 13.4714, 56.45256 ], [ 13.4484, 56.47163 ], [ 13.47444, 56.51374 ], [ 13.44403, 56.5692 ], [ 13.41715, 56.58481 ], [ 13.37372, 56.66245 ], [ 13.32624, 56.69336 ], [ 13.32206, 56.77286 ], [ 13.29628, 56.84729 ], [ 13.34038, 56.87124 ], [ 13.37158, 56.86087 ], [ 13.4694, 56.87823 ], [ 13.48725, 56.86662 ], [ 13.53359, 56.8898 ], [ 13.61265, 56.89166 ], [ 13.62206, 56.90926 ], [ 13.66032, 56.90211 ], [ 13.69306, 56.96194 ], [ 13.68498, 56.98636 ], [ 13.70474, 57.0534 ], [ 13.74676, 57.0683 ], [ 13.8187, 57.06436 ], [ 13.86203, 57.00821 ], [ 13.92092, 57.02525 ], [ 13.93173, 57.05001 ], [ 14.01988, 57.06382 ], [ 14.07426, 57.05396 ], [ 14.11335, 57.0322 ], [ 14.13485, 57.04196 ], [ 14.19497, 56.99026 ], [ 14.20399, 56.94828 ], [ 14.24725, 56.89557 ], [ 14.29201, 56.88247 ], [ 14.33975, 56.8981 ], [ 14.39217, 56.96943 ], [ 14.33041, 57.01051 ], [ 14.32021, 57.04533 ], [ 14.33981, 57.06239 ], [ 14.34, 57.15444 ], [ 14.48733, 57.15771 ], [ 14.544, 57.1656 ], [ 14.55332, 57.19762 ], [ 14.59236, 57.19376 ], [ 14.6082, 57.20736 ], [ 14.67229, 57.213 ], [ 14.72894, 57.23164 ], [ 14.78766, 57.23207 ], [ 14.85163, 57.21414 ], [ 14.89337, 57.19015 ], [ 14.91009, 57.14045 ], [ 14.96683, 57.14271 ], [ 14.98492, 57.16701 ], [ 15.02604, 57.17374 ], [ 15.06776, 57.18885 ], [ 15.08535, 57.20472 ], [ 15.1546, 57.20259 ], [ 15.11192, 57.23756 ], [ 15.17176, 57.23775 ], [ 15.21769, 57.21884 ], [ 15.37674, 57.23306 ], [ 15.52998, 57.19996 ], [ 15.55569, 57.1844 ], [ 15.53568, 57.15304 ], [ 15.62714, 57.13121 ], [ 15.664, 57.08734 ], [ 15.73653, 57.07079 ], [ 15.79875, 57.02287 ], [ 15.84144, 56.97675 ], [ 15.80927, 56.92086 ], [ 15.69273, 56.91549 ], [ 15.65216, 56.91077 ], [ 15.554, 56.92945 ], [ 15.5119, 56.91754 ], [ 15.51002, 56.89835 ], [ 15.55165, 56.83612 ], [ 15.54074, 56.80544 ], [ 15.43719, 56.79723 ], [ 15.35776, 56.77848 ], [ 15.41999, 56.71508 ], [ 15.40783, 56.67241 ], [ 15.41879, 56.64644 ], [ 15.36216, 56.60461 ], [ 15.37121, 56.55886 ], [ 15.34211, 56.54433 ], [ 15.33574, 56.48684 ], [ 15.29594, 56.4621 ], [ 15.25134, 56.48283 ], [ 15.20233, 56.46583 ], [ 15.19373, 56.43923 ], [ 15.13514, 56.43903 ], [ 15.12657, 56.46123 ], [ 15.01901, 56.46021 ], [ 14.96588, 56.43794 ], [ 14.92059, 56.38328 ], [ 14.87997, 56.3633 ], [ 14.80246, 56.38209 ], [ 14.71001, 56.39082 ] ] ] } },
{ "type": "Feature", "properties": { "typ": "lan", "namn": null, "bef": null }, "geometry": { "type": "MultiLineString", "coordinates": [ [ [ 16.63076, 56.52561 ], [ 16.59976, 56.46437 ], [ 16.55732, 56.40934 ], [ 16.57212, 56.37569 ], [ 16.5067, 56.29147 ], [ 16.47376, 56.23397 ], [ 16.40805, 56.20229 ], [ 16.41687, 56.25423 ], [ 16.39826, 56.27181 ], [ 16.40598, 56.43071 ], [ 16.38437, 56.43582 ], [ 16.37875, 56.53765 ], [ 16.38834, 56.57866 ], [ 16.43912, 56.62773 ], [ 16.45818, 56.68077 ], [ 16.52095, 56.76522 ], [ 16.57431, 56.82314 ], [ 16.60836, 56.88239 ], [ 16.64923, 56.90128 ], [ 16.70854, 56.90075 ], [ 16.74008, 56.96197 ], [ 16.77187, 57.01048 ], [ 16.81342, 57.03111 ], [ 16.8436, 57.07247 ], [ 16.89005, 57.12536 ], [ 16.91611, 57.17609 ], [ 16.90458, 57.20954 ], [ 16.94463, 57.22301 ], [ 16.95603, 57.25482 ], [ 16.96542, 57.30492 ], [ 17.01991, 57.34815 ], [ 17.06151, 57.36691 ], [ 17.08411, 57.35076 ], [ 17.11312, 57.35953 ], [ 17.12967, 57.32023 ], [ 17.07918, 57.30577 ], [ 17.05363, 57.27136 ], [ 17.0678, 57.24857 ], [ 17.06578, 57.18886 ], [ 17.0388, 57.1745 ], [ 16.98748, 57.11656 ], [ 16.95035, 57.04851 ], [ 16.91084, 57.04955 ], [ 16.93575, 57.01692 ], [ 16.87937, 56.99016 ], [ 16.87548, 56.92153 ], [ 16.85349, 56.89954 ], [ 16.85569, 56.86856 ], [ 16.82696, 56.83254 ], [ 16.779, 56.82508 ], [ 16.70254, 56.67823 ], [ 16.68376, 56.62337 ], [ 16.69146, 56.60108 ], [ 16.63866, 56.57218 ], [ 16.63076, 56.52561 ] ], [ [ 15.79422, 56.3427 ], [ 15.73078, 56.41007 ], [ 15.67737, 56.41886 ], [ 15.65568, 56.44434 ], [ 15.63948, 56.47009 ], [ 15.59051, 56.46952 ], [ 15.56438, 56.50007 ], [ 15.49263, 56.51534 ], [ 15.48135, 56.48226 ], [ 15.39805, 56.49939 ], [ 15.33574, 56.48684 ], [ 15.34211, 56.54433 ], [ 15.37121, 56.55886 ], [ 15.36216, 56.60461 ], [ 15.41879, 56.64644 ], [ 15.40783, 56.67241 ], [ 15.41999, 56.71508 ], [ 15.35776, 56.77848 ], [ 15.43719, 56.79723 ], [ 15.54074, 56.80544 ], [ 15.55165, 56.83612 ], [ 15.51002, 56.89835 ], [ 15.5119, 56.91754 ], [ 15.554, 56.92945 ], [ 15.65216, 56.91077 ], [ 15.69273, 56.91549 ], [ 15.80927, 56.92086 ], [ 15.84144, 56.97675 ], [ 15.79875, 57.02287 ], [ 15.73653, 57.07079 ], [ 15.664, 57.08734 ], [ 15.62714, 57.13121 ], [ 15.53568, 57.15304 ], [ 15.55569, 57.1844 ], [ 15.52998, 57.19996 ], [ 15.49907, 57.24569 ], [ 15.46526, 57.25856 ], [ 15.45984, 57.31133 ], [ 15.50681, 57.32842 ], [ 15.48966, 57.37285 ], [ 15.50376, 57.39191 ], [ 15.49879, 57.44646 ], [ 15.5467, 57.4671 ], [ 15.60224, 57.44567 ], [ 15.60537, 57.49071 ], [ 15.6357, 57.50696 ], [ 15.62174, 57.53495 ], [ 15.5782, 57.55565 ], [ 15.65323, 57.6072 ], [ 15.51269, 57.66628 ], [ 15.4404, 57.67416 ], [ 15.41585, 57.70091 ], [ 15.42914, 57.74716 ], [ 15.45706, 57.76723 ], [ 15.51661, 57.7619 ], [ 15.53647, 57.79628 ], [ 15.591, 57.82439 ], [ 15.5806, 57.85395 ], [ 15.67093, 57.86482 ], [ 15.77823, 57.84564 ], [ 15.79473, 57.81387 ], [ 15.86665, 57.83296 ], [ 15.91963, 57.81338 ], [ 16.01863, 57.86147 ], [ 16.06676, 57.86476 ], [ 16.01973, 57.95371 ], [ 16.06485, 57.97259 ], [ 15.9844, 58.03557 ], [ 15.99882, 58.08775 ], [ 16.09208, 58.08853 ], [ 16.1168, 58.06342 ], [ 16.1755, 58.06693 ], [ 16.15126, 58.10831 ], [ 16.17904, 58.12464 ], [ 16.25184, 58.15799 ], [ 16.29372, 58.13356 ], [ 16.37198, 58.1514 ], [ 16.46917, 58.08403 ], [ 16.501, 58.11632 ], [ 16.56165, 58.0996 ], [ 16.61246, 57.98928 ], [ 16.6889, 57.98229 ], [ 16.74882, 58.00415 ], [ 16.76556, 57.92266 ], [ 16.744, 57.86432 ], [ 16.68607, 57.89005 ], [ 16.60027, 57.89951 ], [ 16.53326, 57.84786 ], [ 16.6181, 57.78052 ], [ 16.6925, 57.7537 ], [ 16.69376, 57.70467 ], [ 16.63538, 57.68693 ], [ 16.60536, 57.6473 ], [ 16.63935, 57.62143 ], [ 16.70667, 57.63492 ], [ 16.70527, 57.6024 ], [ 16.67063, 57.58485 ], [ 16.57888, 57.58086 ], [ 16.66837, 57.52158 ], [ 16.68967, 57.48567 ], [ 16.6549, 57.42645 ], [ 16.61828, 57.37279 ], [ 16.54793, 57.37218 ], [ 16.55792, 57.31714 ], [ 16.48037, 57.28619 ], [ 16.49869, 57.23783 ], [ 16.46264, 57.19862 ], [ 16.49778, 57.13281 ], [ 16.581, 57.11081 ], [ 16.49075, 57.03908 ], [ 16.45475, 56.98537 ], [ 16.46081, 56.94147 ], [ 16.4359, 56.88761 ], [ 16.4067, 56.79661 ], [ 16.44245, 56.80866 ], [ 16.46935, 56.78327 ], [ 16.43837, 56.76365 ], [ 16.39688, 56.7828 ], [ 16.35362, 56.68246 ], [ 16.2793, 56.673 ], [ 16.23551, 56.62523 ], [ 16.22209, 56.59534 ], [ 16.22434, 56.5481 ], [ 16.1865, 56.53977 ], [ 16.16308, 56.49424 ], [ 16.11965, 56.47056 ], [ 16.08392, 56.40352 ], [ 16.05206, 56.32414 ], [ 15.98758, 56.30666 ], [ 15.94595, 56.32387 ], [ 15.85117, 56.32095 ], [ 15.79422, 56.3427 ] ] ] } },
{ "type": "Feature", "properties": { "typ": "lan", "namn": null, "bef": null }, "geometry": { "type": "MultiLineString", "coordinates": [ [ [ 14.72136, 56.07221 ], [ 14.78218, 56.0363 ], [ 14.72708, 55.99962 ], [ 14.66316, 56.00136 ], [ 14.60821, 56.01703 ], [ 14.54596, 56.0457 ], [ 14.55438, 56.07415 ], [ 14.59491, 56.08459 ], [ 14.57198, 56.19963 ], [ 14.54958, 56.22433 ], [ 14.49358, 56.2183 ], [ 14.44082, 56.23013 ], [ 14.43256, 56.27392 ], [ 14.38963, 56.34118 ], [ 14.41179, 56.39239 ], [ 14.46869, 56.40204 ], [ 14.52439, 56.45807 ], [ 14.5969, 56.45177 ], [ 14.66864, 56.40091 ], [ 14.71001, 56.39082 ], [ 14.80246, 56.38209 ], [ 14.87997, 56.3633 ], [ 14.92059, 56.38328 ], [ 14.96588, 56.43794 ], [ 15.01901, 56.46021 ], [ 15.12657, 56.46123 ], [ 15.13514, 56.43903 ], [ 15.19373, 56.43923 ], [ 15.20233, 56.46583 ], [ 15.25134, 56.48283 ], [ 15.29594, 56.4621 ], [ 15.33574, 56.48684 ], [ 15.39805, 56.49939 ], [ 15.48135, 56.48226 ], [ 15.49263, 56.51534 ], [ 15.56438, 56.50007 ], [ 15.59051, 56.46952 ], [ 15.63948, 56.47009 ], [ 15.65568, 56.44434 ], [ 15.67737, 56.41886 ], [ 15.73078, 56.41007 ], [ 15.79422, 56.3427 ], [ 15.85117, 56.32095 ], [ 15.94595, 56.32387 ], [ 15.98758, 56.30666 ], [ 16.05206, 56.32414 ], [ 16.0109, 56.23633 ], [ 15.95523, 56.17481 ], [ 15.91267, 56.15768 ], [ 15.8514, 56.08383 ], [ 15.78755, 56.1169 ], [ 15.71103, 56.09103 ], [ 15.66443, 56.09941 ], [ 15.72652, 56.13346 ], [ 15.74259, 56.16321 ], [ 15.69296, 56.18808 ], [ 15.59383, 56.17802 ], [ 15.56098, 56.19092 ], [ 15.49568, 56.17748 ], [ 15.45674, 56.15576 ], [ 15.41086, 56.1839 ], [ 15.38621, 56.15827 ], [ 15.31733, 56.13711 ], [ 15.29377, 56.18013 ], [ 15.25329, 56.17171 ], [ 15.16427, 56.16252 ], [ 15.09691, 56.16467 ], [ 15.06056, 56.18788 ], [ 15.02245, 56.16358 ], [ 14.85051, 56.15895 ], [ 14.77507, 56.15234 ], [ 14.73324, 56.15286 ], [ 14.67963, 56.15943 ], [ 14.68474, 56.11761 ], [ 14.72136, 56.07221 ] ] ] } },
{ "type": "Feature", "properties": { "typ": "lan", "namn": null, "bef": null }, "geometry": { "type": "MultiLineString", "coordinates": [ [ [ 13.31991, 55.35048 ], [ 13.28551, 55.34701 ], [ 13.21196, 55.36698 ], [ 13.11883, 55.37932 ], [ 13.0826, 55.37418 ], [ 13.06026, 55.37395 ], [ 12.97429, 55.40476 ], [ 12.94455, 55.40125 ], [ 12.92973, 55.39579 ], [ 12.92517, 55.38832 ], [ 12.90842, 55.38812 ], [ 12.89434, 55.39643 ], [ 12.87476, 55.39883 ], [ 12.81633, 55.38594 ], [ 12.86377, 55.4474 ], [ 12.87041, 55.4406 ], [ 12.88006, 55.41901 ], [ 12.91086, 55.41356 ], [ 12.93323, 55.4117 ], [ 12.94519, 55.42348 ], [ 12.95791, 55.44639 ], [ 12.96042, 55.47024 ], [ 12.95088, 55.48707 ], [ 12.91575, 55.53112 ], [ 12.90885, 55.55593 ], [ 12.90764, 55.57443 ], [ 12.92617, 55.5863 ], [ 13.00625, 55.61738 ], [ 13.04642, 55.62417 ], [ 13.05457, 55.63612 ], [ 13.05172, 55.65387 ], [ 13.06557, 55.67466 ], [ 13.06453, 55.68259 ], [ 13.0512, 55.70256 ], [ 13.03425, 55.7082 ], [ 12.9979, 55.72477 ], [ 12.97306, 55.72393 ], [ 12.95611, 55.72692 ], [ 12.96724, 55.73869 ], [ 12.95485, 55.75231 ], [ 12.92677, 55.74458 ], [ 12.90967, 55.75866 ], [ 12.92453, 55.76996 ], [ 12.93669, 55.77539 ], [ 12.92647, 55.82632 ], [ 12.90476, 55.8632 ], [ 12.83533, 55.87145 ], [ 12.77654, 55.96141 ], [ 12.75586, 56.01049 ], [ 12.71335, 56.05179 ], [ 12.66317, 56.08438 ], [ 12.61954, 56.11849 ], [ 12.58583, 56.13898 ], [ 12.5731, 56.15628 ], [ 12.55226, 56.2183 ], [ 12.53676, 56.24771 ], [ 12.50223, 56.27961 ], [ 12.45937, 56.29741 ], [ 12.50501, 56.30112 ], [ 12.67833, 56.24592 ], [ 12.70454, 56.2251 ], [ 12.73363, 56.22576 ], [ 12.79043, 56.21721 ], [ 12.82803, 56.23283 ], [ 12.84827, 56.26267 ], [ 12.82042, 56.29441 ], [ 12.76932, 56.32224 ], [ 12.74496, 56.35684 ], [ 12.69318, 56.38046 ], [ 12.63921, 56.38793 ], [ 12.63159, 56.42786 ], [ 12.68005, 56.45122 ], [ 12.72715, 56.46382 ], [ 12.79635, 56.4485 ], [ 12.84569, 56.43034 ], [ 12.90379, 56.44424 ], [ 12.97081, 56.4217 ], [ 12.94692, 56.3674 ], [ 12.99135, 56.36139 ], [ 13.15158, 56.35111 ], [ 13.20213, 56.32852 ], [ 13.30267, 56.38789 ], [ 13.3781, 56.41524 ], [ 13.41995, 56.41339 ], [ 13.45722, 56.43096 ], [ 13.49719, 56.40993 ], [ 13.57701, 56.40932 ], [ 13.70508, 56.42789 ], [ 13.78879, 56.44876 ], [ 13.86988, 56.44851 ], [ 13.92824, 56.46735 ], [ 14.01612, 56.46848 ], [ 14.05476, 56.50447 ], [ 14.06258, 56.53115 ], [ 14.10193, 56.53281 ], [ 14.13338, 56.50777 ], [ 14.23787, 56.49166 ], [ 14.25297, 56.50353 ], [ 14.41474, 56.48072 ], [ 14.52439, 56.45807 ], [ 14.46869, 56.40204 ], [ 14.41179, 56.39239 ], [ 14.38963, 56.34118 ], [ 14.43256, 56.27392 ], [ 14.44082, 56.23013 ], [ 14.49358, 56.2183 ], [ 14.54958, 56.22433 ], [ 14.57198, 56.19963 ], [ 14.59491, 56.08459 ], [ 14.55438, 56.07415 ], [ 14.54596, 56.0457 ], [ 14.46811, 56.03002 ], [ 14.42964, 55.98872 ], [ 14.3543, 55.96202 ], [ 14.32387, 55.91667 ], [ 14.2801, 55.90452 ], [ 14.20935, 55.82875 ], [ 14.19891, 55.75887 ], [ 14.21784, 55.6929 ], [ 14.27784, 55.6717 ], [ 14.29627, 55.61295 ], [ 14.34889, 55.58669 ], [ 14.36336, 55.54257 ], [ 14.33134, 55.50455 ], [ 14.26019, 55.45956 ], [ 14.19057, 55.38557 ], [ 14.10316, 55.39191 ], [ 14.06154, 55.38862 ], [ 13.95805, 55.43177 ], [ 13.91531, 55.44114 ], [ 13.85052, 55.43171 ], [ 13.73729, 55.43544 ], [ 13.70053, 55.42278 ], [ 13.649, 55.42114 ], [ 13.59391, 55.38123 ], [ 13.48491, 55.38213 ], [ 13.45191, 55.37482 ], [ 13.42032, 55.35976 ], [ 13.38033, 55.35681 ], [ 13.33575, 55.34002 ], [ 13.31991, 55.35048 ] ] ] } },
{ "type": "Feature", "properties": { "typ": "halland", "namn": null, "bef": null }, "geometry": { "type": "MultiLineString", "coordinates": [ [ [ 13.44403, 56.5692 ], [ 13.47444, 56.51374 ], [ 13.4484, 56.47163 ], [ 13.4714, 56.45256 ], [ 13.45722, 56.43096 ], [ 13.41995, 56.41339 ], [ 13.3781, 56.41524 ], [ 13.30267, 56.38789 ], [ 13.20213, 56.32852 ], [ 13.15158, 56.35111 ], [ 12.99135, 56.36139 ], [ 12.94692, 56.3674 ], [ 12.97081, 56.4217 ], [ 12.90379, 56.44424 ], [ 12.93577, 56.47178 ], [ 12.953, 56.50172 ], [ 12.95438, 56.54971 ], [ 12.94012, 56.59413 ], [ 12.90812, 56.64407 ], [ 12.8488, 56.66265 ], [ 12.79372, 56.64139 ], [ 12.73839, 56.64173 ], [ 12.65899, 56.72943 ], [ 12.62239, 56.78124 ], [ 12.62347, 56.82984 ], [ 12.56491, 56.85723 ], [ 12.48718, 56.88889 ], [ 12.41026, 56.90245 ], [ 12.35867, 56.93489 ], [ 12.37258, 56.96681 ], [ 12.36947, 56.99356 ], [ 12.34089, 57.02811 ], [ 12.29333, 57.04419 ], [ 12.26173, 57.08315 ], [ 12.24876, 57.13947 ], [ 12.19767, 57.18266 ], [ 12.13277, 57.22269 ], [ 12.13416, 57.26229 ], [ 12.18246, 57.27688 ], [ 12.16368, 57.33758 ], [ 12.14916, 57.3467 ], [ 12.11455, 57.34118 ], [ 12.10094, 57.35088 ], [ 12.12284, 57.38704 ], [ 12.12215, 57.4347 ], [ 12.11131, 57.45576 ], [ 12.09217, 57.4615 ], [ 12.07274, 57.45009 ], [ 12.05946, 57.42603 ], [ 12.03989, 57.37655 ], [ 12.0287, 57.36114 ], [ 12.01168, 57.3557 ], [ 11.98772, 57.36125 ], [ 11.97033, 57.37884 ], [ 11.93329, 57.42624 ], [ 11.92682, 57.44208 ], [ 11.93374, 57.46055 ], [ 11.95797, 57.50164 ], [ 11.94735, 57.56111 ], [ 12.01327, 57.5628 ], [ 12.03846, 57.54961 ], [ 12.13827, 57.56227 ], [ 12.20564, 57.57643 ], [ 12.28404, 57.60418 ], [ 12.34286, 57.56774 ], [ 12.32676, 57.52915 ], [ 12.34393, 57.51258 ], [ 12.35461, 57.49204 ], [ 12.34493, 57.46921 ], [ 12.35573, 57.45779 ], [ 12.38163, 57.45276 ], [ 12.39716, 57.4431 ], [ 12.41174, 57.41091 ], [ 12.39572, 57.34196 ], [ 12.43079, 57.32055 ], [ 12.42793, 57.27199 ], [ 12.50545, 57.28002 ], [ 12.52764, 57.32248 ], [ 12.65291, 57.33769 ], [ 12.70549, 57.33211 ], [ 12.79867, 57.28908 ], [ 12.85833, 57.26763 ], [ 12.93106, 57.2666 ], [ 12.95329, 57.2369 ], [ 12.93224, 57.22872 ], [ 12.94123, 57.1761 ], [ 13.01206, 57.1859 ], [ 13.05729, 57.17868 ], [ 13.04755, 57.15744 ], [ 13.07278, 57.14922 ], [ 13.1009, 57.16069 ], [ 13.13331, 57.14914 ], [ 13.08603, 57.12705 ], [ 13.09018, 57.09564 ], [ 13.13123, 57.03148 ], [ 13.22034, 57.07644 ], [ 13.22823, 57.10676 ], [ 13.26949, 57.096 ], [ 13.35858, 57.11744 ], [ 13.45969, 57.10946 ], [ 13.4849, 57.12277 ], [ 13.49647, 57.09161 ], [ 13.52681, 57.09568 ], [ 13.60826, 57.0686 ], [ 13.59239, 57.03144 ], [ 13.62019, 56.99953 ], [ 13.68498, 56.98636 ], [ 13.69306, 56.96194 ], [ 13.66032, 56.90211 ], [ 13.62206, 56.90926 ], [ 13.61265, 56.89166 ], [ 13.53359, 56.8898 ], [ 13.48725, 56.86662 ], [ 13.4694, 56.87823 ], [ 13.37158, 56.86087 ], [ 13.34038, 56.87124 ], [ 13.29628, 56.84729 ], [ 13.32206, 56.77286 ], [ 13.32624, 56.69336 ], [ 13.37372, 56.66245 ], [ 13.41715, 56.58481 ], [ 13.44403, 56.5692 ] ] ] } },
{ "type": "Feature", "properties": { "typ": "lan", "namn": null, "bef": null }, "geometry": { "type": "MultiLineString", "coordinates": [ [ [ 11.65503, 57.70447 ], [ 11.65743, 57.71426 ], [ 11.65035, 57.7182 ], [ 11.65002, 57.72789 ], [ 11.6676, 57.72721 ], [ 11.6679, 57.74535 ], [ 11.68692, 57.75392 ], [ 11.7061, 57.75858 ], [ 11.72076, 57.74171 ], [ 11.70813, 57.729 ], [ 11.69782, 57.71017 ], [ 11.69905, 57.69281 ], [ 11.69459, 57.68146 ], [ 11.68401, 57.67729 ], [ 11.63297, 57.69611 ], [ 11.63107, 57.70512 ], [ 11.65503, 57.70447 ] ], [ [ 11.65908, 57.7709 ], [ 11.6183, 57.74006 ], [ 11.60152, 57.74337 ], [ 11.62277, 57.79392 ], [ 11.65908, 57.7709 ] ], [ [ 11.62936, 57.86008 ], [ 11.59835, 57.87173 ], [ 11.6311, 57.89767 ], [ 11.67008, 57.90348 ], [ 11.71373, 57.90302 ], [ 11.70123, 57.88163 ], [ 11.62936, 57.86008 ] ], [ [ 11.5944, 57.95949 ], [ 11.56781, 57.96648 ], [ 11.56121, 57.97211 ], [ 11.55758, 57.98644 ], [ 11.56045, 57.99621 ], [ 11.59871, 58.0004 ], [ 11.6009, 58.00745 ], [ 11.59696, 58.01587 ], [ 11.55646, 58.01373 ], [ 11.53938, 58.0152 ], [ 11.53054, 58.0229 ], [ 11.5295, 58.03197 ], [ 11.54071, 58.04689 ], [ 11.56759, 58.05546 ], [ 11.6238, 58.05123 ], [ 11.64331, 58.05468 ], [ 11.65448, 58.06154 ], [ 11.67238, 58.08851 ], [ 11.68083, 58.09312 ], [ 11.69892, 58.09167 ], [ 11.72069, 58.08393 ], [ 11.71778, 58.07416 ], [ 11.70611, 58.06247 ], [ 11.72448, 58.05834 ], [ 11.75411, 58.06966 ], [ 11.77218, 58.05908 ], [ 11.776, 58.04209 ], [ 11.77616, 58.01783 ], [ 11.76841, 58.00213 ], [ 11.75335, 57.99459 ], [ 11.74042, 57.99463 ], [ 11.73419, 58.00619 ], [ 11.71511, 58.00813 ], [ 11.7006, 57.97756 ], [ 11.70235, 57.97066 ], [ 11.66381, 57.96006 ], [ 11.65255, 57.95426 ], [ 11.635, 57.93374 ], [ 11.60252, 57.93166 ], [ 11.59566, 57.9397 ], [ 11.5944, 57.95949 ] ], [ [ 11.80328, 58.08983 ], [ 11.79141, 58.08048 ], [ 11.78016, 58.07841 ], [ 11.7857, 58.10572 ], [ 11.80279, 58.10117 ], [ 11.80328, 58.08983 ] ], [ [ 11.76599, 58.10124 ], [ 11.77235, 58.08284 ], [ 11.75154, 58.08359 ], [ 11.76599, 58.10124 ] ], [ [ 11.60954, 58.11786 ], [ 11.59691, 58.10603 ], [ 11.59068, 58.09049 ], [ 11.5755, 58.07514 ], [ 11.55457, 58.06265 ], [ 11.53591, 58.05983 ], [ 11.51999, 58.06349 ], [ 11.50785, 58.07116 ], [ 11.48954, 58.06066 ], [ 11.47367, 58.06864 ], [ 11.48323, 58.07344 ], [ 11.49816, 58.08638 ], [ 11.50269, 58.09958 ], [ 11.48731, 58.11246 ], [ 11.44452, 58.13564 ], [ 11.4395, 58.14697 ], [ 11.41714, 58.1482 ], [ 11.4043, 58.13661 ], [ 11.39159, 58.13236 ], [ 11.40833, 58.15767 ], [ 11.43555, 58.17824 ], [ 11.46188, 58.17459 ], [ 11.4867, 58.17356 ], [ 11.52106, 58.18867 ], [ 11.55097, 58.19497 ], [ 11.59557, 58.21177 ], [ 11.63646, 58.23929 ], [ 11.65829, 58.24271 ], [ 11.68246, 58.24054 ], [ 11.69645, 58.24106 ], [ 11.7015, 58.25305 ], [ 11.69695, 58.26773 ], [ 11.70142, 58.28226 ], [ 11.7331, 58.29294 ], [ 11.75288, 58.29515 ], [ 11.79035, 58.29351 ], [ 11.79134, 58.27509 ], [ 11.80066, 58.25786 ], [ 11.83958, 58.24262 ], [ 11.85872, 58.23027 ], [ 11.86703, 58.21722 ], [ 11.8495, 58.18318 ], [ 11.856, 58.16297 ], [ 11.85332, 58.1369 ], [ 11.8452, 58.11993 ], [ 11.77081, 58.11277 ], [ 11.75092, 58.10551 ], [ 11.73316, 58.08973 ], [ 11.71014, 58.09239 ], [ 11.71253, 58.10533 ], [ 11.66577, 58.12345 ], [ 11.64238, 58.12951 ], [ 11.60954, 58.11786 ] ], [ [ 11.91329, 57.6222 ], [ 11.8822, 57.66606 ], [ 11.88044, 57.6735 ], [ 11.88744, 57.6818 ], [ 11.95787, 57.70584 ], [ 11.93823, 57.70512 ], [ 11.90837, 57.69865 ], [ 11.89401, 57.70402 ], [ 11.84933, 57.69805 ], [ 11.83093, 57.71344 ], [ 11.81489, 57.71606 ], [ 11.80144, 57.71288 ], [ 11.79692, 57.69984 ], [ 11.78541, 57.69671 ], [ 11.77267, 57.69623 ], [ 11.75565, 57.69879 ], [ 11.73171, 57.71985 ], [ 11.73147, 57.72869 ], [ 11.74885, 57.74357 ], [ 11.78338, 57.75291 ], [ 11.8191, 57.76017 ], [ 11.82824, 57.79196 ], [ 11.77856, 57.78865 ], [ 11.76636, 57.79194 ], [ 11.76013, 57.81314 ], [ 11.75136, 57.82085 ], [ 11.72942, 57.83179 ], [ 11.71655, 57.84096 ], [ 11.722, 57.85457 ], [ 11.74112, 57.86977 ], [ 11.75255, 57.88307 ], [ 11.76039, 57.90212 ], [ 11.7904, 57.9365 ], [ 11.77629, 57.94775 ], [ 11.77584, 57.96114 ], [ 11.78168, 57.97119 ], [ 11.83103, 58.00173 ], [ 11.84165, 58.02615 ], [ 11.84194, 58.048 ], [ 11.82909, 58.09197 ], [ 11.86581, 58.1195 ], [ 11.88056, 58.13708 ], [ 11.88366, 58.16241 ], [ 11.87647, 58.18564 ], [ 11.89572, 58.18936 ], [ 11.91905, 58.20426 ], [ 11.92, 58.22063 ], [ 11.88978, 58.21985 ], [ 11.88699, 58.2417 ], [ 11.86604, 58.26261 ], [ 11.83336, 58.28928 ], [ 11.83952, 58.30208 ], [ 11.87894, 58.3269 ], [ 11.81689, 58.32455 ], [ 11.77139, 58.33173 ], [ 11.73373, 58.32853 ], [ 11.75371, 58.31701 ], [ 11.74417, 58.30681 ], [ 11.70502, 58.3066 ], [ 11.6841, 58.283 ], [ 11.6584, 58.26754 ], [ 11.63428, 58.25739 ], [ 11.60348, 58.25352 ], [ 11.58976, 58.23394 ], [ 11.5657, 58.21686 ], [ 11.53056, 58.20765 ], [ 11.48214, 58.20093 ], [ 11.43917, 58.19867 ], [ 11.43161, 58.20474 ], [ 11.47115, 58.24186 ], [ 11.49986, 58.24627 ], [ 11.52533, 58.25645 ], [ 11.54911, 58.27204 ], [ 11.56354, 58.28472 ], [ 11.55973, 58.31152 ], [ 11.53695, 58.30172 ], [ 11.51296, 58.28114 ], [ 11.49356, 58.26965 ], [ 11.45321, 58.2655 ], [ 11.44832, 58.27317 ], [ 11.46455, 58.28289 ], [ 11.47142, 58.30056 ], [ 11.44717, 58.30278 ], [ 11.42918, 58.30863 ], [ 11.44542, 58.34756 ], [ 11.41472, 58.34255 ], [ 11.41381, 58.37388 ], [ 11.38453, 58.35789 ], [ 11.35967, 58.36191 ], [ 11.34948, 58.37121 ], [ 11.3348, 58.37257 ], [ 11.3262, 58.36076 ], [ 11.29356, 58.34916 ], [ 11.25893, 58.34821 ], [ 11.25343, 58.35786 ], [ 11.27933, 58.37552 ], [ 11.26596, 58.41873 ], [ 11.273, 58.43219 ], [ 11.29208, 58.43538 ], [ 11.29989, 58.421 ], [ 11.31222, 58.42027 ], [ 11.33271, 58.42757 ], [ 11.33711, 58.43988 ], [ 11.32701, 58.46768 ], [ 11.27112, 58.56274 ], [ 11.30962, 58.59565 ], [ 11.25506, 58.68315 ], [ 11.17757, 58.74731 ], [ 11.1795, 58.83475 ], [ 11.17193, 58.85802 ], [ 11.13161, 58.90942 ], [ 11.1317, 58.92444 ], [ 11.13635, 58.92785 ], [ 11.1603, 58.92403 ], [ 11.17328, 58.92619 ], [ 11.17102, 58.93574 ], [ 11.14192, 58.95543 ], [ 11.1342, 58.96744 ], [ 11.13145, 59.01184 ], [ 11.21142, 59.0897 ], [ 11.25274, 59.09516 ], [ 11.31566, 59.11651 ], [ 11.3594, 59.11131 ], [ 11.45492, 59.01809 ], [ 11.44501, 58.92335 ], [ 11.45213, 58.89843 ], [ 11.50494, 58.88112 ], [ 11.64994, 58.91877 ], [ 11.67634, 58.96075 ], [ 11.6734, 58.99495 ], [ 11.70645, 59.0455 ], [ 11.77635, 59.10654 ], [ 11.75474, 59.12504 ], [ 11.75857, 59.20878 ], [ 11.82032, 59.23553 ], [ 11.94833, 59.26237 ], [ 12.08448, 59.19705 ], [ 12.06197, 59.27159 ], [ 12.23104, 59.27357 ], [ 12.26763, 59.20213 ], [ 12.34642, 59.18698 ], [ 12.42145, 59.19713 ], [ 12.46443, 59.14489 ], [ 12.57438, 59.13428 ], [ 12.63888, 59.19515 ], [ 12.71025, 59.17821 ], [ 12.7663, 59.15278 ], [ 12.77259, 59.07041 ], [ 12.6885, 58.98677 ], [ 12.65284, 58.9556 ], [ 12.63854, 58.87868 ], [ 12.49293, 58.75047 ], [ 12.49886, 58.69265 ], [ 12.54686, 58.6658 ], [ 12.64963, 58.66222 ], [ 12.67135, 58.64524 ], [ 12.62334, 58.62173 ], [ 12.56634, 58.5823 ], [ 12.52597, 58.53809 ], [ 12.46542, 58.49575 ], [ 12.38636, 58.46782 ], [ 12.32917, 58.42291 ], [ 12.3286, 58.39234 ], [ 12.41992, 58.38568 ], [ 12.45607, 58.40066 ], [ 12.5134, 58.39509 ], [ 12.59467, 58.46428 ], [ 12.65258, 58.46223 ], [ 12.63395, 58.40212 ], [ 12.70468, 58.41895 ], [ 12.70091, 58.4407 ], [ 12.77274, 58.48853 ], [ 12.89098, 58.50037 ], [ 12.95035, 58.55398 ], [ 12.94616, 58.57216 ], [ 13.01015, 58.60935 ], [ 13.11361, 58.70086 ], [ 13.18159, 58.6946 ], [ 13.22364, 58.67671 ], [ 13.13712, 58.51796 ], [ 13.1761, 58.50381 ], [ 13.25524, 58.49825 ], [ 13.30163, 58.5168 ], [ 13.31925, 58.56294 ], [ 13.34461, 58.61418 ], [ 13.43277, 58.64841 ], [ 13.52871, 58.66603 ], [ 13.61286, 58.69491 ], [ 13.70283, 58.69644 ], [ 13.77009, 58.70613 ], [ 13.86047, 58.74901 ], [ 13.88888, 58.77299 ], [ 13.8527, 58.78363 ], [ 13.78091, 58.76877 ], [ 13.73664, 58.75268 ], [ 13.72561, 58.78923 ], [ 13.66491, 58.81889 ], [ 13.68445, 58.85232 ], [ 13.85523, 58.83762 ], [ 13.9074, 58.81906 ], [ 13.96505, 58.85074 ], [ 14.00479, 58.89824 ], [ 14.02192, 58.95458 ], [ 14.00272, 59.00236 ], [ 14.11686, 59.041 ], [ 14.21017, 59.04225 ], [ 14.26796, 58.99974 ], [ 14.3084, 58.89301 ], [ 14.37041, 58.87012 ], [ 14.32677, 58.83415 ], [ 14.40244, 58.79916 ], [ 14.45764, 58.79716 ], [ 14.46815, 58.72436 ], [ 14.53764, 58.7245 ], [ 14.54625, 58.69694 ], [ 14.59644, 58.70525 ], [ 14.62508, 58.74537 ], [ 14.68429, 58.74595 ], [ 14.72147, 58.70178 ], [ 14.67133, 58.66871 ], [ 14.58778, 58.64768 ], [ 14.54189, 58.62472 ], [ 14.54037, 58.58145 ], [ 14.53276, 58.54212 ], [ 14.49038, 58.48285 ], [ 14.45023, 58.47042 ], [ 14.3515, 58.34712 ], [ 14.28119, 58.30001 ], [ 14.25412, 58.22733 ], [ 14.21923, 58.1857 ], [ 14.21303, 58.14569 ], [ 14.11324, 58.15167 ], [ 14.11422, 58.07524 ], [ 14.07178, 58.04657 ], [ 14.0686, 58.02868 ], [ 13.96018, 58.00941 ], [ 13.95097, 58.03419 ], [ 13.87583, 58.05027 ], [ 13.84675, 58.03897 ], [ 13.79846, 58.05379 ], [ 13.77634, 58.04998 ], [ 13.75785, 58.01414 ], [ 13.70845, 57.98208 ], [ 13.70887, 57.93757 ], [ 13.74919, 57.88287 ], [ 13.74145, 57.84354 ], [ 13.74269, 57.76412 ], [ 13.71093, 57.73489 ], [ 13.70745, 57.70739 ], [ 13.73681, 57.6688 ], [ 13.72205, 57.6406 ], [ 13.67643, 57.62823 ], [ 13.67289, 57.60674 ], [ 13.68209, 57.56124 ], [ 13.66741, 57.53304 ], [ 13.62109, 57.51528 ], [ 13.50829, 57.41567 ], [ 13.48606, 57.38058 ], [ 13.4301, 57.36317 ], [ 13.42973, 57.33974 ], [ 13.38545, 57.33264 ], [ 13.36917, 57.3135 ], [ 13.29351, 57.30349 ], [ 13.27274, 57.24728 ], [ 13.22774, 57.25638 ], [ 13.19789, 57.23419 ], [ 13.18047, 57.18444 ], [ 13.13331, 57.14914 ], [ 13.1009, 57.16069 ], [ 13.07278, 57.14922 ], [ 13.04755, 57.15744 ], [ 13.05729, 57.17868 ], [ 13.01206, 57.1859 ], [ 12.94123, 57.1761 ], [ 12.93224, 57.22872 ], [ 12.95329, 57.2369 ], [ 12.93106, 57.2666 ], [ 12.85833, 57.26763 ], [ 12.79867, 57.28908 ], [ 12.70549, 57.33211 ], [ 12.65291, 57.33769 ], [ 12.52764, 57.32248 ], [ 12.50545, 57.28002 ], [ 12.42793, 57.27199 ], [ 12.43079, 57.32055 ], [ 12.39572, 57.34196 ], [ 12.41174, 57.41091 ], [ 12.39716, 57.4431 ], [ 12.38163, 57.45276 ], [ 12.35573, 57.45779 ], [ 12.34493, 57.46921 ], [ 12.35461, 57.49204 ], [ 12.34393, 57.51258 ], [ 12.32676, 57.52915 ], [ 12.34286, 57.56774 ], [ 12.28404, 57.60418 ], [ 12.20564, 57.57643 ], [ 12.13827, 57.56227 ], [ 12.03846, 57.54961 ], [ 12.01327, 57.5628 ], [ 11.94735, 57.56111 ], [ 11.95148, 57.58502 ], [ 11.95196, 57.62845 ], [ 11.94218, 57.63774 ], [ 11.92608, 57.62213 ], [ 11.91329, 57.6222 ] ], [ [ 12.80552, 57.86052 ], [ 12.66833, 57.85352 ], [ 12.7641, 57.85742 ], [ 12.80552, 57.86052 ] ] ] } },
{ "type": "Feature", "properties": { "typ": "natverk", "namn": null, "bef": null }, "geometry": { "type": "LineString", "coordinates": [ [ 15.42539, 57.77457 ], [ 15.47911, 57.76466 ], [ 15.51148, 57.75176 ], [ 15.53309, 57.73566 ], [ 15.66531, 57.68764 ], [ 15.6986, 57.66435 ], [ 15.74446, 57.65175 ], [ 15.77432, 57.63309 ], [ 15.78968, 57.60992 ], [ 15.78971, 57.58881 ], [ 15.77758, 57.56874 ], [ 15.75189, 57.55032 ], [ 15.77591, 57.51546 ], [ 15.77462, 57.48759 ], [ 15.76449, 57.47088 ], [ 15.74419, 57.45449 ], [ 15.73909, 57.43308 ], [ 15.71959, 57.40684 ], [ 15.68235, 57.38371 ], [ 15.64349, 57.3723 ], [ 15.63878, 57.35705 ], [ 15.64301, 57.33141 ], [ 15.63233, 57.2936 ], [ 15.6214, 57.27745 ], [ 15.63821, 57.2603 ], [ 15.6492, 57.22973 ], [ 15.66943, 57.21299 ], [ 15.68025, 57.19096 ], [ 15.72596, 57.17465 ], [ 15.74542, 57.16037 ], [ 15.75888, 57.14035 ], [ 15.81434, 57.11766 ], [ 15.83855, 57.09411 ], [ 15.87603, 57.07389 ], [ 15.91235, 57.04781 ], [ 15.93917, 57.02221 ], [ 15.94983, 57.00819 ], [ 15.95915, 56.9799 ], [ 15.95555, 56.93617 ], [ 15.94089, 56.91154 ], [ 15.90372, 56.8752 ], [ 15.88302, 56.86154 ], [ 15.85654, 56.85131 ], [ 15.82611, 56.84521 ], [ 15.72547, 56.84377 ], [ 15.67479, 56.83555 ], [ 15.66827, 56.80144 ], [ 15.63383, 56.76534 ], [ 15.59638, 56.74703 ], [ 15.53846, 56.73391 ], [ 15.54501, 56.71259 ], [ 15.53878, 56.68673 ], [ 15.54213, 56.67063 ], [ 15.53754, 56.63342 ], [ 15.52741, 56.61316 ], [ 15.50749, 56.59614 ], [ 15.50874, 56.56624 ], [ 15.4936, 56.53328 ], [ 15.47623, 56.51552 ], [ 15.48475, 56.48869 ], [ 15.48235, 56.46775 ], [ 15.46144, 56.44237 ], [ 15.39106, 56.40125 ], [ 15.34546, 56.39001 ], [ 15.29621, 56.38975 ], [ 15.24381, 56.36891 ], [ 15.20171, 56.36116 ], [ 15.15742, 56.36231 ], [ 15.09417, 56.37583 ], [ 15.07301, 56.37247 ], [ 15.05627, 56.35783 ], [ 14.97689, 56.30832 ], [ 14.9375, 56.29746 ], [ 14.87538, 56.29237 ], [ 14.83032, 56.29398 ], [ 14.75114, 56.31298 ], [ 14.64001, 56.32436 ], [ 14.60848, 56.33461 ], [ 14.55858, 56.36109 ], [ 14.53571, 56.35099 ], [ 14.52633, 56.32899 ], [ 14.54319, 56.31128 ], [ 14.54987, 56.29119 ], [ 14.58844, 56.2904 ], [ 14.62898, 56.2816 ], [ 14.66128, 56.26539 ], [ 14.67921, 56.24717 ], [ 14.70131, 56.17517 ], [ 14.70578, 56.12723 ], [ 14.69708, 56.08644 ], [ 14.68801, 56.07013 ], [ 14.67198, 56.05566 ], [ 14.66514, 56.04211 ], [ 14.63473, 56.00695 ], [ 14.61615, 55.9946 ] ] } },
{ "type": "Feature", "properties": { "typ": "stad", "namn": "Anderstorp", "bef": 5019.0 }, "geometry": { "type": "Point", "coordinates": [ 13.63057, 57.28095 ] } },
{ "type": "Feature", "properties": { "typ": "stad", "namn": "Smålandsstenar", "bef": 4550.0 }, "geometry": { "type": "Point", "coordinates": [ 13.4056, 57.15874 ] } },
{ "type": "Feature", "properties": { "typ": "stad", "namn": "Gislaved", "bef": 9986.0 }, "geometry": { "type": "Point", "coordinates": [ 13.55398, 57.30289 ] } },
{ "type": "Feature", "properties": { "typ": "stad", "namn": "Jönköping", "bef": 103816.0 }, "geometry": { "type": "Point", "coordinates": [ 14.15528, 57.74523 ] } },
{ "type": "Feature", "properties": { "typ": "stad", "namn": "Värnamo", "bef": 20232.0 }, "geometry": { "type": "Point", "coordinates": [ 14.02672, 57.19288 ] } },
{ "type": "Feature", "properties": { "typ": "stad", "namn": "Älmhult", "bef": 10855.0 }, "geometry": { "type": "Point", "coordinates": [ 14.13144, 56.55699 ] } },
{ "type": "Feature", "properties": { "typ": "stad", "namn": "Markaryd", "bef": 5042.0 }, "geometry": { "type": "Point", "coordinates": [ 13.59578, 56.46211 ] } },
{ "type": "Feature", "properties": { "typ": "stad", "namn": "Växjö", "bef": 74922.0 }, "geometry": { "type": "Point", "coordinates": [ 14.77268, 56.88666 ] } },
{ "type": "Feature", "properties": { "typ": "stad", "namn": "Ljungby", "bef": 16148.0 }, "geometry": { "type": "Point", "coordinates": [ 13.94091, 56.83038 ] } },
{ "type": "Feature", "properties": { "typ": "stad", "namn": "Båstad", "bef": 7080.0 }, "geometry": { "type": "Point", "coordinates": [ 12.85199, 56.42721 ] } },
{ "type": "Feature", "properties": { "typ": "stad", "namn": "Osby", "bef": 7622.0 }, "geometry": { "type": "Point", "coordinates": [ 13.9841, 56.37821 ] } },
{ "type": "Feature", "properties": { "typ": "stad", "namn": "Klippan", "bef": 9039.0 }, "geometry": { "type": "Point", "coordinates": [ 13.13751, 56.13532 ] } },
{ "type": "Feature", "properties": { "typ": "stad", "namn": "Åstorp", "bef": 10028.0 }, "geometry": { "type": "Point", "coordinates": [ 12.94453, 56.13945 ] } },
{ "type": "Feature", "properties": { "typ": "stad", "namn": "Malmö", "bef": 342588.0 }, "geometry": { "type": "Point", "coordinates": [ 13.01691, 55.59692 ] } },
{ "type": "Feature", "properties": { "typ": "stad", "namn": "Lund", "bef": 99723.0 }, "geometry": { "type": "Point", "coordinates": [ 13.20428, 55.71321 ] } },
{ "type": "Feature", "properties": { "typ": "stad", "namn": "Kristianstad", "bef": 41108.0 }, "geometry": { "type": "Point", "coordinates": [ 14.1686, 56.02321 ] } },
{ "type": "Feature", "properties": { "typ": "stad", "namn": "Landskrona", "bef": 34067.0 }, "geometry": { "type": "Point", "coordinates": [ 12.83529, 55.88155 ] } },
{ "type": "Feature", "properties": { "typ": "stad", "namn": "Helsingborg", "bef": 116741.0 }, "geometry": { "type": "Point", "coordinates": [ 12.7249, 56.03952 ] } },
{ "type": "Feature", "properties": { "typ": "stad", "namn": "Ängelholm", "bef": 31239.0 }, "geometry": { "type": "Point", "coordinates": [ 12.835, 56.27979 ] } },
{ "type": "Feature", "properties": { "typ": "stad", "namn": "Hässleholm", "bef": 19931.0 }, "geometry": { "type": "Point", "coordinates": [ 13.76371, 56.15804 ] } },
{ "type": "Feature", "properties": { "typ": "stad", "namn": "Lerum", "bef": 28680.0 }, "geometry": { "type": "Point", "coordinates": [ 12.31222, 57.78525 ] } },
{ "type": "Feature", "properties": { "typ": "stad", "namn": "Kinna", "bef": 15436.0 }, "geometry": { "type": "Point", "coordinates": [ 12.66604, 57.48984 ] } },
{ "type": "Feature", "properties": { "typ": "stad", "namn": "Kungälv", "bef": 29294.0 }, "geometry": { "type": "Point", "coordinates": [ 11.93612, 57.87837 ] } },
{ "type": "Feature", "properties": { "typ": "stad", "namn": "Alingsås", "bef": 28319.0 }, "geometry": { "type": "Point", "coordinates": [ 12.53832, 57.93011 ] } },
{ "type": "Feature", "properties": { "typ": "stad", "namn": "Ulricehamn", "bef": 11869.0 }, "geometry": { "type": "Point", "coordinates": [ 13.41735, 57.78813 ] } },
{ "type": "Feature", "properties": { "typ": "stad", "namn": "Trollhättan", "bef": 49884.0 }, "geometry": { "type": "Point", "coordinates": [ 12.30556, 58.28862 ] } },
{ "type": "Feature", "properties": { "typ": "stad", "namn": "Borås", "bef": 75834.0 }, "geometry": { "type": "Point", "coordinates": [ 12.94249, 57.74076 ] } },
{ "type": "Feature", "properties": { "typ": "stad", "namn": "Göteborg", "bef": 639734.0 }, "geometry": { "type": "Point", "coordinates": [ 11.94565, 57.65748 ] } }
]
}
