{
"type": "FeatureCollection",
"name": "05-kom-service",
"crs": { "type": "name", "properties": { "name": "urn:ogc:def:crs:OGC:1.3:CRS84" } },
"xy_coordinate_resolution": 1e-05,
"features": [
{ "type": "Feature", "properties": { "kn": "1315", "kom_namn": "Hylte", "pop": 10090.0, "akutsjukhus_BICYCLE": null, "akutsjukhus_CAR": 45.0, "akutsjukhus_TRANSIT": 53.0, "akutsjukhus_TRANSIT50": null, "akutsjukhus_WALK": null, "apotek_BICYCLE": 16.0, "apotek_CAR": 8.0, "apotek_TRANSIT": 18.0, "apotek_TRANSIT50": 22.0, "apotek_WALK": 17.0, "bibliotek_BICYCLE": 16.0, "bibliotek_CAR": 6.0, "bibliotek_TRANSIT": 15.0, "bibliotek_TRANSIT50": 19.0, "bibliotek_WALK": 17.0, "dagligvaror_BICYCLE": 15.0, "dagligvaror_CAR": 6.0, "dagligvaror_TRANSIT": 15.0, "dagligvaror_TRANSIT50": 18.0, "dagligvaror_WALK": 17.0, "drivmedel_BICYCLE": 14.0, "drivmedel_CAR": 5.0, "drivmedel_TRANSIT": 14.0, "drivmedel_TRANSIT50": 17.0, "drivmedel_WALK": 14.0, "forskola_BICYCLE": 37.0, "forskola_CAR": 12.0, "forskola_TRANSIT": 25.0, "forskola_TRANSIT50": 38.0, "forskola_WALK": 20.0, "grundskola_79_BICYCLE": 24.0, "grundskola_79_CAR": 11.0, "grundskola_79_TRANSIT": 24.0, "grundskola_79_TRANSIT50": 30.0, "grundskola_79_WALK": 21.0, "grundskola_f6_BICYCLE": 11.0, "grundskola_f6_CAR": 4.0, "grundskola_f6_TRANSIT": 14.0, "grundskola_f6_TRANSIT50": 16.0, "grundskola_f6_WALK": 16.0, "gymnasium_BICYCLE": 23.0, "gymnasium_CAR": 11.0, "gymnasium_TRANSIT": 23.0, "gymnasium_TRANSIT50": 29.0, "gymnasium_WALK": 18.0, "hallplats_BICYCLE": 9.0, "hallplats_CAR": 3.0, "hallplats_TRANSIT": 10.0, "hallplats_TRANSIT50": 10.0, "hallplats_WALK": 10.0, "narakut_BICYCLE": null, "narakut_CAR": null, "narakut_TRANSIT": null, "narakut_TRANSIT50": null, "narakut_WALK": null, "tandvard_BICYCLE": 25.0, "tandvard_CAR": 12.0, "tandvard_TRANSIT": 22.0, "tandvard_TRANSIT50": 27.0, "tandvard_WALK": 18.0, "vardcentral_BICYCLE": 25.0, "vardcentral_CAR": 11.0, "vardcentral_TRANSIT": 22.0, "vardcentral_TRANSIT50": 27.0, "vardcentral_WALK": 18.0, "v15_BICYCLE": 3.7, "v15_WALK": 2.5, "namn": "Hylte" }, "geometry": { "type": "Polygon", "coordinates": [ [ [ 13.43655, 56.87185 ], [ 13.43838, 56.87564 ], [ 13.44369, 56.8798 ], [ 13.45279, 56.87939 ], [ 13.45985, 56.88053 ], [ 13.46046, 56.87814 ], [ 13.46698, 56.87656 ], [ 13.46996, 56.87859 ], [ 13.47411, 56.87559 ], [ 13.46864, 56.87409 ], [ 13.47089, 56.873 ], [ 13.47129, 56.87029 ], [ 13.48199, 56.87234 ], [ 13.48727, 56.87106 ], [ 13.50787, 56.87898 ], [ 13.52164, 56.88778 ], [ 13.52766, 56.88923 ], [ 13.52988, 56.89129 ], [ 13.53646, 56.89131 ], [ 13.53869, 56.88687 ], [ 13.5438, 56.88693 ], [ 13.55517, 56.89283 ], [ 13.55932, 56.89364 ], [ 13.56415, 56.89118 ], [ 13.57661, 56.88928 ], [ 13.58227, 56.89007 ], [ 13.60363, 56.89724 ], [ 13.61817, 56.90859 ], [ 13.6234, 56.90756 ], [ 13.66203, 56.91355 ], [ 13.66602, 56.9209 ], [ 13.68742, 56.92681 ], [ 13.68487, 56.93182 ], [ 13.6889, 56.9371 ], [ 13.68218, 56.93967 ], [ 13.68155, 56.9422 ], [ 13.68409, 56.94494 ], [ 13.68917, 56.94624 ], [ 13.69357, 56.96354 ], [ 13.66704, 56.98008 ], [ 13.66418, 56.9846 ], [ 13.65637, 56.98396 ], [ 13.64787, 56.9858 ], [ 13.64774, 56.98767 ], [ 13.63041, 56.98621 ], [ 13.62686, 56.9914 ], [ 13.62898, 56.99402 ], [ 13.61619, 56.99994 ], [ 13.61347, 57.00304 ], [ 13.60254, 57.00838 ], [ 13.59546, 57.01525 ], [ 13.60262, 57.02404 ], [ 13.59342, 57.03017 ], [ 13.58551, 57.03255 ], [ 13.59894, 57.03693 ], [ 13.60795, 57.04203 ], [ 13.60746, 57.0439 ], [ 13.60232, 57.04608 ], [ 13.60263, 57.04916 ], [ 13.60572, 57.05064 ], [ 13.60359, 57.05966 ], [ 13.59888, 57.0633 ], [ 13.5956, 57.06393 ], [ 13.58241, 57.06516 ], [ 13.58043, 57.06326 ], [ 13.57372, 57.0628 ], [ 13.56878, 57.06554 ], [ 13.57422, 57.07002 ], [ 13.54641, 57.07937 ], [ 13.53693, 57.08093 ], [ 13.53289, 57.07901 ], [ 13.53499, 57.08145 ], [ 13.52725, 57.0874 ], [ 13.50541, 57.08508 ], [ 13.50461, 57.07383 ], [ 13.50072, 57.07356 ], [ 13.48968, 57.0855 ], [ 13.50081, 57.08981 ], [ 13.49592, 57.09493 ], [ 13.49567, 57.10055 ], [ 13.49929, 57.10654 ], [ 13.49745, 57.10926 ], [ 13.48903, 57.11384 ], [ 13.47802, 57.11065 ], [ 13.47632, 57.10871 ], [ 13.47228, 57.10764 ], [ 13.46902, 57.10261 ], [ 13.46104, 57.09948 ], [ 13.45976, 57.09774 ], [ 13.45335, 57.09649 ], [ 13.4518, 57.09955 ], [ 13.45401, 57.10379 ], [ 13.44252, 57.10669 ], [ 13.44037, 57.11028 ], [ 13.42344, 57.11291 ], [ 13.38717, 57.1139 ], [ 13.38615, 57.11081 ], [ 13.36668, 57.11367 ], [ 13.35141, 57.11329 ], [ 13.34647, 57.11028 ], [ 13.33766, 57.10769 ], [ 13.33386, 57.10659 ], [ 13.33143, 57.10747 ], [ 13.32967, 57.10557 ], [ 13.32071, 57.10236 ], [ 13.3163, 57.10298 ], [ 13.3082, 57.10201 ], [ 13.30498, 57.10392 ], [ 13.30156, 57.10404 ], [ 13.29547, 57.10149 ], [ 13.29269, 57.10335 ], [ 13.28934, 57.10343 ], [ 13.28541, 57.09953 ], [ 13.27673, 57.09611 ], [ 13.27479, 57.0922 ], [ 13.2723, 57.09122 ], [ 13.2716, 57.09267 ], [ 13.25381, 57.08935 ], [ 13.23247, 57.09782 ], [ 13.22698, 57.09688 ], [ 13.2235, 57.09533 ], [ 13.22428, 57.09377 ], [ 13.22661, 57.09476 ], [ 13.23338, 57.0902 ], [ 13.22888, 57.0857 ], [ 13.22387, 57.08369 ], [ 13.23371, 57.07906 ], [ 13.22938, 57.0768 ], [ 13.21156, 57.07436 ], [ 13.20642, 57.07099 ], [ 13.20091, 57.07216 ], [ 13.19114, 57.06598 ], [ 13.1921, 57.06426 ], [ 13.1876, 57.06334 ], [ 13.17994, 57.06684 ], [ 13.17527, 57.05776 ], [ 13.17188, 57.05492 ], [ 13.16189, 57.05153 ], [ 13.16814, 57.0485 ], [ 13.1903, 57.05836 ], [ 13.19282, 57.05489 ], [ 13.19833, 57.05381 ], [ 13.19638, 57.05078 ], [ 13.19024, 57.04874 ], [ 13.1852, 57.04929 ], [ 13.17866, 57.04808 ], [ 13.1563, 57.03741 ], [ 13.14791, 57.03636 ], [ 13.14496, 57.03765 ], [ 13.13542, 57.03376 ], [ 13.13332, 57.02707 ], [ 13.12118, 57.02514 ], [ 13.12168, 57.028 ], [ 13.11784, 57.03306 ], [ 13.12186, 57.03584 ], [ 13.11325, 57.04082 ], [ 13.11509, 57.04287 ], [ 13.11447, 57.04704 ], [ 13.12175, 57.05354 ], [ 13.12143, 57.05682 ], [ 13.11953, 57.05914 ], [ 13.11479, 57.06024 ], [ 13.11626, 57.06436 ], [ 13.107, 57.06561 ], [ 13.09913, 57.07014 ], [ 13.10027, 57.07409 ], [ 13.09539, 57.07345 ], [ 13.09446, 57.07566 ], [ 13.08744, 57.07797 ], [ 13.08121, 57.08355 ], [ 13.08962, 57.0861 ], [ 13.07907, 57.0989 ], [ 13.0628, 57.09447 ], [ 13.06644, 57.09092 ], [ 13.06219, 57.08966 ], [ 13.05801, 57.08642 ], [ 13.05096, 57.08721 ], [ 13.04572, 57.08454 ], [ 13.04116, 57.0857 ], [ 13.03927, 57.08759 ], [ 13.02457, 57.08276 ], [ 13.02342, 57.0728 ], [ 13.02059, 57.07118 ], [ 13.00983, 57.05055 ], [ 13.01681, 57.04707 ], [ 13.0027, 57.04105 ], [ 13.00406, 57.03719 ], [ 13.00061, 57.03615 ], [ 12.99769, 57.0423 ], [ 12.98081, 57.04769 ], [ 12.97207, 57.047 ], [ 12.97192, 57.05103 ], [ 12.95469, 57.04471 ], [ 12.94602, 57.04725 ], [ 12.94028, 57.04655 ], [ 12.94129, 57.04908 ], [ 12.93799, 57.05131 ], [ 12.94376, 57.05504 ], [ 12.94387, 57.05737 ], [ 12.9367, 57.05829 ], [ 12.91865, 57.05416 ], [ 12.92026, 57.0504 ], [ 12.90814, 57.04285 ], [ 12.9134, 57.04102 ], [ 12.91425, 57.03665 ], [ 12.90742, 57.03271 ], [ 12.90577, 57.02981 ], [ 12.90174, 57.02898 ], [ 12.90029, 57.02701 ], [ 12.90261, 57.02409 ], [ 12.8995, 57.02081 ], [ 12.89235, 57.02065 ], [ 12.88291, 57.01835 ], [ 12.87049, 57.02336 ], [ 12.85958, 57.02264 ], [ 12.85345, 57.0208 ], [ 12.84544, 57.0151 ], [ 12.85133, 57.00413 ], [ 12.84456, 57.00087 ], [ 12.84129, 57.00242 ], [ 12.83483, 57.00267 ], [ 12.83263, 57.00115 ], [ 12.83276, 56.9955 ], [ 12.82467, 56.99145 ], [ 12.82626, 56.98645 ], [ 12.82103, 56.9826 ], [ 12.82274, 56.97492 ], [ 12.83858, 56.96555 ], [ 12.84796, 56.96887 ], [ 12.85259, 56.96879 ], [ 12.8556, 56.96615 ], [ 12.85881, 56.96924 ], [ 12.86417, 56.97119 ], [ 12.87044, 56.96877 ], [ 12.87348, 56.96443 ], [ 12.86835, 56.95961 ], [ 12.86892, 56.9559 ], [ 12.87405, 56.9558 ], [ 12.88071, 56.95842 ], [ 12.88695, 56.95519 ], [ 12.89133, 56.9546 ], [ 12.90001, 56.95757 ], [ 12.90333, 56.95686 ], [ 12.91063, 56.95762 ], [ 12.91325, 56.95923 ], [ 12.91623, 56.94855 ], [ 12.91182, 56.94342 ], [ 12.92301, 56.94073 ], [ 12.93276, 56.94429 ], [ 12.93535, 56.9436 ], [ 12.93571, 56.93519 ], [ 12.9402, 56.93317 ], [ 12.93864, 56.93352 ], [ 12.94286, 56.92686 ], [ 12.94212, 56.92231 ], [ 12.94405, 56.92127 ], [ 12.94866, 56.91975 ], [ 12.95197, 56.92285 ], [ 12.9727, 56.92385 ], [ 12.97582, 56.91826 ], [ 12.98201, 56.91602 ], [ 12.99212, 56.91547 ], [ 12.9964, 56.91777 ], [ 13.0029, 56.91549 ], [ 13.00553, 56.91189 ], [ 12.99992, 56.89847 ], [ 13.00667, 56.89839 ], [ 13.00551, 56.89599 ], [ 13.00739, 56.89538 ], [ 13.00409, 56.88791 ], [ 12.9997, 56.88784 ], [ 13.00138, 56.87507 ], [ 12.99879, 56.8727 ], [ 13.00108, 56.86533 ], [ 13.01544, 56.86126 ], [ 13.03252, 56.85375 ], [ 13.03084, 56.85161 ], [ 13.03595, 56.84976 ], [ 13.03357, 56.84586 ], [ 13.03453, 56.84351 ], [ 13.04314, 56.84109 ], [ 13.0485, 56.84248 ], [ 13.05373, 56.84168 ], [ 13.06743, 56.84419 ], [ 13.07436, 56.85098 ], [ 13.07613, 56.85813 ], [ 13.08765, 56.86588 ], [ 13.09607, 56.86797 ], [ 13.10364, 56.86484 ], [ 13.11634, 56.86792 ], [ 13.11475, 56.87012 ], [ 13.11805, 56.87378 ], [ 13.11694, 56.87773 ], [ 13.12064, 56.88031 ], [ 13.11814, 56.88439 ], [ 13.12575, 56.88989 ], [ 13.13716, 56.89213 ], [ 13.15089, 56.88842 ], [ 13.15036, 56.88647 ], [ 13.15409, 56.88277 ], [ 13.16391, 56.88307 ], [ 13.17198, 56.88083 ], [ 13.17681, 56.87778 ], [ 13.17523, 56.87598 ], [ 13.17873, 56.87439 ], [ 13.15608, 56.83982 ], [ 13.16306, 56.8272 ], [ 13.18073, 56.82605 ], [ 13.18043, 56.82803 ], [ 13.185, 56.82987 ], [ 13.19268, 56.83003 ], [ 13.20202, 56.83567 ], [ 13.20683, 56.83502 ], [ 13.20942, 56.83192 ], [ 13.2131, 56.83229 ], [ 13.23999, 56.84105 ], [ 13.24092, 56.84745 ], [ 13.24328, 56.84802 ], [ 13.25065, 56.84623 ], [ 13.25542, 56.84695 ], [ 13.26185, 56.85301 ], [ 13.26672, 56.85284 ], [ 13.28932, 56.83508 ], [ 13.2971, 56.83091 ], [ 13.29816, 56.82365 ], [ 13.33791, 56.83824 ], [ 13.33462, 56.84421 ], [ 13.33822, 56.84448 ], [ 13.3399, 56.85004 ], [ 13.33411, 56.8516 ], [ 13.3373, 56.85563 ], [ 13.33151, 56.86185 ], [ 13.3353, 56.86524 ], [ 13.33463, 56.87416 ], [ 13.33853, 56.87243 ], [ 13.34432, 56.87269 ], [ 13.34484, 56.87003 ], [ 13.3478, 56.86814 ], [ 13.34569, 56.86399 ], [ 13.35252, 56.86341 ], [ 13.35483, 56.8588 ], [ 13.35896, 56.85729 ], [ 13.37278, 56.86273 ], [ 13.38937, 56.86696 ], [ 13.39631, 56.86712 ], [ 13.40507, 56.87059 ], [ 13.41365, 56.87121 ], [ 13.4178, 56.86955 ], [ 13.43222, 56.86904 ], [ 13.43655, 56.87185 ] ] ] } },
{ "type": "Feature", "properties": { "kn": "1380", "kom_namn": "Halmstad", "pop": 106310.0, "akutsjukhus_BICYCLE": 20.0, "akutsjukhus_CAR": 13.0, "akutsjukhus_TRANSIT": 30.0, "akutsjukhus_TRANSIT50": 34.0, "akutsjukhus_WALK": 34.0, "apotek_BICYCLE": 11.0, "apotek_CAR": 6.0, "apotek_TRANSIT": 14.0, "apotek_TRANSIT50": 18.0, "apotek_WALK": 16.0, "bibliotek_BICYCLE": 10.0, "bibliotek_CAR": 6.0, "bibliotek_TRANSIT": 15.0, "bibliotek_TRANSIT50": 19.0, "bibliotek_WALK": 19.0, "dagligvaror_BICYCLE": 6.0, "dagligvaror_CAR": 3.0, "dagligvaror_TRANSIT": 10.0, "dagligvaror_TRANSIT50": 12.0, "dagligvaror_WALK": 13.0, "drivmedel_BICYCLE": 7.0, "drivmedel_CAR": 4.0, "drivmedel_TRANSIT": 12.0, "drivmedel_TRANSIT50": 16.0, "drivmedel_WALK": 16.0, "forskola_BICYCLE": 6.0, "forskola_CAR": 4.0, "forskola_TRANSIT": 10.0, "forskola_TRANSIT50": 13.0, "forskola_WALK": 13.0, "grundskola_79_BICYCLE": 8.0, "grundskola_79_CAR": 5.0, "grundskola_79_TRANSIT": 12.0, "grundskola_79_TRANSIT50": 16.0, "grundskola_79_WALK": 15.0, "grundskola_f6_BICYCLE": 5.0, "grundskola_f6_CAR": 3.0, "grundskola_f6_TRANSIT": 10.0, "grundskola_f6_TRANSIT50": 11.0, "grundskola_f6_WALK": 12.0, "gymnasium_BICYCLE": 14.0, "gymnasium_CAR": 9.0, "gymnasium_TRANSIT": 19.0, "gymnasium_TRANSIT50": 23.0, "gymnasium_WALK": 20.0, "hallplats_BICYCLE": 2.0, "hallplats_CAR": 1.0, "hallplats_TRANSIT": 5.0, "hallplats_TRANSIT50": 5.0, "hallplats_WALK": 5.0, "narakut_BICYCLE": null, "narakut_CAR": 46.0, "narakut_TRANSIT": 56.0, "narakut_TRANSIT50": null, "narakut_WALK": null, "tandvard_BICYCLE": 11.0, "tandvard_CAR": 6.0, "tandvard_TRANSIT": 14.0, "tandvard_TRANSIT50": 18.0, "tandvard_WALK": 16.0, "vardcentral_BICYCLE": 11.0, "vardcentral_CAR": 6.0, "vardcentral_TRANSIT": 13.0, "vardcentral_TRANSIT50": 17.0, "vardcentral_WALK": 15.0, "v15_BICYCLE": 5.2, "v15_WALK": 4.0, "namn": "Halmstad" }, "geometry": { "type": "MultiPolygon", "coordinates": [ [ [ [ 12.84527, 56.64693 ], [ 12.85385, 56.64528 ], [ 12.87505, 56.65103 ], [ 12.88098, 56.65005 ], [ 12.89545, 56.63628 ], [ 12.90873, 56.62033 ], [ 12.90877, 56.61961 ], [ 12.90612, 56.62029 ], [ 12.9049, 56.61883 ], [ 12.9076, 56.61708 ], [ 12.90644, 56.61454 ], [ 12.911, 56.61462 ], [ 12.91509, 56.61145 ], [ 12.91309, 56.60027 ], [ 12.91574, 56.5996 ], [ 12.91649, 56.59781 ], [ 12.92172, 56.59754 ], [ 12.92458, 56.59292 ], [ 12.92911, 56.59335 ], [ 12.92988, 56.59121 ], [ 12.93314, 56.59126 ], [ 12.93586, 56.58915 ], [ 12.94354, 56.56771 ], [ 12.94493, 56.55407 ], [ 12.96822, 56.54824 ], [ 12.96875, 56.54581 ], [ 12.97401, 56.54239 ], [ 12.9876, 56.55679 ], [ 12.99639, 56.5592 ], [ 13.00661, 56.56768 ], [ 13.00969, 56.57352 ], [ 13.02017, 56.57392 ], [ 13.02147, 56.57522 ], [ 13.01896, 56.57735 ], [ 13.01962, 56.57932 ], [ 13.01696, 56.58079 ], [ 13.01591, 56.5836 ], [ 13.01735, 56.58384 ], [ 13.01513, 56.58496 ], [ 13.01732, 56.58536 ], [ 13.01681, 56.58782 ], [ 13.0231, 56.58982 ], [ 13.02185, 56.59089 ], [ 13.02496, 56.59056 ], [ 13.02769, 56.59566 ], [ 13.04042, 56.59678 ], [ 13.04737, 56.60066 ], [ 13.0506, 56.60039 ], [ 13.05599, 56.60211 ], [ 13.05739, 56.6011 ], [ 13.06206, 56.60279 ], [ 13.06102, 56.60379 ], [ 13.06361, 56.60336 ], [ 13.09283, 56.61304 ], [ 13.10136, 56.61453 ], [ 13.12988, 56.63055 ], [ 13.13636, 56.62359 ], [ 13.14183, 56.62451 ], [ 13.14751, 56.62874 ], [ 13.15802, 56.63029 ], [ 13.16415, 56.63433 ], [ 13.16593, 56.64613 ], [ 13.16409, 56.65026 ], [ 13.18797, 56.65035 ], [ 13.19644, 56.65408 ], [ 13.18941, 56.66235 ], [ 13.18087, 56.66367 ], [ 13.1751, 56.66676 ], [ 13.17427, 56.67425 ], [ 13.18849, 56.67556 ], [ 13.18981, 56.67694 ], [ 13.20216, 56.67539 ], [ 13.21962, 56.67617 ], [ 13.2227, 56.67383 ], [ 13.22517, 56.67623 ], [ 13.24926, 56.67533 ], [ 13.27802, 56.68006 ], [ 13.28847, 56.6791 ], [ 13.29128, 56.68358 ], [ 13.29836, 56.68762 ], [ 13.30294, 56.68571 ], [ 13.30779, 56.68547 ], [ 13.31588, 56.69227 ], [ 13.31665, 56.70128 ], [ 13.31513, 56.70231 ], [ 13.32511, 56.70757 ], [ 13.31712, 56.71952 ], [ 13.3165, 56.73029 ], [ 13.3198, 56.75865 ], [ 13.31887, 56.78224 ], [ 13.31502, 56.79392 ], [ 13.30493, 56.80404 ], [ 13.3031, 56.8095 ], [ 13.30149, 56.8092 ], [ 13.2971, 56.83091 ], [ 13.28932, 56.83508 ], [ 13.26672, 56.85284 ], [ 13.26185, 56.85301 ], [ 13.25542, 56.84695 ], [ 13.25065, 56.84623 ], [ 13.24328, 56.84802 ], [ 13.24092, 56.84745 ], [ 13.23999, 56.84105 ], [ 13.2131, 56.83229 ], [ 13.20942, 56.83192 ], [ 13.20683, 56.83502 ], [ 13.20202, 56.83567 ], [ 13.19268, 56.83003 ], [ 13.185, 56.82987 ], [ 13.18043, 56.82803 ], [ 13.18073, 56.82605 ], [ 13.16306, 56.8272 ], [ 13.15608, 56.83982 ], [ 13.17873, 56.87439 ], [ 13.17523, 56.87598 ], [ 13.17681, 56.87778 ], [ 13.17198, 56.88083 ], [ 13.16391, 56.88307 ], [ 13.15409, 56.88277 ], [ 13.15036, 56.88647 ], [ 13.15089, 56.88842 ], [ 13.13716, 56.89213 ], [ 13.12575, 56.88989 ], [ 13.11814, 56.88439 ], [ 13.12064, 56.88031 ], [ 13.11694, 56.87773 ], [ 13.11805, 56.87378 ], [ 13.11475, 56.87012 ], [ 13.11634, 56.86792 ], [ 13.10364, 56.86484 ], [ 13.09607, 56.86797 ], [ 13.08765, 56.86588 ], [ 13.07613, 56.85813 ], [ 13.07436, 56.85098 ], [ 13.06743, 56.84419 ], [ 13.05373, 56.84168 ], [ 13.0485, 56.84248 ], [ 13.04314, 56.84109 ], [ 13.03453, 56.84351 ], [ 13.03357, 56.84586 ], [ 13.03595, 56.84976 ], [ 13.03084, 56.85161 ], [ 13.03252, 56.85375 ], [ 13.01544, 56.86126 ], [ 13.00108, 56.86533 ], [ 12.99879, 56.8727 ], [ 13.00138, 56.87507 ], [ 12.9997, 56.88784 ], [ 13.00409, 56.88791 ], [ 13.00739, 56.89538 ], [ 13.00551, 56.89599 ], [ 13.00667, 56.89839 ], [ 12.99992, 56.89847 ], [ 13.00553, 56.91189 ], [ 13.0029, 56.91549 ], [ 12.9964, 56.91777 ], [ 12.99212, 56.91547 ], [ 12.98201, 56.91602 ], [ 12.97582, 56.91826 ], [ 12.9727, 56.92385 ], [ 12.95197, 56.92285 ], [ 12.94866, 56.91975 ], [ 12.94405, 56.92127 ], [ 12.94212, 56.92231 ], [ 12.94286, 56.92686 ], [ 12.93864, 56.93352 ], [ 12.9402, 56.93317 ], [ 12.93571, 56.93519 ], [ 12.93535, 56.9436 ], [ 12.93353, 56.94441 ], [ 12.92337, 56.94075 ], [ 12.91173, 56.9433 ], [ 12.89991, 56.93643 ], [ 12.90035, 56.93481 ], [ 12.89901, 56.93536 ], [ 12.89736, 56.93431 ], [ 12.89528, 56.93588 ], [ 12.89526, 56.93365 ], [ 12.89192, 56.93205 ], [ 12.89223, 56.92925 ], [ 12.89431, 56.92847 ], [ 12.89062, 56.9205 ], [ 12.88635, 56.91819 ], [ 12.88588, 56.91641 ], [ 12.87944, 56.91427 ], [ 12.87885, 56.91062 ], [ 12.87102, 56.90386 ], [ 12.87324, 56.89465 ], [ 12.87082, 56.89482 ], [ 12.86718, 56.89212 ], [ 12.86632, 56.88852 ], [ 12.86819, 56.88462 ], [ 12.87356, 56.88063 ], [ 12.87189, 56.87394 ], [ 12.86503, 56.87713 ], [ 12.86013, 56.87395 ], [ 12.85219, 56.87244 ], [ 12.8489, 56.87595 ], [ 12.83769, 56.87245 ], [ 12.84246, 56.87152 ], [ 12.84922, 56.87249 ], [ 12.84746, 56.87148 ], [ 12.85066, 56.87174 ], [ 12.85095, 56.86945 ], [ 12.82751, 56.87252 ], [ 12.80188, 56.86374 ], [ 12.78213, 56.86037 ], [ 12.78233, 56.85809 ], [ 12.81074, 56.86168 ], [ 12.82341, 56.86568 ], [ 12.84074, 56.86734 ], [ 12.84742, 56.86502 ], [ 12.84523, 56.8633 ], [ 12.85056, 56.8622 ], [ 12.84165, 56.85579 ], [ 12.83178, 56.85389 ], [ 12.81319, 56.85287 ], [ 12.80693, 56.85543 ], [ 12.77452, 56.85531 ], [ 12.77189, 56.85654 ], [ 12.77095, 56.85569 ], [ 12.75813, 56.86025 ], [ 12.75305, 56.85814 ], [ 12.74653, 56.85152 ], [ 12.74233, 56.85083 ], [ 12.74373, 56.84513 ], [ 12.74042, 56.84513 ], [ 12.7402, 56.84353 ], [ 12.73916, 56.84538 ], [ 12.73603, 56.84459 ], [ 12.73095, 56.84669 ], [ 12.7305, 56.84456 ], [ 12.72621, 56.84314 ], [ 12.72687, 56.84129 ], [ 12.72051, 56.83756 ], [ 12.71685, 56.83761 ], [ 12.72025, 56.83401 ], [ 12.71873, 56.8318 ], [ 12.71187, 56.83385 ], [ 12.70334, 56.82938 ], [ 12.69504, 56.82699 ], [ 12.69439, 56.82447 ], [ 12.68427, 56.82066 ], [ 12.68607, 56.81949 ], [ 12.68098, 56.81563 ], [ 12.6825, 56.81349 ], [ 12.68002, 56.81306 ], [ 12.67525, 56.8153 ], [ 12.66592, 56.81471 ], [ 12.65978, 56.81102 ], [ 12.65242, 56.80081 ], [ 12.64985, 56.80301 ], [ 12.65197, 56.80461 ], [ 12.64865, 56.80639 ], [ 12.64542, 56.80557 ], [ 12.64204, 56.80243 ], [ 12.62986, 56.80311 ], [ 12.63176, 56.79782 ], [ 12.63608, 56.7985 ], [ 12.63694, 56.79467 ], [ 12.64311, 56.79447 ], [ 12.63163, 56.78468 ], [ 12.62655, 56.78539 ], [ 12.62133, 56.78291 ], [ 12.61747, 56.78009 ], [ 12.61835, 56.77903 ], [ 12.61472, 56.77429 ], [ 12.61941, 56.77258 ], [ 12.61896, 56.76934 ], [ 12.62494, 56.76801 ], [ 12.62701, 56.76626 ], [ 12.6296, 56.76667 ], [ 12.631, 56.76525 ], [ 12.62929, 56.76127 ], [ 12.63134, 56.75987 ], [ 12.62877, 56.7591 ], [ 12.63087, 56.75698 ], [ 12.62271, 56.75144 ], [ 12.62472, 56.75076 ], [ 12.62289, 56.74856 ], [ 12.62553, 56.74825 ], [ 12.62362, 56.7475 ], [ 12.62389, 56.74319 ], [ 12.63123, 56.74081 ], [ 12.6327, 56.73833 ], [ 12.63941, 56.73558 ], [ 12.63952, 56.73378 ], [ 12.64281, 56.73348 ], [ 12.64491, 56.73137 ], [ 12.64511, 56.72814 ], [ 12.64256, 56.72701 ], [ 12.64146, 56.72375 ], [ 12.64689, 56.72062 ], [ 12.65653, 56.72332 ], [ 12.66247, 56.72235 ], [ 12.66391, 56.72022 ], [ 12.67534, 56.71504 ], [ 12.68231, 56.70798 ], [ 12.68552, 56.69834 ], [ 12.68435, 56.69616 ], [ 12.67917, 56.69534 ], [ 12.68122, 56.69394 ], [ 12.67935, 56.69247 ], [ 12.68092, 56.68819 ], [ 12.6784, 56.6867 ], [ 12.68123, 56.68316 ], [ 12.68071, 56.68099 ], [ 12.68471, 56.67963 ], [ 12.69895, 56.68169 ], [ 12.71009, 56.68118 ], [ 12.71822, 56.67629 ], [ 12.72515, 56.66959 ], [ 12.72948, 56.66284 ], [ 12.73045, 56.65747 ], [ 12.73241, 56.6575 ], [ 12.72906, 56.64809 ], [ 12.72271, 56.6451 ], [ 12.72821, 56.64053 ], [ 12.73212, 56.6406 ], [ 12.73266, 56.64241 ], [ 12.7399, 56.64146 ], [ 12.74235, 56.64402 ], [ 12.74496, 56.64407 ], [ 12.74613, 56.64625 ], [ 12.75202, 56.646 ], [ 12.75585, 56.6475 ], [ 12.76304, 56.64727 ], [ 12.76377, 56.64585 ], [ 12.77036, 56.64489 ], [ 12.77511, 56.64174 ], [ 12.77568, 56.64318 ], [ 12.77774, 56.64142 ], [ 12.78232, 56.64115 ], [ 12.78684, 56.64195 ], [ 12.78678, 56.64302 ], [ 12.79266, 56.64277 ], [ 12.78915, 56.64702 ], [ 12.79035, 56.64884 ], [ 12.79298, 56.64853 ], [ 12.7987, 56.65114 ], [ 12.81111, 56.651 ], [ 12.8088, 56.65707 ], [ 12.81582, 56.65971 ], [ 12.82361, 56.66057 ], [ 12.82352, 56.662 ], [ 12.82731, 56.66423 ], [ 12.84042, 56.66338 ], [ 12.84785, 56.65883 ], [ 12.85103, 56.66033 ], [ 12.85309, 56.65856 ], [ 12.85065, 56.65565 ], [ 12.85201, 56.65459 ], [ 12.85768, 56.65828 ], [ 12.85965, 56.65796 ], [ 12.85786, 56.65505 ], [ 12.85152, 56.65171 ], [ 12.84181, 56.65046 ], [ 12.84578, 56.64945 ], [ 12.84527, 56.64693 ] ] ], [ [ [ 12.70877, 56.64916 ], [ 12.70896, 56.64593 ], [ 12.71355, 56.64565 ], [ 12.71398, 56.64926 ], [ 12.70877, 56.64916 ] ] ] ] } },
{ "type": "Feature", "properties": { "kn": "1381", "kom_namn": "Laholm", "pop": 26559.0, "akutsjukhus_BICYCLE": null, "akutsjukhus_CAR": 31.0, "akutsjukhus_TRANSIT": 55.0, "akutsjukhus_TRANSIT50": null, "akutsjukhus_WALK": null, "apotek_BICYCLE": 20.0, "apotek_CAR": 10.0, "apotek_TRANSIT": 24.0, "apotek_TRANSIT50": 28.0, "apotek_WALK": 24.0, "bibliotek_BICYCLE": 18.0, "bibliotek_CAR": 7.0, "bibliotek_TRANSIT": 22.0, "bibliotek_TRANSIT50": 27.0, "bibliotek_WALK": 22.0, "dagligvaror_BICYCLE": 12.0, "dagligvaror_CAR": 5.0, "dagligvaror_TRANSIT": 14.0, "dagligvaror_TRANSIT50": 17.0, "dagligvaror_WALK": 18.0, "drivmedel_BICYCLE": 14.0, "drivmedel_CAR": 6.0, "drivmedel_TRANSIT": 19.0, "drivmedel_TRANSIT50": 26.0, "drivmedel_WALK": 27.0, "forskola_BICYCLE": 17.0, "forskola_CAR": 7.0, "forskola_TRANSIT": 18.0, "forskola_TRANSIT50": 24.0, "forskola_WALK": 24.0, "grundskola_79_BICYCLE": 18.0, "grundskola_79_CAR": 9.0, "grundskola_79_TRANSIT": 22.0, "grundskola_79_TRANSIT50": 27.0, "grundskola_79_WALK": 22.0, "grundskola_f6_BICYCLE": 11.0, "grundskola_f6_CAR": 5.0, "grundskola_f6_TRANSIT": 17.0, "grundskola_f6_TRANSIT50": 21.0, "grundskola_f6_WALK": 21.0, "gymnasium_BICYCLE": 24.0, "gymnasium_CAR": 11.0, "gymnasium_TRANSIT": 25.0, "gymnasium_TRANSIT50": 33.0, "gymnasium_WALK": 23.0, "hallplats_BICYCLE": 9.0, "hallplats_CAR": 3.0, "hallplats_TRANSIT": 10.0, "hallplats_TRANSIT50": 13.0, "hallplats_WALK": 13.0, "narakut_BICYCLE": null, "narakut_CAR": 37.0, "narakut_TRANSIT": 51.0, "narakut_TRANSIT50": 58.0, "narakut_WALK": null, "tandvard_BICYCLE": 22.0, "tandvard_CAR": 9.0, "tandvard_TRANSIT": 25.0, "tandvard_TRANSIT50": 27.0, "tandvard_WALK": 18.0, "vardcentral_BICYCLE": 20.0, "vardcentral_CAR": 8.0, "vardcentral_TRANSIT": 19.0, "vardcentral_TRANSIT50": 26.0, "vardcentral_WALK": 18.0, "v15_BICYCLE": 3.6, "v15_WALK": 2.2, "namn": "Laholm" }, "geometry": { "type": "Polygon", "coordinates": [ [ [ 13.04885, 56.35538 ], [ 13.07479, 56.35177 ], [ 13.10932, 56.35379 ], [ 13.11247, 56.35232 ], [ 13.1186, 56.3546 ], [ 13.13167, 56.35567 ], [ 13.14864, 56.35287 ], [ 13.18117, 56.34013 ], [ 13.18594, 56.33289 ], [ 13.18786, 56.32563 ], [ 13.19599, 56.32414 ], [ 13.21638, 56.32716 ], [ 13.2288, 56.33248 ], [ 13.24819, 56.34636 ], [ 13.24963, 56.34875 ], [ 13.25257, 56.34936 ], [ 13.25525, 56.3529 ], [ 13.2515, 56.35767 ], [ 13.29286, 56.38057 ], [ 13.2969, 56.38105 ], [ 13.30481, 56.38525 ], [ 13.31184, 56.38693 ], [ 13.33896, 56.38873 ], [ 13.34667, 56.39051 ], [ 13.37511, 56.40922 ], [ 13.38559, 56.41451 ], [ 13.40429, 56.41496 ], [ 13.43932, 56.41911 ], [ 13.4552, 56.4244 ], [ 13.46735, 56.43179 ], [ 13.46286, 56.45144 ], [ 13.44988, 56.46787 ], [ 13.45427, 56.48842 ], [ 13.4542, 56.49751 ], [ 13.46479, 56.51396 ], [ 13.46291, 56.51482 ], [ 13.45958, 56.52797 ], [ 13.4523, 56.54089 ], [ 13.43999, 56.55445 ], [ 13.43998, 56.56605 ], [ 13.4382, 56.56976 ], [ 13.43989, 56.57126 ], [ 13.4309, 56.57401 ], [ 13.42706, 56.57368 ], [ 13.41781, 56.57764 ], [ 13.40868, 56.58849 ], [ 13.40253, 56.59249 ], [ 13.40426, 56.59489 ], [ 13.39758, 56.60885 ], [ 13.39727, 56.61574 ], [ 13.37895, 56.63652 ], [ 13.37597, 56.64611 ], [ 13.36414, 56.6651 ], [ 13.32827, 56.68769 ], [ 13.32376, 56.68625 ], [ 13.31318, 56.68791 ], [ 13.30805, 56.68543 ], [ 13.30294, 56.68571 ], [ 13.29836, 56.68762 ], [ 13.29128, 56.68358 ], [ 13.28847, 56.6791 ], [ 13.27802, 56.68006 ], [ 13.24926, 56.67533 ], [ 13.22517, 56.67623 ], [ 13.2227, 56.67383 ], [ 13.21962, 56.67617 ], [ 13.20216, 56.67539 ], [ 13.18981, 56.67694 ], [ 13.18849, 56.67556 ], [ 13.17427, 56.67425 ], [ 13.1751, 56.66676 ], [ 13.18087, 56.66367 ], [ 13.18941, 56.66235 ], [ 13.19644, 56.65408 ], [ 13.18797, 56.65035 ], [ 13.16409, 56.65026 ], [ 13.16593, 56.64613 ], [ 13.16415, 56.63433 ], [ 13.15802, 56.63029 ], [ 13.14767, 56.6288 ], [ 13.14183, 56.62451 ], [ 13.13667, 56.6235 ], [ 13.12988, 56.63055 ], [ 13.10136, 56.61453 ], [ 13.09283, 56.61304 ], [ 13.06361, 56.60336 ], [ 13.06102, 56.60379 ], [ 13.06206, 56.60279 ], [ 13.05739, 56.6011 ], [ 13.05599, 56.60211 ], [ 13.0506, 56.60039 ], [ 13.04737, 56.60066 ], [ 13.04042, 56.59678 ], [ 13.02769, 56.59566 ], [ 13.02496, 56.59056 ], [ 13.02185, 56.59089 ], [ 13.0231, 56.58982 ], [ 13.01681, 56.58782 ], [ 13.01732, 56.58536 ], [ 13.01513, 56.58496 ], [ 13.01735, 56.58384 ], [ 13.01591, 56.5836 ], [ 13.01696, 56.58079 ], [ 13.01962, 56.57932 ], [ 13.01896, 56.57735 ], [ 13.02147, 56.57522 ], [ 13.02017, 56.57392 ], [ 13.00969, 56.57352 ], [ 13.00661, 56.56768 ], [ 12.99639, 56.5592 ], [ 12.9876, 56.55679 ], [ 12.97401, 56.54239 ], [ 12.96875, 56.54581 ], [ 12.96822, 56.54824 ], [ 12.94561, 56.55346 ], [ 12.94575, 56.55085 ], [ 12.94839, 56.55018 ], [ 12.94981, 56.54804 ], [ 12.94662, 56.54691 ], [ 12.94416, 56.52027 ], [ 12.937, 56.49643 ], [ 12.91968, 56.46846 ], [ 12.90742, 56.45532 ], [ 12.89862, 56.4487 ], [ 12.94095, 56.43951 ], [ 12.94462, 56.44025 ], [ 12.94487, 56.43953 ], [ 12.95037, 56.44177 ], [ 12.95571, 56.44107 ], [ 12.95774, 56.43996 ], [ 12.95323, 56.43565 ], [ 12.9524, 56.43115 ], [ 12.96576, 56.4277 ], [ 12.96251, 56.41783 ], [ 12.95776, 56.4134 ], [ 12.96715, 56.41259 ], [ 12.96858, 56.41139 ], [ 12.9605, 56.40526 ], [ 12.96469, 56.40275 ], [ 12.96047, 56.40084 ], [ 12.95285, 56.39212 ], [ 12.95893, 56.39413 ], [ 12.96268, 56.39358 ], [ 12.96799, 56.38904 ], [ 12.95242, 56.37426 ], [ 12.94981, 56.36932 ], [ 12.96749, 56.36837 ], [ 12.97437, 56.3668 ], [ 12.98103, 56.3583 ], [ 13.03701, 56.35492 ], [ 13.04885, 56.35538 ] ] ] } },
{ "type": "Feature", "properties": { "kn": "1382", "kom_namn": "Falkenberg", "pop": 47326.0, "akutsjukhus_BICYCLE": 58.0, "akutsjukhus_CAR": 33.0, "akutsjukhus_TRANSIT": 51.0, "akutsjukhus_TRANSIT50": 56.0, "akutsjukhus_WALK": null, "apotek_BICYCLE": 15.0, "apotek_CAR": 7.0, "apotek_TRANSIT": 17.0, "apotek_TRANSIT50": 22.0, "apotek_WALK": 19.0, "bibliotek_BICYCLE": 15.0, "bibliotek_CAR": 8.0, "bibliotek_TRANSIT": 19.0, "bibliotek_TRANSIT50": 26.0, "bibliotek_WALK": 23.0, "dagligvaror_BICYCLE": 10.0, "dagligvaror_CAR": 5.0, "dagligvaror_TRANSIT": 13.0, "dagligvaror_TRANSIT50": 18.0, "dagligvaror_WALK": 17.0, "drivmedel_BICYCLE": 10.0, "drivmedel_CAR": 5.0, "drivmedel_TRANSIT": 15.0, "drivmedel_TRANSIT50": 20.0, "drivmedel_WALK": 19.0, "forskola_BICYCLE": 9.0, "forskola_CAR": 6.0, "forskola_TRANSIT": 15.0, "forskola_TRANSIT50": 17.0, "forskola_WALK": 16.0, "grundskola_79_BICYCLE": 15.0, "grundskola_79_CAR": 8.0, "grundskola_79_TRANSIT": 18.0, "grundskola_79_TRANSIT50": 24.0, "grundskola_79_WALK": 20.0, "grundskola_f6_BICYCLE": 8.0, "grundskola_f6_CAR": 5.0, "grundskola_f6_TRANSIT": 14.0, "grundskola_f6_TRANSIT50": 17.0, "grundskola_f6_WALK": 17.0, "gymnasium_BICYCLE": 17.0, "gymnasium_CAR": 12.0, "gymnasium_TRANSIT": 21.0, "gymnasium_TRANSIT50": 27.0, "gymnasium_WALK": 26.0, "hallplats_BICYCLE": 4.0, "hallplats_CAR": 2.0, "hallplats_TRANSIT": 8.0, "hallplats_TRANSIT50": 8.0, "hallplats_WALK": 8.0, "narakut_BICYCLE": null, "narakut_CAR": 56.0, "narakut_TRANSIT": 54.0, "narakut_TRANSIT50": null, "narakut_WALK": null, "tandvard_BICYCLE": 17.0, "tandvard_CAR": 8.0, "tandvard_TRANSIT": 18.0, "tandvard_TRANSIT50": 25.0, "tandvard_WALK": 22.0, "vardcentral_BICYCLE": 13.0, "vardcentral_CAR": 7.0, "vardcentral_TRANSIT": 17.0, "vardcentral_TRANSIT50": 22.0, "vardcentral_WALK": 20.0, "v15_BICYCLE": 4.5, "v15_WALK": 2.8, "namn": "Falkenberg" }, "geometry": { "type": "MultiPolygon", "coordinates": [ [ [ [ 12.50396, 56.88428 ], [ 12.51941, 56.86913 ], [ 12.52184, 56.87206 ], [ 12.52774, 56.87217 ], [ 12.52981, 56.87078 ], [ 12.53376, 56.87049 ], [ 12.54063, 56.86596 ], [ 12.5492, 56.85534 ], [ 12.54665, 56.85421 ], [ 12.54623, 56.85061 ], [ 12.54428, 56.85021 ], [ 12.54697, 56.84919 ], [ 12.54466, 56.84447 ], [ 12.54674, 56.84271 ], [ 12.55332, 56.84248 ], [ 12.55481, 56.83963 ], [ 12.55743, 56.83968 ], [ 12.56249, 56.84266 ], [ 12.56705, 56.84311 ], [ 12.575, 56.84182 ], [ 12.57575, 56.8404 ], [ 12.57828, 56.84189 ], [ 12.57844, 56.83938 ], [ 12.58314, 56.83767 ], [ 12.58328, 56.83551 ], [ 12.58651, 56.8363 ], [ 12.58855, 56.83526 ], [ 12.58672, 56.83306 ], [ 12.59126, 56.83387 ], [ 12.60014, 56.82829 ], [ 12.60032, 56.82542 ], [ 12.6036, 56.82548 ], [ 12.60703, 56.82303 ], [ 12.6092, 56.81984 ], [ 12.60726, 56.81944 ], [ 12.60995, 56.81841 ], [ 12.61305, 56.81092 ], [ 12.60921, 56.80941 ], [ 12.60822, 56.80436 ], [ 12.60511, 56.80179 ], [ 12.6059, 56.79964 ], [ 12.60399, 56.79889 ], [ 12.60611, 56.79641 ], [ 12.6087, 56.79682 ], [ 12.60886, 56.79431 ], [ 12.61211, 56.79473 ], [ 12.61593, 56.78618 ], [ 12.61228, 56.78179 ], [ 12.61632, 56.78007 ], [ 12.62655, 56.78539 ], [ 12.63163, 56.78468 ], [ 12.64311, 56.79447 ], [ 12.63694, 56.79467 ], [ 12.63608, 56.7985 ], [ 12.63176, 56.79782 ], [ 12.62986, 56.80311 ], [ 12.64204, 56.80243 ], [ 12.64542, 56.80557 ], [ 12.64865, 56.80639 ], [ 12.65197, 56.80461 ], [ 12.64985, 56.80301 ], [ 12.65242, 56.80081 ], [ 12.65978, 56.81102 ], [ 12.66592, 56.81471 ], [ 12.67525, 56.8153 ], [ 12.68002, 56.81306 ], [ 12.6825, 56.81349 ], [ 12.68098, 56.81563 ], [ 12.68607, 56.81949 ], [ 12.68427, 56.82066 ], [ 12.69439, 56.82447 ], [ 12.69504, 56.82699 ], [ 12.70334, 56.82938 ], [ 12.71187, 56.83385 ], [ 12.71873, 56.8318 ], [ 12.72025, 56.83401 ], [ 12.71685, 56.83761 ], [ 12.72051, 56.83756 ], [ 12.72687, 56.84129 ], [ 12.72621, 56.84314 ], [ 12.7305, 56.84456 ], [ 12.73095, 56.84669 ], [ 12.73603, 56.84459 ], [ 12.73916, 56.84538 ], [ 12.7402, 56.84353 ], [ 12.74042, 56.84513 ], [ 12.74373, 56.84513 ], [ 12.74233, 56.85083 ], [ 12.74653, 56.85152 ], [ 12.75305, 56.85814 ], [ 12.75813, 56.86025 ], [ 12.77095, 56.85569 ], [ 12.77189, 56.85654 ], [ 12.77452, 56.85531 ], [ 12.80693, 56.85543 ], [ 12.81319, 56.85287 ], [ 12.83178, 56.85389 ], [ 12.84165, 56.85579 ], [ 12.85056, 56.8622 ], [ 12.84523, 56.8633 ], [ 12.84742, 56.86502 ], [ 12.84074, 56.86734 ], [ 12.82341, 56.86568 ], [ 12.81074, 56.86168 ], [ 12.78233, 56.85809 ], [ 12.78213, 56.86037 ], [ 12.80188, 56.86374 ], [ 12.82751, 56.87252 ], [ 12.85095, 56.86945 ], [ 12.85066, 56.87174 ], [ 12.84746, 56.87148 ], [ 12.84922, 56.87249 ], [ 12.84246, 56.87152 ], [ 12.83769, 56.87245 ], [ 12.8489, 56.87595 ], [ 12.85219, 56.87244 ], [ 12.86013, 56.87395 ], [ 12.86503, 56.87713 ], [ 12.87189, 56.87394 ], [ 12.87356, 56.88063 ], [ 12.86819, 56.88462 ], [ 12.86632, 56.88852 ], [ 12.86718, 56.89212 ], [ 12.87082, 56.89482 ], [ 12.87324, 56.89465 ], [ 12.87102, 56.90386 ], [ 12.87885, 56.91062 ], [ 12.87944, 56.91427 ], [ 12.88588, 56.91641 ], [ 12.88635, 56.91819 ], [ 12.89062, 56.9205 ], [ 12.89431, 56.92847 ], [ 12.89223, 56.92925 ], [ 12.89192, 56.93205 ], [ 12.89526, 56.93365 ], [ 12.89512, 56.93579 ], [ 12.89736, 56.93431 ], [ 12.89901, 56.93536 ], [ 12.90035, 56.93481 ], [ 12.89991, 56.93643 ], [ 12.9074, 56.93988 ], [ 12.91623, 56.94855 ], [ 12.91325, 56.95923 ], [ 12.91063, 56.95762 ], [ 12.90333, 56.95686 ], [ 12.90001, 56.95757 ], [ 12.89133, 56.9546 ], [ 12.88695, 56.95519 ], [ 12.88071, 56.95842 ], [ 12.8779, 56.95662 ], [ 12.86909, 56.95586 ], [ 12.86835, 56.95961 ], [ 12.87347, 56.96424 ], [ 12.86993, 56.96905 ], [ 12.86417, 56.97119 ], [ 12.85881, 56.96924 ], [ 12.8556, 56.96615 ], [ 12.85259, 56.96879 ], [ 12.84796, 56.96887 ], [ 12.83858, 56.96555 ], [ 12.82274, 56.97492 ], [ 12.82103, 56.9826 ], [ 12.82626, 56.98645 ], [ 12.82467, 56.99145 ], [ 12.83276, 56.9955 ], [ 12.83263, 57.00115 ], [ 12.83639, 57.00274 ], [ 12.84129, 57.00242 ], [ 12.84456, 57.00087 ], [ 12.85133, 57.00413 ], [ 12.84544, 57.0151 ], [ 12.85345, 57.0208 ], [ 12.85958, 57.02264 ], [ 12.87049, 57.02336 ], [ 12.88291, 57.01835 ], [ 12.89235, 57.02065 ], [ 12.8995, 57.02081 ], [ 12.90261, 57.02409 ], [ 12.90029, 57.02701 ], [ 12.90174, 57.02898 ], [ 12.90577, 57.02981 ], [ 12.90742, 57.03271 ], [ 12.91425, 57.03665 ], [ 12.9134, 57.04102 ], [ 12.90814, 57.04285 ], [ 12.92026, 57.0504 ], [ 12.91865, 57.05416 ], [ 12.9367, 57.05829 ], [ 12.94387, 57.05737 ], [ 12.94376, 57.05504 ], [ 12.93799, 57.05131 ], [ 12.94129, 57.04908 ], [ 12.94028, 57.04655 ], [ 12.94602, 57.04725 ], [ 12.95469, 57.04471 ], [ 12.97192, 57.05103 ], [ 12.97207, 57.047 ], [ 12.98081, 57.04769 ], [ 12.99769, 57.0423 ], [ 13.00061, 57.03615 ], [ 13.00406, 57.03719 ], [ 13.0027, 57.04105 ], [ 13.01681, 57.04707 ], [ 13.00983, 57.05055 ], [ 13.02059, 57.07118 ], [ 13.02342, 57.0728 ], [ 13.02457, 57.08276 ], [ 13.03927, 57.08759 ], [ 13.04116, 57.0857 ], [ 13.04572, 57.08454 ], [ 13.05096, 57.08721 ], [ 13.05801, 57.08642 ], [ 13.06219, 57.08966 ], [ 13.06644, 57.09092 ], [ 13.0628, 57.09447 ], [ 13.07907, 57.0989 ], [ 13.08987, 57.10563 ], [ 13.08785, 57.11065 ], [ 13.08454, 57.11261 ], [ 13.09334, 57.11973 ], [ 13.09075, 57.12378 ], [ 13.09425, 57.12426 ], [ 13.09352, 57.12542 ], [ 13.09694, 57.12596 ], [ 13.09908, 57.12848 ], [ 13.09111, 57.1291 ], [ 13.08127, 57.12477 ], [ 13.07707, 57.12759 ], [ 13.08035, 57.12859 ], [ 13.08071, 57.13235 ], [ 13.10028, 57.14556 ], [ 13.09403, 57.1515 ], [ 13.09672, 57.15874 ], [ 13.0898, 57.15843 ], [ 13.08522, 57.15628 ], [ 13.07824, 57.1573 ], [ 13.07529, 57.15632 ], [ 13.07017, 57.15007 ], [ 13.05946, 57.14681 ], [ 13.05561, 57.14776 ], [ 13.05239, 57.14644 ], [ 13.05023, 57.14722 ], [ 13.05126, 57.14885 ], [ 13.04535, 57.15548 ], [ 13.03752, 57.15413 ], [ 13.02665, 57.15501 ], [ 13.02091, 57.15749 ], [ 13.02403, 57.16545 ], [ 13.02252, 57.16662 ], [ 13.0277, 57.16986 ], [ 13.03172, 57.17506 ], [ 13.03905, 57.17789 ], [ 13.03901, 57.18029 ], [ 13.031, 57.17845 ], [ 13.02551, 57.18059 ], [ 13.01146, 57.18229 ], [ 12.99955, 57.17734 ], [ 12.98865, 57.18129 ], [ 12.98559, 57.17884 ], [ 12.97396, 57.18325 ], [ 12.96805, 57.17854 ], [ 12.96295, 57.17737 ], [ 12.96034, 57.177 ], [ 12.95805, 57.17859 ], [ 12.95441, 57.17705 ], [ 12.94614, 57.17834 ], [ 12.93962, 57.17669 ], [ 12.9388, 57.17321 ], [ 12.93814, 57.17482 ], [ 12.93475, 57.17423 ], [ 12.92085, 57.1756 ], [ 12.91216, 57.18062 ], [ 12.91083, 57.18397 ], [ 12.91488, 57.18707 ], [ 12.91602, 57.19351 ], [ 12.92033, 57.19884 ], [ 12.91443, 57.21983 ], [ 12.92539, 57.22826 ], [ 12.935, 57.2275 ], [ 12.93906, 57.23141 ], [ 12.95238, 57.23913 ], [ 12.95416, 57.2412 ], [ 12.95204, 57.24631 ], [ 12.94916, 57.24806 ], [ 12.94467, 57.24739 ], [ 12.93383, 57.2507 ], [ 12.93215, 57.25011 ], [ 12.93138, 57.25412 ], [ 12.92737, 57.25641 ], [ 12.93355, 57.26122 ], [ 12.93186, 57.26285 ], [ 12.92125, 57.26456 ], [ 12.90612, 57.27035 ], [ 12.90162, 57.2678 ], [ 12.89384, 57.27028 ], [ 12.88142, 57.27149 ], [ 12.88029, 57.26965 ], [ 12.87004, 57.2678 ], [ 12.86248, 57.26863 ], [ 12.86077, 57.26562 ], [ 12.83615, 57.26972 ], [ 12.82691, 57.2777 ], [ 12.81696, 57.29344 ], [ 12.80754, 57.30111 ], [ 12.77908, 57.28431 ], [ 12.77954, 57.28051 ], [ 12.77551, 57.2758 ], [ 12.77261, 57.27678 ], [ 12.7628, 57.27341 ], [ 12.7636, 57.27006 ], [ 12.75419, 57.26804 ], [ 12.7385, 57.26673 ], [ 12.73615, 57.26333 ], [ 12.7195, 57.25425 ], [ 12.71457, 57.25012 ], [ 12.6874, 57.23686 ], [ 12.67435, 57.2289 ], [ 12.66933, 57.22976 ], [ 12.66704, 57.23344 ], [ 12.65857, 57.22757 ], [ 12.65619, 57.22754 ], [ 12.65621, 57.22513 ], [ 12.64124, 57.22562 ], [ 12.64148, 57.22346 ], [ 12.63347, 57.21756 ], [ 12.63379, 57.21427 ], [ 12.62766, 57.21247 ], [ 12.62347, 57.20954 ], [ 12.62409, 57.19469 ], [ 12.62531, 57.19288 ], [ 12.6342, 57.18957 ], [ 12.6281, 57.18728 ], [ 12.62792, 57.18551 ], [ 12.63722, 57.18576 ], [ 12.63882, 57.18324 ], [ 12.6297, 57.18254 ], [ 12.62982, 57.17891 ], [ 12.63374, 57.17639 ], [ 12.63805, 57.17686 ], [ 12.64083, 57.1728 ], [ 12.64643, 57.17219 ], [ 12.64509, 57.16994 ], [ 12.64911, 57.16593 ], [ 12.64341, 57.16372 ], [ 12.63752, 57.1593 ], [ 12.63487, 57.15896 ], [ 12.6301, 57.16124 ], [ 12.62957, 57.15864 ], [ 12.61716, 57.15578 ], [ 12.61431, 57.15361 ], [ 12.61386, 57.14828 ], [ 12.61676, 57.1458 ], [ 12.61881, 57.13455 ], [ 12.61313, 57.13011 ], [ 12.60594, 57.12757 ], [ 12.57944, 57.11324 ], [ 12.57643, 57.11002 ], [ 12.57667, 57.09194 ], [ 12.57458, 57.08661 ], [ 12.58057, 57.07813 ], [ 12.5995, 57.06643 ], [ 12.57068, 57.05322 ], [ 12.58771, 57.04535 ], [ 12.58916, 57.04605 ], [ 12.60202, 57.04147 ], [ 12.60296, 57.03256 ], [ 12.60839, 57.03081 ], [ 12.60941, 57.02912 ], [ 12.60727, 57.0213 ], [ 12.60336, 57.02261 ], [ 12.58767, 57.02095 ], [ 12.57813, 57.01898 ], [ 12.57798, 57.01641 ], [ 12.57388, 57.01514 ], [ 12.55889, 57.01804 ], [ 12.55047, 57.01804 ], [ 12.54982, 57.01255 ], [ 12.54292, 57.00132 ], [ 12.53403, 56.99886 ], [ 12.52697, 56.9934 ], [ 12.51038, 56.99709 ], [ 12.51696, 57.00101 ], [ 12.48667, 57.00581 ], [ 12.48422, 57.01014 ], [ 12.48855, 57.01515 ], [ 12.48299, 57.01614 ], [ 12.45667, 57.013 ], [ 12.45615, 57.0088 ], [ 12.45336, 57.00737 ], [ 12.43961, 57.00938 ], [ 12.43497, 57.01168 ], [ 12.42727, 57.01215 ], [ 12.42648, 57.00982 ], [ 12.41193, 57.00424 ], [ 12.40861, 57.00084 ], [ 12.40527, 57.00166 ], [ 12.39622, 56.99792 ], [ 12.38965, 56.99673 ], [ 12.39018, 56.99479 ], [ 12.38146, 56.99581 ], [ 12.37249, 56.99532 ], [ 12.35979, 56.99159 ], [ 12.3612, 56.99027 ], [ 12.35938, 56.98808 ], [ 12.35741, 56.98804 ], [ 12.35817, 56.98661 ], [ 12.35625, 56.98586 ], [ 12.35767, 56.98445 ], [ 12.35504, 56.98439 ], [ 12.35456, 56.98186 ], [ 12.36073, 56.9784 ], [ 12.36083, 56.97696 ], [ 12.35812, 56.97799 ], [ 12.35762, 56.97582 ], [ 12.36151, 56.97662 ], [ 12.36156, 56.9759 ], [ 12.35441, 56.97467 ], [ 12.35856, 56.97188 ], [ 12.35868, 56.97009 ], [ 12.35216, 56.96923 ], [ 12.35232, 56.96708 ], [ 12.34777, 56.96626 ], [ 12.34868, 56.96269 ], [ 12.35429, 56.95777 ], [ 12.3546, 56.95347 ], [ 12.35265, 56.95306 ], [ 12.35215, 56.9509 ], [ 12.35301, 56.94804 ], [ 12.35503, 56.94736 ], [ 12.35407, 56.94231 ], [ 12.3588, 56.94061 ], [ 12.35983, 56.93524 ], [ 12.3568, 56.93158 ], [ 12.34824, 56.93176 ], [ 12.34898, 56.9307 ], [ 12.35357, 56.9308 ], [ 12.35176, 56.9286 ], [ 12.35698, 56.92907 ], [ 12.361, 56.92808 ], [ 12.36186, 56.92522 ], [ 12.356, 56.92438 ], [ 12.3561, 56.92294 ], [ 12.36153, 56.92054 ], [ 12.36166, 56.91874 ], [ 12.36572, 56.91703 ], [ 12.3662, 56.91956 ], [ 12.37135, 56.9211 ], [ 12.37413, 56.91901 ], [ 12.39142, 56.91613 ], [ 12.39492, 56.91297 ], [ 12.39752, 56.91338 ], [ 12.3976, 56.91231 ], [ 12.39563, 56.91227 ], [ 12.39792, 56.90764 ], [ 12.4035, 56.90308 ], [ 12.40519, 56.90707 ], [ 12.40845, 56.9075 ], [ 12.41316, 56.9058 ], [ 12.41256, 56.90507 ], [ 12.41652, 56.90479 ], [ 12.41528, 56.90369 ], [ 12.41859, 56.9034 ], [ 12.41871, 56.9016 ], [ 12.42464, 56.90136 ], [ 12.42605, 56.89996 ], [ 12.43062, 56.90041 ], [ 12.43679, 56.89658 ], [ 12.43796, 56.89876 ], [ 12.44056, 56.89917 ], [ 12.44658, 56.8975 ], [ 12.4538, 56.89765 ], [ 12.45519, 56.8966 ], [ 12.46046, 56.89635 ], [ 12.46286, 56.88992 ], [ 12.4678, 56.88499 ], [ 12.46894, 56.88753 ], [ 12.46595, 56.89286 ], [ 12.46789, 56.89326 ], [ 12.4728, 56.88869 ], [ 12.47739, 56.88878 ], [ 12.48014, 56.88704 ], [ 12.49112, 56.88978 ], [ 12.50396, 56.88428 ] ] ], [ [ [ 12.35264, 56.97176 ], [ 12.35125, 56.97281 ], [ 12.3493, 56.97241 ], [ 12.35001, 56.9717 ], [ 12.35264, 56.97176 ] ] ], [ [ [ 12.60792, 56.78854 ], [ 12.60984, 56.78929 ], [ 12.60787, 56.78926 ], [ 12.60792, 56.78854 ] ] ] ] } },
{ "type": "Feature", "properties": { "kn": "1383", "kom_namn": "Varberg", "pop": 69441.0, "akutsjukhus_BICYCLE": 19.0, "akutsjukhus_CAR": 15.0, "akutsjukhus_TRANSIT": 28.0, "akutsjukhus_TRANSIT50": 29.0, "akutsjukhus_WALK": 25.0, "apotek_BICYCLE": 13.0, "apotek_CAR": 7.0, "apotek_TRANSIT": 16.0, "apotek_TRANSIT50": 20.0, "apotek_WALK": 18.0, "bibliotek_BICYCLE": 13.0, "bibliotek_CAR": 7.0, "bibliotek_TRANSIT": 19.0, "bibliotek_TRANSIT50": 23.0, "bibliotek_WALK": 24.0, "dagligvaror_BICYCLE": 9.0, "dagligvaror_CAR": 5.0, "dagligvaror_TRANSIT": 14.0, "dagligvaror_TRANSIT50": 16.0, "dagligvaror_WALK": 15.0, "drivmedel_BICYCLE": 10.0, "drivmedel_CAR": 6.0, "drivmedel_TRANSIT": 17.0, "drivmedel_TRANSIT50": 22.0, "drivmedel_WALK": 24.0, "forskola_BICYCLE": 9.0, "forskola_CAR": 5.0, "forskola_TRANSIT": 13.0, "forskola_TRANSIT50": 17.0, "forskola_WALK": 16.0, "grundskola_79_BICYCLE": 10.0, "grundskola_79_CAR": 6.0, "grundskola_79_TRANSIT": 15.0, "grundskola_79_TRANSIT50": 19.0, "grundskola_79_WALK": 18.0, "grundskola_f6_BICYCLE": 7.0, "grundskola_f6_CAR": 5.0, "grundskola_f6_TRANSIT": 14.0, "grundskola_f6_TRANSIT50": 17.0, "grundskola_f6_WALK": 16.0, "gymnasium_BICYCLE": 15.0, "gymnasium_CAR": 11.0, "gymnasium_TRANSIT": 23.0, "gymnasium_TRANSIT50": 26.0, "gymnasium_WALK": 21.0, "hallplats_BICYCLE": 4.0, "hallplats_CAR": 3.0, "hallplats_TRANSIT": 9.0, "hallplats_TRANSIT50": 10.0, "hallplats_WALK": 9.0, "narakut_BICYCLE": null, "narakut_CAR": 44.0, "narakut_TRANSIT": 48.0, "narakut_TRANSIT50": 54.0, "narakut_WALK": null, "tandvard_BICYCLE": 13.0, "tandvard_CAR": 8.0, "tandvard_TRANSIT": 17.0, "tandvard_TRANSIT50": 21.0, "tandvard_WALK": 19.0, "vardcentral_BICYCLE": 14.0, "vardcentral_CAR": 7.0, "vardcentral_TRANSIT": 17.0, "vardcentral_TRANSIT50": 20.0, "vardcentral_WALK": 16.0, "v15_BICYCLE": 4.7, "v15_WALK": 3.2, "namn": "Varberg" }, "geometry": { "type": "MultiPolygon", "coordinates": [ [ [ [ 12.18884, 57.12745 ], [ 12.18691, 57.12669 ], [ 12.18702, 57.12525 ], [ 12.18958, 57.12639 ], [ 12.18884, 57.12745 ] ] ], [ [ [ 12.18339, 57.12948 ], [ 12.18653, 57.13171 ], [ 12.18262, 57.1309 ], [ 12.18339, 57.12948 ] ] ], [ [ [ 12.1851, 57.13312 ], [ 12.18648, 57.13243 ], [ 12.18642, 57.13315 ], [ 12.1851, 57.13312 ] ] ], [ [ [ 12.13278, 57.15134 ], [ 12.13476, 57.15139 ], [ 12.13405, 57.15209 ], [ 12.13278, 57.15134 ] ] ], [ [ [ 12.10689, 57.15255 ], [ 12.1089, 57.15223 ], [ 12.10887, 57.15259 ], [ 12.10689, 57.15255 ] ] ], [ [ [ 12.17083, 57.15544 ], [ 12.17023, 57.15471 ], [ 12.17282, 57.15549 ], [ 12.17083, 57.15544 ] ] ], [ [ [ 12.15102, 57.155 ], [ 12.15243, 57.15395 ], [ 12.15545, 57.15761 ], [ 12.15209, 57.15826 ], [ 12.15102, 57.155 ] ] ], [ [ [ 12.16258, 57.15957 ], [ 12.16998, 57.15794 ], [ 12.16946, 57.15613 ], [ 12.17667, 57.15701 ], [ 12.1746, 57.15805 ], [ 12.17502, 57.16129 ], [ 12.18328, 57.16579 ], [ 12.18925, 57.16556 ], [ 12.18972, 57.16809 ], [ 12.18234, 57.16936 ], [ 12.17516, 57.16812 ], [ 12.17032, 57.17089 ], [ 12.16572, 57.17043 ], [ 12.16379, 57.16966 ], [ 12.16453, 57.1686 ], [ 12.16255, 57.16856 ], [ 12.15908, 57.17064 ], [ 12.1628, 57.16533 ], [ 12.15691, 57.16448 ], [ 12.15851, 57.16092 ], [ 12.15518, 57.1612 ], [ 12.15603, 57.1587 ], [ 12.16258, 57.15957 ] ] ], [ [ [ 12.14231, 57.19075 ], [ 12.14688, 57.19157 ], [ 12.14286, 57.1922 ], [ 12.14231, 57.19075 ] ] ], [ [ [ 12.12033, 57.1924 ], [ 12.12292, 57.19318 ], [ 12.12027, 57.19312 ], [ 12.12033, 57.1924 ] ] ], [ [ [ 12.1501, 57.19272 ], [ 12.15732, 57.19361 ], [ 12.15633, 57.18927 ], [ 12.15377, 57.18813 ], [ 12.16123, 57.18579 ], [ 12.16721, 57.18556 ], [ 12.16779, 57.18665 ], [ 12.17109, 57.18673 ], [ 12.17511, 57.1861 ], [ 12.17764, 57.18759 ], [ 12.17748, 57.18975 ], [ 12.182, 57.19129 ], [ 12.18277, 57.18987 ], [ 12.18734, 57.19069 ], [ 12.18872, 57.19 ], [ 12.18825, 57.18747 ], [ 12.19216, 57.18828 ], [ 12.19684, 57.18766 ], [ 12.1999, 57.19097 ], [ 12.20255, 57.19103 ], [ 12.20549, 57.18714 ], [ 12.20811, 57.18756 ], [ 12.20887, 57.18614 ], [ 12.21221, 57.18585 ], [ 12.21393, 57.1805 ], [ 12.21143, 57.17864 ], [ 12.20812, 57.17857 ], [ 12.206, 57.18032 ], [ 12.20278, 57.17917 ], [ 12.20223, 57.17772 ], [ 12.20553, 57.17779 ], [ 12.20567, 57.176 ], [ 12.20184, 57.17411 ], [ 12.20266, 57.17198 ], [ 12.21694, 57.1669 ], [ 12.21383, 57.16432 ], [ 12.21597, 57.16221 ], [ 12.22052, 57.16339 ], [ 12.22852, 57.16248 ], [ 12.22882, 57.15854 ], [ 12.22653, 57.15381 ], [ 12.22003, 57.15223 ], [ 12.21334, 57.15316 ], [ 12.21343, 57.15208 ], [ 12.21142, 57.1524 ], [ 12.21153, 57.15096 ], [ 12.20638, 57.14905 ], [ 12.20794, 57.14585 ], [ 12.21177, 57.14773 ], [ 12.21449, 57.14671 ], [ 12.21275, 57.14344 ], [ 12.21627, 57.14064 ], [ 12.21891, 57.1407 ], [ 12.21929, 57.13568 ], [ 12.21541, 57.13451 ], [ 12.21552, 57.13308 ], [ 12.22946, 57.13231 ], [ 12.23287, 57.13094 ], [ 12.23851, 57.13502 ], [ 12.24046, 57.13543 ], [ 12.24126, 57.13365 ], [ 12.2411, 57.1358 ], [ 12.24437, 57.13623 ], [ 12.243, 57.13692 ], [ 12.2435, 57.13909 ], [ 12.24424, 57.13802 ], [ 12.24889, 57.13777 ], [ 12.24707, 57.13557 ], [ 12.24987, 57.13347 ], [ 12.25457, 57.1325 ], [ 12.25264, 57.13174 ], [ 12.25227, 57.12778 ], [ 12.24839, 57.12661 ], [ 12.24567, 57.12763 ], [ 12.24171, 57.12754 ], [ 12.24047, 57.12644 ], [ 12.23971, 57.12786 ], [ 12.23379, 57.12737 ], [ 12.24023, 57.12967 ], [ 12.24491, 57.12905 ], [ 12.24208, 57.13151 ], [ 12.24261, 57.13332 ], [ 12.23732, 57.1332 ], [ 12.23617, 57.13102 ], [ 12.23355, 57.1306 ], [ 12.23751, 57.13069 ], [ 12.23759, 57.12961 ], [ 12.23234, 57.12913 ], [ 12.23311, 57.12771 ], [ 12.23041, 57.12837 ], [ 12.22463, 57.12609 ], [ 12.22067, 57.126 ], [ 12.21183, 57.1294 ], [ 12.21262, 57.12762 ], [ 12.20212, 57.12667 ], [ 12.20252, 57.12128 ], [ 12.19186, 57.12248 ], [ 12.1907, 57.1203 ], [ 12.19331, 57.12072 ], [ 12.19287, 57.11783 ], [ 12.18971, 57.11596 ], [ 12.19512, 57.11429 ], [ 12.19949, 57.11762 ], [ 12.20406, 57.11844 ], [ 12.20897, 57.1146 ], [ 12.21227, 57.11467 ], [ 12.21265, 57.10964 ], [ 12.21526, 57.11006 ], [ 12.21497, 57.11401 ], [ 12.2176, 57.11407 ], [ 12.21768, 57.11299 ], [ 12.2209, 57.11414 ], [ 12.22098, 57.11306 ], [ 12.22705, 57.1114 ], [ 12.22473, 57.11602 ], [ 12.22797, 57.11681 ], [ 12.22712, 57.11931 ], [ 12.23108, 57.1194 ], [ 12.23158, 57.12157 ], [ 12.23612, 57.12275 ], [ 12.23515, 57.11805 ], [ 12.24051, 57.11709 ], [ 12.23882, 57.1131 ], [ 12.24273, 57.1139 ], [ 12.24325, 57.11571 ], [ 12.24658, 57.11543 ], [ 12.24569, 57.10966 ], [ 12.24381, 57.10818 ], [ 12.24178, 57.10885 ], [ 12.23859, 57.10734 ], [ 12.24121, 57.09877 ], [ 12.24324, 57.0981 ], [ 12.24277, 57.09557 ], [ 12.23963, 57.09334 ], [ 12.24256, 57.08945 ], [ 12.23602, 57.08859 ], [ 12.23616, 57.0868 ], [ 12.23882, 57.0865 ], [ 12.24439, 57.08266 ], [ 12.24823, 57.08419 ], [ 12.2509, 57.08389 ], [ 12.25148, 57.08498 ], [ 12.2548, 57.08469 ], [ 12.26037, 57.08086 ], [ 12.26068, 57.07655 ], [ 12.25741, 57.07612 ], [ 12.26087, 57.07404 ], [ 12.2537, 57.0728 ], [ 12.25518, 57.07068 ], [ 12.25254, 57.07062 ], [ 12.25104, 57.06412 ], [ 12.25694, 57.06461 ], [ 12.25813, 57.06643 ], [ 12.26722, 57.06843 ], [ 12.27455, 57.06751 ], [ 12.27761, 57.06182 ], [ 12.27439, 57.06067 ], [ 12.27521, 57.05853 ], [ 12.2706, 57.05843 ], [ 12.27147, 57.05558 ], [ 12.27489, 57.05385 ], [ 12.27236, 57.05236 ], [ 12.26841, 57.05227 ], [ 12.26854, 57.05048 ], [ 12.28, 57.04713 ], [ 12.28124, 57.04824 ], [ 12.28524, 57.04761 ], [ 12.28606, 57.04547 ], [ 12.28095, 57.0432 ], [ 12.28563, 57.04222 ], [ 12.28445, 57.0404 ], [ 12.29172, 57.0402 ], [ 12.29809, 57.03422 ], [ 12.3013, 57.03537 ], [ 12.30996, 57.03412 ], [ 12.31452, 57.03494 ], [ 12.31994, 57.0329 ], [ 12.31868, 57.03215 ], [ 12.31681, 57.03283 ], [ 12.31612, 57.03102 ], [ 12.30967, 57.02908 ], [ 12.31243, 57.02734 ], [ 12.31261, 57.02483 ], [ 12.31464, 57.02415 ], [ 12.31854, 57.02496 ], [ 12.32261, 57.02325 ], [ 12.3259, 57.02332 ], [ 12.32738, 57.02119 ], [ 12.32935, 57.02123 ], [ 12.33019, 57.01873 ], [ 12.33138, 57.02056 ], [ 12.32851, 57.02373 ], [ 12.33112, 57.02415 ], [ 12.33125, 57.02235 ], [ 12.33598, 57.02066 ], [ 12.3354, 57.01957 ], [ 12.34077, 57.01824 ], [ 12.34371, 57.01399 ], [ 12.34326, 57.0111 ], [ 12.35232, 57.00411 ], [ 12.35432, 56.99444 ], [ 12.35632, 56.99413 ], [ 12.35741, 56.99738 ], [ 12.35979, 56.99159 ], [ 12.37249, 56.99532 ], [ 12.38146, 56.99581 ], [ 12.39018, 56.99479 ], [ 12.38965, 56.99673 ], [ 12.39622, 56.99792 ], [ 12.40527, 57.00166 ], [ 12.40861, 57.00084 ], [ 12.41193, 57.00424 ], [ 12.42648, 57.00982 ], [ 12.42727, 57.01215 ], [ 12.43497, 57.01168 ], [ 12.43961, 57.00938 ], [ 12.45336, 57.00737 ], [ 12.45615, 57.0088 ], [ 12.45667, 57.013 ], [ 12.48299, 57.01614 ], [ 12.48855, 57.01515 ], [ 12.48422, 57.01014 ], [ 12.48667, 57.00581 ], [ 12.51696, 57.00101 ], [ 12.51038, 56.99709 ], [ 12.52697, 56.9934 ], [ 12.53403, 56.99886 ], [ 12.54292, 57.00132 ], [ 12.54982, 57.01255 ], [ 12.55047, 57.01804 ], [ 12.55889, 57.01804 ], [ 12.57388, 57.01514 ], [ 12.57798, 57.01641 ], [ 12.57813, 57.01898 ], [ 12.60336, 57.02261 ], [ 12.60681, 57.02109 ], [ 12.60909, 57.02397 ], [ 12.60845, 57.03077 ], [ 12.60296, 57.03256 ], [ 12.60202, 57.04147 ], [ 12.58916, 57.04605 ], [ 12.58771, 57.04535 ], [ 12.57068, 57.05322 ], [ 12.5995, 57.06643 ], [ 12.58057, 57.07813 ], [ 12.57458, 57.08661 ], [ 12.57667, 57.09194 ], [ 12.57643, 57.11002 ], [ 12.57944, 57.11324 ], [ 12.60594, 57.12757 ], [ 12.61313, 57.13011 ], [ 12.61881, 57.13455 ], [ 12.61676, 57.1458 ], [ 12.61386, 57.14828 ], [ 12.61431, 57.15361 ], [ 12.61716, 57.15578 ], [ 12.62957, 57.15864 ], [ 12.6301, 57.16124 ], [ 12.63487, 57.15896 ], [ 12.63752, 57.1593 ], [ 12.64341, 57.16372 ], [ 12.64911, 57.16593 ], [ 12.64509, 57.16994 ], [ 12.64643, 57.17219 ], [ 12.64083, 57.1728 ], [ 12.63805, 57.17686 ], [ 12.63374, 57.17639 ], [ 12.62982, 57.17891 ], [ 12.6297, 57.18254 ], [ 12.63882, 57.18324 ], [ 12.63722, 57.18576 ], [ 12.62792, 57.18551 ], [ 12.6281, 57.18728 ], [ 12.6342, 57.18957 ], [ 12.62531, 57.19288 ], [ 12.62409, 57.19469 ], [ 12.62347, 57.20954 ], [ 12.62766, 57.21247 ], [ 12.63379, 57.21427 ], [ 12.63347, 57.21756 ], [ 12.64148, 57.22346 ], [ 12.64124, 57.22562 ], [ 12.65621, 57.22513 ], [ 12.65619, 57.22754 ], [ 12.65857, 57.22757 ], [ 12.66704, 57.23344 ], [ 12.66933, 57.22976 ], [ 12.67435, 57.2289 ], [ 12.6874, 57.23686 ], [ 12.71457, 57.25012 ], [ 12.7195, 57.25425 ], [ 12.73615, 57.26333 ], [ 12.7385, 57.26673 ], [ 12.75419, 57.26804 ], [ 12.7636, 57.27006 ], [ 12.76337, 57.27255 ], [ 12.75868, 57.2734 ], [ 12.75229, 57.27744 ], [ 12.7445, 57.28604 ], [ 12.74143, 57.29157 ], [ 12.74032, 57.30092 ], [ 12.73792, 57.30244 ], [ 12.7327, 57.30253 ], [ 12.73101, 57.30429 ], [ 12.70299, 57.31347 ], [ 12.70644, 57.31863 ], [ 12.7055, 57.32355 ], [ 12.69323, 57.32932 ], [ 12.69238, 57.33461 ], [ 12.68389, 57.33068 ], [ 12.6754, 57.32999 ], [ 12.66787, 57.33939 ], [ 12.66166, 57.34142 ], [ 12.65526, 57.34138 ], [ 12.65233, 57.33953 ], [ 12.6535, 57.33734 ], [ 12.6472, 57.33439 ], [ 12.64357, 57.32986 ], [ 12.63905, 57.33172 ], [ 12.62252, 57.33193 ], [ 12.62461, 57.34137 ], [ 12.62313, 57.344 ], [ 12.60471, 57.34693 ], [ 12.60334, 57.34356 ], [ 12.5997, 57.34225 ], [ 12.59128, 57.34299 ], [ 12.58976, 57.33888 ], [ 12.57978, 57.33504 ], [ 12.57977, 57.33372 ], [ 12.56704, 57.33074 ], [ 12.56005, 57.33031 ], [ 12.55877, 57.32116 ], [ 12.55262, 57.32148 ], [ 12.53723, 57.31949 ], [ 12.52953, 57.3027 ], [ 12.51906, 57.29725 ], [ 12.50458, 57.28106 ], [ 12.49773, 57.28223 ], [ 12.49751, 57.2861 ], [ 12.49283, 57.28679 ], [ 12.4874, 57.28451 ], [ 12.48802, 57.28294 ], [ 12.48172, 57.27913 ], [ 12.4619, 57.27537 ], [ 12.46053, 57.27824 ], [ 12.45583, 57.27953 ], [ 12.45164, 57.27629 ], [ 12.45063, 57.27333 ], [ 12.43022, 57.26936 ], [ 12.42974, 57.28314 ], [ 12.42565, 57.2874 ], [ 12.42663, 57.29185 ], [ 12.42474, 57.29242 ], [ 12.42398, 57.29711 ], [ 12.42556, 57.30538 ], [ 12.42114, 57.30707 ], [ 12.43221, 57.31505 ], [ 12.42457, 57.32346 ], [ 12.41752, 57.31957 ], [ 12.39749, 57.32866 ], [ 12.38962, 57.33701 ], [ 12.39293, 57.33844 ], [ 12.39305, 57.34042 ], [ 12.38543, 57.34371 ], [ 12.38445, 57.34699 ], [ 12.38698, 57.35153 ], [ 12.35231, 57.33494 ], [ 12.34613, 57.33456 ], [ 12.34264, 57.33167 ], [ 12.33831, 57.33233 ], [ 12.33802, 57.32971 ], [ 12.34263, 57.33166 ], [ 12.33302, 57.32249 ], [ 12.31443, 57.30927 ], [ 12.28831, 57.30252 ], [ 12.27455, 57.30048 ], [ 12.23907, 57.3132 ], [ 12.22659, 57.31623 ], [ 12.21789, 57.31538 ], [ 12.21928, 57.31846 ], [ 12.21527, 57.32239 ], [ 12.20569, 57.32155 ], [ 12.20505, 57.31825 ], [ 12.19648, 57.31888 ], [ 12.19769, 57.31732 ], [ 12.196, 57.31593 ], [ 12.18054, 57.31121 ], [ 12.17501, 57.31239 ], [ 12.17097, 57.31193 ], [ 12.16755, 57.31068 ], [ 12.16755, 57.30205 ], [ 12.16382, 57.29873 ], [ 12.16553, 57.29373 ], [ 12.16299, 57.29224 ], [ 12.16324, 57.28901 ], [ 12.16531, 57.28798 ], [ 12.16426, 57.28436 ], [ 12.15319, 57.28159 ], [ 12.14852, 57.28185 ], [ 12.14573, 57.28358 ], [ 12.1411, 57.28347 ], [ 12.13933, 57.28056 ], [ 12.13395, 57.28151 ], [ 12.13019, 57.27855 ], [ 12.1263, 57.27738 ], [ 12.12293, 57.27803 ], [ 12.11982, 57.27544 ], [ 12.11662, 57.27393 ], [ 12.11457, 57.2746 ], [ 12.11466, 57.27352 ], [ 12.10953, 57.27125 ], [ 12.10914, 57.26764 ], [ 12.10575, 57.26864 ], [ 12.10727, 57.26616 ], [ 12.11205, 57.26447 ], [ 12.10675, 57.26435 ], [ 12.10531, 57.26576 ], [ 12.10404, 57.26501 ], [ 12.10355, 57.26284 ], [ 12.10692, 57.2622 ], [ 12.10916, 57.25902 ], [ 12.10294, 57.26211 ], [ 12.09346, 57.25614 ], [ 12.08485, 57.25594 ], [ 12.085, 57.25414 ], [ 12.08891, 57.25495 ], [ 12.09144, 57.24818 ], [ 12.09561, 57.24576 ], [ 12.10024, 57.24587 ], [ 12.10586, 57.25031 ], [ 12.11118, 57.25007 ], [ 12.11819, 57.25383 ], [ 12.12219, 57.25356 ], [ 12.12909, 57.25013 ], [ 12.13064, 57.24728 ], [ 12.13265, 57.24697 ], [ 12.1281, 57.24579 ], [ 12.12669, 57.24684 ], [ 12.11803, 57.24736 ], [ 12.11975, 57.24236 ], [ 12.11572, 57.24299 ], [ 12.11658, 57.24049 ], [ 12.11467, 57.23937 ], [ 12.11194, 57.24039 ], [ 12.10607, 57.23917 ], [ 12.10463, 57.24058 ], [ 12.10069, 57.24013 ], [ 12.0992, 57.24225 ], [ 12.09724, 57.24184 ], [ 12.09807, 57.23971 ], [ 12.09545, 57.23929 ], [ 12.09386, 57.23422 ], [ 12.09806, 57.23144 ], [ 12.10344, 57.23048 ], [ 12.10487, 57.22908 ], [ 12.10818, 57.22915 ], [ 12.11105, 57.22634 ], [ 12.11293, 57.22782 ], [ 12.1169, 57.22792 ], [ 12.11968, 57.22618 ], [ 12.12368, 57.22591 ], [ 12.12644, 57.22454 ], [ 12.12597, 57.22201 ], [ 12.13353, 57.21859 ], [ 12.13232, 57.21712 ], [ 12.13918, 57.21405 ], [ 12.15114, 57.2136 ], [ 12.15296, 57.2158 ], [ 12.15561, 57.21586 ], [ 12.15638, 57.21444 ], [ 12.15905, 57.21414 ], [ 12.16558, 57.21536 ], [ 12.16955, 57.21545 ], [ 12.17099, 57.21405 ], [ 12.18152, 57.215 ], [ 12.18127, 57.21823 ], [ 12.18651, 57.21907 ], [ 12.18703, 57.22088 ], [ 12.19346, 57.22354 ], [ 12.19875, 57.22366 ], [ 12.20906, 57.22748 ], [ 12.21044, 57.22679 ], [ 12.20724, 57.22528 ], [ 12.21248, 57.22612 ], [ 12.21071, 57.2232 ], [ 12.21344, 57.22219 ], [ 12.21715, 57.21688 ], [ 12.21522, 57.21612 ], [ 12.21483, 57.21251 ], [ 12.20918, 57.20843 ], [ 12.19807, 57.20639 ], [ 12.19303, 57.20304 ], [ 12.18247, 57.20244 ], [ 12.18192, 57.20099 ], [ 12.17801, 57.20018 ], [ 12.17663, 57.20087 ], [ 12.17412, 57.19902 ], [ 12.16674, 57.20029 ], [ 12.16107, 57.19657 ], [ 12.15513, 57.19787 ], [ 12.15388, 57.19533 ], [ 12.15065, 57.19417 ], [ 12.1501, 57.19272 ] ] ], [ [ [ 12.10535, 57.20608 ], [ 12.11535, 57.20523 ], [ 12.11835, 57.20925 ], [ 12.11292, 57.21093 ], [ 12.10904, 57.20976 ], [ 12.11053, 57.20764 ], [ 12.10535, 57.20608 ] ] ], [ [ [ 12.14671, 57.21098 ], [ 12.14731, 57.21171 ], [ 12.14607, 57.21061 ], [ 12.14671, 57.21098 ] ] ], [ [ [ 12.13665, 57.21255 ], [ 12.13871, 57.21152 ], [ 12.14067, 57.21192 ], [ 12.1386, 57.21295 ], [ 12.13665, 57.21255 ] ] ], [ [ [ 12.09033, 57.22011 ], [ 12.09637, 57.21917 ], [ 12.10086, 57.22108 ], [ 12.096, 57.22384 ], [ 12.09132, 57.22445 ], [ 12.09033, 57.22011 ] ] ], [ [ [ 12.11394, 57.29112 ], [ 12.11143, 57.28927 ], [ 12.11742, 57.28905 ], [ 12.11731, 57.29048 ], [ 12.11394, 57.29112 ] ] ], [ [ [ 12.07951, 57.28997 ], [ 12.08216, 57.29003 ], [ 12.0872, 57.29338 ], [ 12.09118, 57.29347 ], [ 12.08954, 57.29739 ], [ 12.08093, 57.29719 ], [ 12.07795, 57.29281 ], [ 12.07951, 57.28997 ] ] ], [ [ [ 12.1252, 57.30001 ], [ 12.12376, 57.30141 ], [ 12.12475, 57.30575 ], [ 12.11735, 57.30702 ], [ 12.11787, 57.30883 ], [ 12.11389, 57.30874 ], [ 12.11083, 57.30543 ], [ 12.10613, 57.30604 ], [ 12.10695, 57.29564 ], [ 12.11698, 57.29479 ], [ 12.1252, 57.30001 ] ] ], [ [ [ 12.09264, 57.30861 ], [ 12.09163, 57.30463 ], [ 12.09762, 57.30441 ], [ 12.09734, 57.308 ], [ 12.09264, 57.30861 ] ] ], [ [ [ 12.12182, 57.30928 ], [ 12.12505, 57.31043 ], [ 12.13284, 57.31277 ], [ 12.12541, 57.31439 ], [ 12.12079, 57.31393 ], [ 12.11969, 57.31103 ], [ 12.12182, 57.30928 ] ] ], [ [ [ 12.09017, 57.31466 ], [ 12.09368, 57.31223 ], [ 12.09634, 57.31229 ], [ 12.09533, 57.31658 ], [ 12.09, 57.31681 ], [ 12.09017, 57.31466 ] ] ], [ [ [ 12.11131, 57.31623 ], [ 12.11015, 57.31404 ], [ 12.11537, 57.31524 ], [ 12.1146, 57.31666 ], [ 12.11131, 57.31623 ] ] ], [ [ [ 12.24986, 57.06229 ], [ 12.25197, 57.06054 ], [ 12.25246, 57.06271 ], [ 12.24986, 57.06229 ] ] ], [ [ [ 12.24448, 57.06361 ], [ 12.24891, 57.06623 ], [ 12.24363, 57.06611 ], [ 12.24182, 57.06391 ], [ 12.24448, 57.06361 ] ] ], [ [ [ 12.25301, 57.07315 ], [ 12.25425, 57.07425 ], [ 12.25293, 57.07422 ], [ 12.25301, 57.07315 ] ] ], [ [ [ 12.22009, 57.10729 ], [ 12.22223, 57.10518 ], [ 12.224, 57.1081 ], [ 12.22009, 57.10729 ] ] ], [ [ [ 12.20199, 57.13709 ], [ 12.20656, 57.13791 ], [ 12.20048, 57.13957 ], [ 12.19874, 57.1363 ], [ 12.2021, 57.13565 ], [ 12.20199, 57.13709 ] ] ], [ [ [ 12.21314, 57.16466 ], [ 12.2124, 57.16572 ], [ 12.21108, 57.16569 ], [ 12.21314, 57.16466 ] ] ], [ [ [ 12.20788, 57.16418 ], [ 12.21047, 57.16496 ], [ 12.20772, 57.16634 ], [ 12.20788, 57.16418 ] ] ], [ [ [ 12.21233, 57.21929 ], [ 12.21093, 57.22033 ], [ 12.20897, 57.21993 ], [ 12.209, 57.21957 ], [ 12.21233, 57.21929 ] ] ], [ [ [ 12.33918, 57.01281 ], [ 12.3426, 57.01109 ], [ 12.3395, 57.0175 ], [ 12.33611, 57.01886 ], [ 12.3349, 57.0174 ], [ 12.3375, 57.01781 ], [ 12.33918, 57.01281 ] ] ], [ [ [ 12.31088, 57.03054 ], [ 12.30346, 57.0329 ], [ 12.30356, 57.03147 ], [ 12.30027, 57.03139 ], [ 12.30195, 57.0264 ], [ 12.3084, 57.02833 ], [ 12.31088, 57.03054 ] ] ] ] } },
{ "type": "Feature", "properties": { "kn": "1384", "kom_namn": "Kungsbacka", "pop": 86339.0, "akutsjukhus_BICYCLE": 58.0, "akutsjukhus_CAR": 28.0, "akutsjukhus_TRANSIT": 42.0, "akutsjukhus_TRANSIT50": 46.0, "akutsjukhus_WALK": null, "apotek_BICYCLE": 13.0, "apotek_CAR": 8.0, "apotek_TRANSIT": 19.0, "apotek_TRANSIT50": 24.0, "apotek_WALK": 24.0, "bibliotek_BICYCLE": 14.0, "bibliotek_CAR": 8.0, "bibliotek_TRANSIT": 19.0, "bibliotek_TRANSIT50": 26.0, "bibliotek_WALK": 25.0, "dagligvaror_BICYCLE": 10.0, "dagligvaror_CAR": 6.0, "dagligvaror_TRANSIT": 16.0, "dagligvaror_TRANSIT50": 21.0, "dagligvaror_WALK": 21.0, "drivmedel_BICYCLE": 12.0, "drivmedel_CAR": 6.0, "drivmedel_TRANSIT": 18.0, "drivmedel_TRANSIT50": 24.0, "drivmedel_WALK": 24.0, "forskola_BICYCLE": 8.0, "forskola_CAR": 5.0, "forskola_TRANSIT": 13.0, "forskola_TRANSIT50": 16.0, "forskola_WALK": 15.0, "grundskola_79_BICYCLE": 11.0, "grundskola_79_CAR": 6.0, "grundskola_79_TRANSIT": 17.0, "grundskola_79_TRANSIT50": 22.0, "grundskola_79_WALK": 20.0, "grundskola_f6_BICYCLE": 8.0, "grundskola_f6_CAR": 5.0, "grundskola_f6_TRANSIT": 14.0, "grundskola_f6_TRANSIT50": 18.0, "grundskola_f6_WALK": 18.0, "gymnasium_BICYCLE": 26.0, "gymnasium_CAR": 14.0, "gymnasium_TRANSIT": 29.0, "gymnasium_TRANSIT50": 34.0, "gymnasium_WALK": 20.0, "hallplats_BICYCLE": 3.0, "hallplats_CAR": 2.0, "hallplats_TRANSIT": 9.0, "hallplats_TRANSIT50": 9.0, "hallplats_WALK": 9.0, "narakut_BICYCLE": 30.0, "narakut_CAR": 18.0, "narakut_TRANSIT": 33.0, "narakut_TRANSIT50": 38.0, "narakut_WALK": 26.0, "tandvard_BICYCLE": 13.0, "tandvard_CAR": 7.0, "tandvard_TRANSIT": 19.0, "tandvard_TRANSIT50": 25.0, "tandvard_WALK": 25.0, "vardcentral_BICYCLE": 11.0, "vardcentral_CAR": 7.0, "vardcentral_TRANSIT": 18.0, "vardcentral_TRANSIT50": 23.0, "vardcentral_WALK": 24.0, "v15_BICYCLE": 4.8, "v15_WALK": 2.5, "namn": "Kungsbacka" }, "geometry": { "type": "MultiPolygon", "coordinates": [ [ [ [ 11.89787, 57.30215 ], [ 11.90191, 57.30153 ], [ 11.90374, 57.30338 ], [ 11.91164, 57.30429 ], [ 11.89971, 57.304 ], [ 11.89787, 57.30215 ] ] ], [ [ [ 11.91357, 57.37624 ], [ 11.91433, 57.37518 ], [ 11.91493, 57.37592 ], [ 11.91357, 57.37624 ] ] ], [ [ [ 11.91258, 57.38018 ], [ 11.91382, 57.38128 ], [ 11.91119, 57.38086 ], [ 11.91258, 57.38018 ] ] ], [ [ [ 11.91445, 57.38166 ], [ 11.91176, 57.38195 ], [ 11.91179, 57.38159 ], [ 11.91445, 57.38166 ] ] ], [ [ [ 11.91158, 57.39202 ], [ 11.91034, 57.39091 ], [ 11.91234, 57.39096 ], [ 11.91158, 57.39202 ] ] ], [ [ [ 11.91279, 57.40139 ], [ 11.9114, 57.40208 ], [ 11.9108, 57.40134 ], [ 11.91279, 57.40139 ] ] ], [ [ [ 11.82668, 57.41903 ], [ 11.8287, 57.41872 ], [ 11.82867, 57.41908 ], [ 11.82668, 57.41903 ] ] ], [ [ [ 11.83269, 57.41882 ], [ 11.83121, 57.42058 ], [ 11.83136, 57.41878 ], [ 11.83269, 57.41882 ] ] ], [ [ [ 11.90551, 57.42458 ], [ 11.90018, 57.42445 ], [ 11.90022, 57.42409 ], [ 11.90433, 57.42276 ], [ 11.90551, 57.42458 ] ] ], [ [ [ 11.90478, 57.42529 ], [ 11.90735, 57.42643 ], [ 11.90662, 57.42713 ], [ 11.90478, 57.42529 ] ] ], [ [ [ 11.89876, 57.43341 ], [ 11.89816, 57.43267 ], [ 11.89543, 57.43332 ], [ 11.89489, 57.43187 ], [ 11.89819, 57.43231 ], [ 11.90027, 57.43129 ], [ 11.90082, 57.43274 ], [ 11.89876, 57.43341 ] ] ], [ [ [ 11.88618, 57.43238 ], [ 11.88669, 57.43419 ], [ 11.88461, 57.43521 ], [ 11.88419, 57.43233 ], [ 11.88618, 57.43238 ] ] ], [ [ [ 11.90444, 57.43714 ], [ 11.90305, 57.43783 ], [ 11.90311, 57.43711 ], [ 11.90444, 57.43714 ] ] ], [ [ [ 11.90574, 57.44544 ], [ 11.90517, 57.44435 ], [ 11.9065, 57.44438 ], [ 11.90641, 57.44546 ], [ 11.90574, 57.44544 ] ] ], [ [ [ 11.90375, 57.44539 ], [ 11.90574, 57.44544 ], [ 11.90559, 57.44724 ], [ 11.90353, 57.44791 ], [ 11.90375, 57.44539 ] ] ], [ [ [ 11.9055, 57.45622 ], [ 11.90744, 57.45699 ], [ 11.90544, 57.45694 ], [ 11.9055, 57.45622 ] ] ], [ [ [ 11.8909, 57.48678 ], [ 11.89302, 57.4854 ], [ 11.89423, 57.48687 ], [ 11.8909, 57.48678 ] ] ], [ [ [ 11.8905, 57.49145 ], [ 11.89465, 57.48975 ], [ 11.89456, 57.49083 ], [ 11.8905, 57.49145 ] ] ], [ [ [ 11.88786, 57.49102 ], [ 11.8898, 57.49179 ], [ 11.88583, 57.49133 ], [ 11.88665, 57.48956 ], [ 11.88865, 57.4896 ], [ 11.88786, 57.49102 ] ] ], [ [ [ 11.88898, 57.50148 ], [ 11.88777, 57.50001 ], [ 11.8898, 57.4997 ], [ 11.8904, 57.50043 ], [ 11.88898, 57.50148 ] ] ], [ [ [ 11.87295, 57.50144 ], [ 11.87092, 57.50175 ], [ 11.87098, 57.50103 ], [ 11.87295, 57.50144 ] ] ], [ [ [ 11.89485, 57.51097 ], [ 11.89609, 57.51208 ], [ 11.89336, 57.51273 ], [ 11.89479, 57.51169 ], [ 11.89485, 57.51097 ] ] ], [ [ [ 11.90258, 57.5144 ], [ 11.90127, 57.514 ], [ 11.90264, 57.51368 ], [ 11.90258, 57.5144 ] ] ], [ [ [ 11.88457, 57.51395 ], [ 11.88518, 57.51469 ], [ 11.88324, 57.51392 ], [ 11.88457, 57.51395 ] ] ], [ [ [ 11.9017, 57.51689 ], [ 11.90033, 57.51722 ], [ 11.89903, 57.51683 ], [ 11.89976, 57.51612 ], [ 11.9017, 57.51689 ] ] ], [ [ [ 11.8753, 57.513 ], [ 11.88245, 57.51534 ], [ 11.8823, 57.51713 ], [ 11.8796, 57.51742 ], [ 11.87666, 57.52059 ], [ 11.87466, 57.52054 ], [ 11.87408, 57.51945 ], [ 11.87754, 57.51809 ], [ 11.87287, 57.51798 ], [ 11.87296, 57.5169 ], [ 11.87033, 57.51648 ], [ 11.87172, 57.51579 ], [ 11.86972, 57.51574 ], [ 11.87121, 57.51398 ], [ 11.8753, 57.513 ] ] ], [ [ [ 11.90215, 57.51942 ], [ 11.90091, 57.51831 ], [ 11.90351, 57.51909 ], [ 11.90215, 57.51942 ] ] ], [ [ [ 11.89784, 57.52291 ], [ 11.89978, 57.52367 ], [ 11.89969, 57.52475 ], [ 11.89636, 57.52467 ], [ 11.89784, 57.52291 ] ] ], [ [ [ 11.89902, 57.54055 ], [ 11.90029, 57.5413 ], [ 11.89896, 57.54127 ], [ 11.89902, 57.54055 ] ] ], [ [ [ 11.90001, 57.55244 ], [ 11.89728, 57.55309 ], [ 11.89734, 57.55238 ], [ 11.90001, 57.55244 ] ] ], [ [ [ 11.89385, 57.55409 ], [ 11.89576, 57.55521 ], [ 11.89309, 57.55515 ], [ 11.89385, 57.55409 ] ] ], [ [ [ 11.87905, 57.55516 ], [ 11.88366, 57.55599 ], [ 11.87895, 57.55624 ], [ 11.87905, 57.55516 ] ] ], [ [ [ 11.88891, 57.5572 ], [ 11.89097, 57.55653 ], [ 11.89158, 57.55727 ], [ 11.88891, 57.5572 ] ] ], [ [ [ 11.88863, 57.56043 ], [ 11.88805, 57.55934 ], [ 11.89203, 57.5598 ], [ 11.8913, 57.5605 ], [ 11.88863, 57.56043 ] ] ], [ [ [ 11.94887, 57.34403 ], [ 11.95502, 57.34202 ], [ 11.95254, 57.3398 ], [ 11.95924, 57.33925 ], [ 11.96023, 57.33532 ], [ 11.96553, 57.33544 ], [ 11.96659, 57.33871 ], [ 11.97254, 57.33921 ], [ 11.96953, 57.34345 ], [ 11.96021, 57.34358 ], [ 11.95406, 57.34559 ], [ 11.94748, 57.34471 ], [ 11.94736, 57.34615 ], [ 11.94163, 57.34313 ], [ 11.93957, 57.3438 ], [ 11.9384, 57.34198 ], [ 11.94368, 57.34246 ], [ 11.94509, 57.34142 ], [ 11.94887, 57.34403 ] ] ], [ [ [ 11.96484, 57.35197 ], [ 11.96306, 57.35732 ], [ 11.96116, 57.35619 ], [ 11.96224, 57.35118 ], [ 11.96484, 57.35197 ] ] ], [ [ [ 11.92619, 57.36864 ], [ 11.9248, 57.36933 ], [ 11.92423, 57.36824 ], [ 11.92619, 57.36864 ] ] ], [ [ [ 11.92067, 57.37103 ], [ 11.92731, 57.37119 ], [ 11.9287, 57.3705 ], [ 11.92656, 57.37225 ], [ 11.92067, 57.37103 ] ] ], [ [ [ 11.93006, 57.37018 ], [ 11.93993, 57.3715 ], [ 11.93978, 57.37329 ], [ 11.9444, 57.37376 ], [ 11.94688, 57.37598 ], [ 11.94199, 57.37874 ], [ 11.93471, 57.3782 ], [ 11.92831, 57.37517 ], [ 11.92985, 57.37269 ], [ 11.93516, 57.37282 ], [ 11.93187, 57.37238 ], [ 11.93006, 57.37018 ] ] ], [ [ [ 11.92544, 57.37761 ], [ 11.9201, 57.37784 ], [ 11.91961, 57.37567 ], [ 11.9249, 57.37616 ], [ 11.92544, 57.37761 ] ] ], [ [ [ 11.9326, 57.37959 ], [ 11.92795, 57.37947 ], [ 11.9281, 57.37768 ], [ 11.93205, 57.37814 ], [ 11.9326, 57.37959 ] ] ], [ [ [ 11.92396, 57.38729 ], [ 11.92662, 57.38735 ], [ 11.92656, 57.38807 ], [ 11.92457, 57.38802 ], [ 11.92396, 57.38729 ] ] ], [ [ [ 11.95018, 57.39224 ], [ 11.93768, 57.3905 ], [ 11.93777, 57.38942 ], [ 11.94317, 57.38847 ], [ 11.95018, 57.39224 ] ] ], [ [ [ 11.9407, 57.39417 ], [ 11.93883, 57.39268 ], [ 11.94345, 57.39315 ], [ 11.9407, 57.39417 ] ] ], [ [ [ 11.91896, 57.4073 ], [ 11.91775, 57.40583 ], [ 11.91962, 57.40731 ], [ 11.91896, 57.4073 ] ] ], [ [ [ 11.9078, 57.41314 ], [ 11.90793, 57.4117 ], [ 11.91394, 57.41149 ], [ 11.9211, 57.41346 ], [ 11.92159, 57.41563 ], [ 11.91651, 57.42054 ], [ 11.91188, 57.42007 ], [ 11.90941, 57.41785 ], [ 11.91294, 57.41542 ], [ 11.91252, 57.41253 ], [ 11.9078, 57.41314 ] ] ], [ [ [ 11.9224, 57.42176 ], [ 11.92648, 57.42078 ], [ 11.92645, 57.42114 ], [ 11.9224, 57.42176 ] ] ], [ [ [ 11.91902, 57.43031 ], [ 11.91718, 57.42847 ], [ 11.91458, 57.42768 ], [ 11.91854, 57.42814 ], [ 11.91902, 57.43031 ] ] ], [ [ [ 11.92504, 57.4301 ], [ 11.92525, 57.42758 ], [ 11.92065, 57.42675 ], [ 11.92464, 57.42685 ], [ 11.92222, 57.42392 ], [ 11.92915, 57.42085 ], [ 11.92927, 57.41941 ], [ 11.92277, 57.41746 ], [ 11.92313, 57.41315 ], [ 11.92579, 57.41322 ], [ 11.92461, 57.41139 ], [ 11.92863, 57.41113 ], [ 11.92739, 57.41002 ], [ 11.93104, 57.40615 ], [ 11.92766, 57.40679 ], [ 11.92249, 57.40487 ], [ 11.92325, 57.40381 ], [ 11.9279, 57.40392 ], [ 11.92874, 57.40178 ], [ 11.92337, 57.40237 ], [ 11.9182, 57.40045 ], [ 11.91285, 57.40068 ], [ 11.91258, 57.39599 ], [ 11.90995, 57.39557 ], [ 11.90892, 57.39195 ], [ 11.91539, 57.39427 ], [ 11.91626, 57.39177 ], [ 11.92406, 57.39412 ], [ 11.92107, 57.39009 ], [ 11.92777, 57.38954 ], [ 11.92961, 57.39138 ], [ 11.93553, 57.39224 ], [ 11.93795, 57.39518 ], [ 11.94258, 57.39565 ], [ 11.94405, 57.39389 ], [ 11.95333, 57.39447 ], [ 11.95051, 57.38829 ], [ 11.96033, 57.39033 ], [ 11.95921, 57.38778 ], [ 11.96389, 57.38754 ], [ 11.96404, 57.38574 ], [ 11.95534, 57.38625 ], [ 11.94815, 57.38464 ], [ 11.95362, 57.38297 ], [ 11.9518, 57.38077 ], [ 11.95787, 57.37984 ], [ 11.96094, 57.37488 ], [ 11.95436, 57.374 ], [ 11.95511, 57.37294 ], [ 11.94938, 57.36993 ], [ 11.95019, 57.36815 ], [ 11.94473, 57.36981 ], [ 11.94023, 57.36791 ], [ 11.9405, 57.36468 ], [ 11.9446, 57.36334 ], [ 11.94345, 57.36115 ], [ 11.94487, 57.36011 ], [ 11.95495, 57.35892 ], [ 11.95244, 57.35706 ], [ 11.95274, 57.35347 ], [ 11.95877, 57.3529 ], [ 11.95893, 57.35901 ], [ 11.96291, 57.35911 ], [ 11.96415, 57.36022 ], [ 11.9669, 57.35921 ], [ 11.96944, 57.3607 ], [ 11.96929, 57.3625 ], [ 11.97367, 57.36584 ], [ 11.97262, 57.37049 ], [ 11.97419, 57.36765 ], [ 11.97684, 57.36771 ], [ 11.98195, 57.37035 ], [ 11.9831, 57.37254 ], [ 11.98645, 57.37226 ], [ 11.98611, 57.3683 ], [ 11.99454, 57.37101 ], [ 11.98964, 57.36586 ], [ 11.98635, 57.36543 ], [ 11.98643, 57.36435 ], [ 11.99048, 57.36373 ], [ 11.98531, 57.36181 ], [ 11.98609, 57.36039 ], [ 11.98419, 57.35926 ], [ 11.98558, 57.35858 ], [ 11.98367, 57.35745 ], [ 11.98515, 57.35569 ], [ 11.98907, 57.3565 ], [ 11.98881, 57.35973 ], [ 11.99141, 57.36051 ], [ 11.99181, 57.36376 ], [ 11.99905, 57.36465 ], [ 12.00349, 57.36727 ], [ 11.99931, 57.36142 ], [ 11.99669, 57.361 ], [ 11.99444, 57.35591 ], [ 11.99245, 57.35586 ], [ 11.9954, 57.35234 ], [ 11.99359, 57.35014 ], [ 11.99495, 57.34154 ], [ 11.99966, 57.34094 ], [ 12.0009, 57.34204 ], [ 12.00165, 57.34098 ], [ 12.00527, 57.35365 ], [ 12.01038, 57.35629 ], [ 12.0083, 57.35732 ], [ 12.00936, 57.36058 ], [ 12.01384, 57.36285 ], [ 12.01297, 57.36534 ], [ 12.01877, 57.36764 ], [ 12.01911, 57.3716 ], [ 12.02304, 57.37241 ], [ 12.02289, 57.37421 ], [ 12.02616, 57.375 ], [ 12.02249, 57.37923 ], [ 12.02367, 57.38105 ], [ 12.01688, 57.38269 ], [ 12.01676, 57.38413 ], [ 12.01936, 57.38491 ], [ 12.01774, 57.38846 ], [ 12.02037, 57.38889 ], [ 12.02182, 57.38748 ], [ 12.02358, 57.3904 ], [ 12.02202, 57.39324 ], [ 12.02005, 57.39283 ], [ 12.01785, 57.3953 ], [ 12.01826, 57.39854 ], [ 12.02476, 57.40049 ], [ 12.02918, 57.40347 ], [ 12.02767, 57.4056 ], [ 12.03467, 57.40972 ], [ 12.03392, 57.41078 ], [ 12.03652, 57.41156 ], [ 12.03828, 57.41447 ], [ 12.03741, 57.41697 ], [ 12.04192, 57.41887 ], [ 12.04013, 57.42458 ], [ 12.04513, 57.42866 ], [ 12.04406, 57.43367 ], [ 12.05092, 57.43958 ], [ 12.05185, 57.4529 ], [ 12.05243, 57.45399 ], [ 12.05512, 57.4537 ], [ 12.05535, 57.4591 ], [ 12.05906, 57.46278 ], [ 12.06045, 57.46209 ], [ 12.06102, 57.46318 ], [ 12.06699, 57.46368 ], [ 12.0704, 57.46268 ], [ 12.0729, 57.4649 ], [ 12.07043, 57.46232 ], [ 12.07208, 57.45841 ], [ 12.07014, 57.45764 ], [ 12.07633, 57.45527 ], [ 12.0726, 57.45195 ], [ 12.06996, 57.45153 ], [ 12.06692, 57.44786 ], [ 12.07219, 57.4487 ], [ 12.07164, 57.44725 ], [ 12.07739, 57.44199 ], [ 12.09273, 57.44199 ], [ 12.09515, 57.43665 ], [ 12.10267, 57.43431 ], [ 12.10525, 57.43545 ], [ 12.1086, 57.43516 ], [ 12.11074, 57.43341 ], [ 12.10961, 57.43087 ], [ 12.11227, 57.43093 ], [ 12.11269, 57.42555 ], [ 12.10638, 57.42109 ], [ 12.10726, 57.40997 ], [ 12.11084, 57.40681 ], [ 12.09748, 57.40723 ], [ 12.09474, 57.40824 ], [ 12.09349, 57.40713 ], [ 12.0828, 57.4076 ], [ 12.08043, 57.40395 ], [ 12.08042, 57.39569 ], [ 12.08463, 57.39291 ], [ 12.08623, 57.39798 ], [ 12.08955, 57.39805 ], [ 12.09172, 57.39595 ], [ 12.09371, 57.39599 ], [ 12.09565, 57.39676 ], [ 12.09484, 57.39854 ], [ 12.0988, 57.39899 ], [ 12.10715, 57.39451 ], [ 12.10767, 57.39632 ], [ 12.11343, 57.39932 ], [ 12.12212, 57.3988 ], [ 12.12432, 57.39634 ], [ 12.12102, 57.3959 ], [ 12.12379, 57.39453 ], [ 12.12402, 57.39166 ], [ 12.11838, 57.38839 ], [ 12.12333, 57.38697 ], [ 12.12837, 57.38708 ], [ 12.1238, 57.3859 ], [ 12.12799, 57.38348 ], [ 12.12896, 57.37955 ], [ 12.12841, 57.3781 ], [ 12.12384, 57.37691 ], [ 12.1198, 57.37754 ], [ 12.11988, 57.37646 ], [ 12.11659, 57.37603 ], [ 12.11648, 57.37746 ], [ 12.10986, 57.37695 ], [ 12.1074, 57.37438 ], [ 12.10333, 57.37536 ], [ 12.10154, 57.37281 ], [ 12.09619, 57.37304 ], [ 12.09183, 57.36935 ], [ 12.08521, 57.36883 ], [ 12.08365, 57.3634 ], [ 12.08033, 57.36333 ], [ 12.08189, 57.36049 ], [ 12.07542, 57.35818 ], [ 12.07186, 57.3527 ], [ 12.07209, 57.34983 ], [ 12.06704, 57.34648 ], [ 12.06929, 57.3433 ], [ 12.06669, 57.34252 ], [ 12.06565, 57.3389 ], [ 12.06429, 57.33923 ], [ 12.06516, 57.33673 ], [ 12.06792, 57.33536 ], [ 12.07442, 57.33731 ], [ 12.07846, 57.33668 ], [ 12.08302, 57.33786 ], [ 12.08509, 57.33683 ], [ 12.08694, 57.33867 ], [ 12.09609, 57.34068 ], [ 12.09534, 57.34174 ], [ 12.09794, 57.34252 ], [ 12.10331, 57.34193 ], [ 12.10345, 57.34013 ], [ 12.10544, 57.34018 ], [ 12.10864, 57.34169 ], [ 12.10836, 57.34528 ], [ 12.11956, 57.34662 ], [ 12.12731, 57.34104 ], [ 12.13196, 57.34115 ], [ 12.13279, 57.33901 ], [ 12.12629, 57.33706 ], [ 12.12641, 57.33563 ], [ 12.13408, 57.33013 ], [ 12.13883, 57.3298 ], [ 12.13741, 57.33085 ], [ 12.13857, 57.33303 ], [ 12.14314, 57.33313 ], [ 12.14441, 57.33496 ], [ 12.14773, 57.33503 ], [ 12.15182, 57.33369 ], [ 12.15409, 57.33015 ], [ 12.15876, 57.32989 ], [ 12.16222, 57.32817 ], [ 12.16105, 57.32599 ], [ 12.15583, 57.32479 ], [ 12.15674, 57.32158 ], [ 12.15622, 57.31977 ], [ 12.15356, 57.31971 ], [ 12.15437, 57.31793 ], [ 12.15047, 57.31676 ], [ 12.14773, 57.31778 ], [ 12.14597, 57.31486 ], [ 12.15277, 57.31286 ], [ 12.15675, 57.31295 ], [ 12.15893, 57.31048 ], [ 12.16501, 57.30918 ], [ 12.16686, 57.31102 ], [ 12.17205, 57.31227 ], [ 12.18054, 57.31121 ], [ 12.196, 57.31593 ], [ 12.19769, 57.31732 ], [ 12.19648, 57.31888 ], [ 12.20505, 57.31825 ], [ 12.20569, 57.32155 ], [ 12.21527, 57.32239 ], [ 12.21928, 57.31846 ], [ 12.21789, 57.31538 ], [ 12.22659, 57.31623 ], [ 12.23907, 57.3132 ], [ 12.27455, 57.30048 ], [ 12.28831, 57.30252 ], [ 12.31443, 57.30927 ], [ 12.33302, 57.32249 ], [ 12.34263, 57.33166 ], [ 12.33802, 57.32971 ], [ 12.33831, 57.33233 ], [ 12.34264, 57.33167 ], [ 12.34613, 57.33456 ], [ 12.35231, 57.33494 ], [ 12.38698, 57.35153 ], [ 12.39605, 57.38116 ], [ 12.40921, 57.39336 ], [ 12.40857, 57.39609 ], [ 12.41105, 57.39775 ], [ 12.41779, 57.39863 ], [ 12.4195, 57.40066 ], [ 12.41596, 57.40763 ], [ 12.41235, 57.40769 ], [ 12.40515, 57.41288 ], [ 12.40675, 57.41562 ], [ 12.41183, 57.4171 ], [ 12.40818, 57.42061 ], [ 12.4068, 57.42902 ], [ 12.40228, 57.43624 ], [ 12.38996, 57.44003 ], [ 12.38953, 57.44302 ], [ 12.38024, 57.44563 ], [ 12.37648, 57.44928 ], [ 12.36646, 57.44933 ], [ 12.35829, 57.45276 ], [ 12.34561, 57.45054 ], [ 12.33766, 57.45106 ], [ 12.33474, 57.45518 ], [ 12.33106, 57.45479 ], [ 12.32718, 57.45914 ], [ 12.3228, 57.46076 ], [ 12.32258, 57.46247 ], [ 12.34439, 57.48644 ], [ 12.34452, 57.48878 ], [ 12.32536, 57.50764 ], [ 12.31305, 57.51629 ], [ 12.31503, 57.51868 ], [ 12.31157, 57.52098 ], [ 12.31402, 57.52204 ], [ 12.31331, 57.52382 ], [ 12.32599, 57.54778 ], [ 12.34095, 57.56172 ], [ 12.33247, 57.56648 ], [ 12.32992, 57.56655 ], [ 12.31954, 57.57432 ], [ 12.30291, 57.58354 ], [ 12.28309, 57.59143 ], [ 12.27723, 57.59754 ], [ 12.20793, 57.57409 ], [ 12.17919, 57.56832 ], [ 12.17543, 57.56483 ], [ 12.17053, 57.56532 ], [ 12.16976, 57.56639 ], [ 12.10327, 57.5597 ], [ 12.10054, 57.56175 ], [ 12.08707, 57.55883 ], [ 12.09485, 57.55554 ], [ 12.08465, 57.55258 ], [ 12.0778, 57.55245 ], [ 12.07506, 57.5509 ], [ 12.06657, 57.55149 ], [ 12.0503, 57.5498 ], [ 12.04723, 57.55273 ], [ 12.03842, 57.55048 ], [ 12.03221, 57.55097 ], [ 12.01267, 57.54567 ], [ 11.99853, 57.55897 ], [ 11.98666, 57.56263 ], [ 11.98785, 57.56506 ], [ 11.97912, 57.56401 ], [ 11.97622, 57.56165 ], [ 11.96977, 57.56385 ], [ 11.96481, 57.56212 ], [ 11.95788, 57.56399 ], [ 11.94389, 57.5614 ], [ 11.92262, 57.56198 ], [ 11.93005, 57.56109 ], [ 11.9295, 57.55964 ], [ 11.92152, 57.55908 ], [ 11.91913, 57.55579 ], [ 11.91991, 57.55437 ], [ 11.92395, 57.55411 ], [ 11.92337, 57.55301 ], [ 11.92534, 57.55342 ], [ 11.92547, 57.55199 ], [ 11.92349, 57.55158 ], [ 11.92914, 57.54812 ], [ 11.92534, 57.54551 ], [ 11.9217, 57.54902 ], [ 11.91643, 57.54817 ], [ 11.91579, 57.53989 ], [ 11.91952, 57.5353 ], [ 11.91676, 57.53631 ], [ 11.91488, 57.53483 ], [ 11.91925, 57.53062 ], [ 11.91254, 57.53082 ], [ 11.91597, 57.52982 ], [ 11.91345, 57.52797 ], [ 11.91691, 57.52661 ], [ 11.92155, 57.52708 ], [ 11.92673, 57.52901 ], [ 11.92974, 57.53304 ], [ 11.93577, 57.53282 ], [ 11.93468, 57.52992 ], [ 11.93804, 57.52964 ], [ 11.93956, 57.52752 ], [ 11.93225, 57.52699 ], [ 11.92573, 57.52503 ], [ 11.92252, 57.52351 ], [ 11.92264, 57.52208 ], [ 11.93192, 57.52302 ], [ 11.93479, 57.52058 ], [ 11.94019, 57.51999 ], [ 11.94031, 57.51855 ], [ 11.93579, 57.51665 ], [ 11.93376, 57.51696 ], [ 11.93385, 57.51588 ], [ 11.93782, 57.51633 ], [ 11.93858, 57.51527 ], [ 11.94464, 57.5147 ], [ 11.94288, 57.51178 ], [ 11.94767, 57.51046 ], [ 11.94779, 57.50903 ], [ 11.94448, 57.50859 ], [ 11.93491, 57.51123 ], [ 11.93027, 57.51076 ], [ 11.92839, 57.50927 ], [ 11.92294, 57.51058 ], [ 11.92245, 57.50841 ], [ 11.91921, 57.50725 ], [ 11.91939, 57.5051 ], [ 11.92357, 57.50305 ], [ 11.91699, 57.50252 ], [ 11.92312, 57.50052 ], [ 11.92633, 57.50203 ], [ 11.93366, 57.50221 ], [ 11.93312, 57.50076 ], [ 11.9403, 57.50273 ], [ 11.94639, 57.5018 ], [ 11.94966, 57.5026 ], [ 11.95075, 57.5055 ], [ 11.95272, 57.50591 ], [ 11.95105, 57.50192 ], [ 11.95514, 57.50094 ], [ 11.95602, 57.49844 ], [ 11.95402, 57.49839 ], [ 11.95411, 57.49732 ], [ 11.95895, 57.49527 ], [ 11.96365, 57.49503 ], [ 11.96698, 57.49511 ], [ 11.96816, 57.49693 ], [ 11.96831, 57.49514 ], [ 11.96649, 57.49294 ], [ 11.9525, 57.4926 ], [ 11.95128, 57.49113 ], [ 11.95289, 57.48794 ], [ 11.95089, 57.48789 ], [ 11.94789, 57.48386 ], [ 11.94259, 57.48337 ], [ 11.93644, 57.48502 ], [ 11.92796, 57.49057 ], [ 11.92684, 57.48802 ], [ 11.91206, 57.4891 ], [ 11.91785, 57.48385 ], [ 11.91164, 57.48621 ], [ 11.90561, 57.48643 ], [ 11.90997, 57.48222 ], [ 11.91673, 57.48131 ], [ 11.9186, 57.48279 ], [ 11.92142, 57.48106 ], [ 11.91948, 57.48029 ], [ 11.921, 57.47817 ], [ 11.91691, 57.47915 ], [ 11.91306, 57.47726 ], [ 11.91727, 57.47485 ], [ 11.9226, 57.47498 ], [ 11.92638, 57.47759 ], [ 11.93032, 57.4784 ], [ 11.93498, 57.47852 ], [ 11.93849, 57.47644 ], [ 11.93598, 57.47458 ], [ 11.93876, 57.47321 ], [ 11.93713, 57.46886 ], [ 11.93107, 57.46943 ], [ 11.9282, 57.47188 ], [ 11.92281, 57.47247 ], [ 11.92305, 57.4696 ], [ 11.9203, 57.47061 ], [ 11.91785, 57.46803 ], [ 11.9124, 57.46934 ], [ 11.91137, 57.46571 ], [ 11.9088, 57.46457 ], [ 11.91433, 57.46219 ], [ 11.91521, 57.4597 ], [ 11.91784, 57.46012 ], [ 11.92017, 57.45622 ], [ 11.91406, 57.45751 ], [ 11.91769, 57.45401 ], [ 11.91585, 57.45216 ], [ 11.91249, 57.45244 ], [ 11.91225, 57.45531 ], [ 11.90952, 57.45596 ], [ 11.9101, 57.44915 ], [ 11.91391, 57.44349 ], [ 11.91273, 57.44166 ], [ 11.90877, 57.4412 ], [ 11.90323, 57.44358 ], [ 11.90602, 57.44221 ], [ 11.90351, 57.44035 ], [ 11.90762, 57.43902 ], [ 11.90771, 57.43794 ], [ 11.90571, 57.43789 ], [ 11.90605, 57.43395 ], [ 11.90877, 57.43329 ], [ 11.90617, 57.43251 ], [ 11.91418, 57.43235 ], [ 11.91406, 57.43378 ], [ 11.91672, 57.43385 ], [ 11.91684, 57.43241 ], [ 11.91947, 57.43284 ], [ 11.91902, 57.43031 ], [ 11.92504, 57.4301 ] ] ], [ [ [ 11.91618, 57.47194 ], [ 11.91555, 57.47157 ], [ 11.91769, 57.46982 ], [ 11.91618, 57.47194 ] ] ], [ [ [ 11.90822, 57.47139 ], [ 11.91031, 57.47036 ], [ 11.91155, 57.47147 ], [ 11.91016, 57.47216 ], [ 11.90822, 57.47139 ] ] ], [ [ [ 11.90976, 57.47682 ], [ 11.9111, 57.47685 ], [ 11.91249, 57.47617 ], [ 11.91103, 57.47757 ], [ 11.90976, 57.47682 ] ] ], [ [ [ 11.93617, 57.48825 ], [ 11.93932, 57.49049 ], [ 11.93399, 57.49036 ], [ 11.93617, 57.48825 ] ] ], [ [ [ 11.94386, 57.49203 ], [ 11.94595, 57.49101 ], [ 11.94656, 57.49174 ], [ 11.94386, 57.49203 ] ] ], [ [ [ 11.92784, 57.492 ], [ 11.92642, 57.49305 ], [ 11.92651, 57.49197 ], [ 11.92784, 57.492 ] ] ], [ [ [ 11.91315, 57.50782 ], [ 11.91518, 57.50751 ], [ 11.91846, 57.50831 ], [ 11.91303, 57.50926 ], [ 11.91315, 57.50782 ] ] ], [ [ [ 11.90555, 57.51087 ], [ 11.90224, 57.51043 ], [ 11.90443, 57.50833 ], [ 11.909, 57.50952 ], [ 11.9093, 57.51384 ], [ 11.90539, 57.51267 ], [ 11.90555, 57.51087 ] ] ], [ [ [ 11.92333, 57.51383 ], [ 11.9267, 57.51355 ], [ 11.92724, 57.515 ], [ 11.92452, 57.51565 ], [ 11.92333, 57.51383 ] ] ], [ [ [ 11.93091, 57.51904 ], [ 11.93425, 57.51912 ], [ 11.93482, 57.52022 ], [ 11.93091, 57.51904 ] ] ], [ [ [ 11.93079, 57.52048 ], [ 11.92752, 57.51968 ], [ 11.92755, 57.51932 ], [ 11.93022, 57.51939 ], [ 11.93079, 57.52048 ] ] ], [ [ [ 11.92349, 57.51994 ], [ 11.92003, 57.52129 ], [ 11.92149, 57.51989 ], [ 11.92349, 57.51994 ] ] ], [ [ [ 11.909, 57.54116 ], [ 11.91227, 57.54196 ], [ 11.91215, 57.54339 ], [ 11.90818, 57.54294 ], [ 11.909, 57.54116 ] ] ], [ [ [ 11.91369, 57.55673 ], [ 11.9116, 57.55776 ], [ 11.91102, 57.55667 ], [ 11.91369, 57.55673 ] ] ], [ [ [ 11.90629, 57.55727 ], [ 11.90823, 57.55804 ], [ 11.90744, 57.55946 ], [ 11.9048, 57.55903 ], [ 11.90629, 57.55727 ] ] ], [ [ [ 11.91394, 57.56177 ], [ 11.91486, 57.56288 ], [ 11.91253, 57.56261 ], [ 11.91394, 57.56177 ] ] ], [ [ [ 12.0043, 57.34105 ], [ 12.00286, 57.34245 ], [ 12.00298, 57.34102 ], [ 12.0043, 57.34105 ] ] ], [ [ [ 11.9658, 57.34839 ], [ 11.96845, 57.34846 ], [ 11.96839, 57.34917 ], [ 11.9658, 57.34839 ] ] ], [ [ [ 11.97335, 57.35361 ], [ 11.97534, 57.35366 ], [ 11.97591, 57.35475 ], [ 11.97326, 57.35468 ], [ 11.97335, 57.35361 ] ] ], [ [ [ 12.03642, 57.35511 ], [ 12.03887, 57.35768 ], [ 12.03682, 57.35836 ], [ 12.03642, 57.35511 ] ] ], [ [ [ 12.04274, 57.35921 ], [ 12.04158, 57.35703 ], [ 12.04421, 57.35745 ], [ 12.04274, 57.35921 ] ] ], [ [ [ 12.0553, 57.36023 ], [ 12.05769, 57.36352 ], [ 12.05911, 57.36247 ], [ 12.06168, 57.36361 ], [ 12.06269, 57.36759 ], [ 12.05914, 57.37038 ], [ 12.05348, 57.3663 ], [ 12.05203, 57.35943 ], [ 12.0553, 57.36023 ] ] ], [ [ [ 12.06927, 57.36846 ], [ 12.06797, 57.36807 ], [ 12.06809, 57.36664 ], [ 12.06942, 57.36667 ], [ 12.06927, 57.36846 ] ] ], [ [ [ 12.04242, 57.36316 ], [ 12.04643, 57.3629 ], [ 12.04941, 57.36728 ], [ 12.04973, 57.3716 ], [ 12.04695, 57.37297 ], [ 12.04251, 57.37035 ], [ 12.04095, 57.36492 ], [ 12.04242, 57.36316 ] ] ], [ [ [ 12.03988, 57.36993 ], [ 12.04002, 57.36814 ], [ 12.04118, 57.37032 ], [ 12.03988, 57.36993 ] ] ], [ [ [ 12.07026, 57.3728 ], [ 12.07078, 57.37461 ], [ 12.06948, 57.37422 ], [ 12.07026, 57.3728 ] ] ], [ [ [ 12.06189, 57.38591 ], [ 12.05819, 57.38223 ], [ 12.05914, 57.37865 ], [ 12.06076, 57.3751 ], [ 12.06275, 57.37514 ], [ 12.06189, 57.38591 ] ] ], [ [ [ 12.07139, 57.38361 ], [ 12.06937, 57.38392 ], [ 12.07029, 57.38071 ], [ 12.07096, 57.38073 ], [ 12.07139, 57.38361 ] ] ], [ [ [ 12.0555, 57.38252 ], [ 12.04799, 57.38486 ], [ 12.049, 57.38057 ], [ 12.05316, 57.37851 ], [ 12.0555, 57.38252 ] ] ], [ [ [ 12.02615, 57.39154 ], [ 12.02497, 57.38971 ], [ 12.02696, 57.38976 ], [ 12.02615, 57.39154 ] ] ], [ [ [ 12.07166, 57.39692 ], [ 12.07149, 57.39907 ], [ 12.06886, 57.39865 ], [ 12.06903, 57.3965 ], [ 12.07166, 57.39692 ] ] ], [ [ [ 12.06697, 57.42234 ], [ 12.07122, 57.42747 ], [ 12.06983, 57.42816 ], [ 12.06263, 57.42655 ], [ 12.05953, 57.4236 ], [ 12.05968, 57.42181 ], [ 12.06234, 57.42187 ], [ 12.06182, 57.42006 ], [ 12.06697, 57.42234 ] ] ], [ [ [ 12.14607, 57.33068 ], [ 12.14549, 57.32959 ], [ 12.14679, 57.32998 ], [ 12.14607, 57.33068 ] ] ], [ [ [ 12.09452, 57.37732 ], [ 12.09591, 57.37663 ], [ 12.09713, 57.3781 ], [ 12.0958, 57.37807 ], [ 12.09452, 57.37732 ] ] ], [ [ [ 12.09294, 57.38052 ], [ 12.09285, 57.38159 ], [ 12.09219, 57.38158 ], [ 12.09158, 57.38084 ], [ 12.09294, 57.38052 ] ] ], [ [ [ 12.08405, 57.38355 ], [ 12.08208, 57.38314 ], [ 12.0837, 57.37958 ], [ 12.08407, 57.38319 ], [ 12.08543, 57.38286 ], [ 12.08405, 57.38355 ] ] ], [ [ [ 12.07434, 57.38835 ], [ 12.07694, 57.38913 ], [ 12.07536, 57.39233 ], [ 12.07403, 57.3923 ], [ 12.07434, 57.38835 ] ] ], [ [ [ 12.07762, 57.39742 ], [ 12.07446, 57.39519 ], [ 12.07594, 57.39342 ], [ 12.07762, 57.39742 ] ] ], [ [ [ 12.07684, 57.39884 ], [ 12.07597, 57.40133 ], [ 12.07484, 57.39879 ], [ 12.07684, 57.39884 ] ] ], [ [ [ 12.07386, 57.40272 ], [ 12.07331, 57.40127 ], [ 12.07597, 57.40133 ], [ 12.07386, 57.40272 ] ] ] ] } }
]
}
