{"type":"FeatureCollection","features":[{"type":"Feature","geometry":{"type":"Polygon","coordinates":[[[12.397487992445942,57.328659163122566],[12.39977080492357,57.32763558845552],[12.432207309769689,57.31504728567404],[12.421514914567647,57.306887920797706],[12.422834414816187,57.30637043592538],[12.430221817859792,57.269355964501194],[12.504577165993775,57.281053870307396],[12.529527861870648,57.30269953326268],[12.53722648546607,57.319493099505344],[12.55877163072689,57.32115828108693],[12.609217193390055,57.34666778003094],[12.639046779526412,57.33171822794354],[12.655260205215448,57.34138065824089],[12.705504655804626,57.32354551478494],[12.70292750234113,57.31400448429442],[12.737920524941607,57.30243894554311],[12.762805430978286,57.27341079400674],[12.74047302743067,57.26737950392699],[12.673129184811375,57.22859204425605],[12.641259611785237,57.225618012694596],[12.623468565595594,57.20954029123281],[12.629975531451603,57.17868799027068],[12.649106880060426,57.165930755070875],[12.614308013632467,57.15360477756897],[12.618812324061292,57.13454335238406],[12.579354806403336,57.11316324082895],[12.576681705253552,57.085328503257166],[12.599502050940426,57.06642467387173],[12.573175120124777,57.05368598434397],[12.602128306635032,57.04144734705413],[12.609093762149133,57.02396640035443],[12.550464862785804,57.01803407446855],[12.542917702983944,57.00131413134397],[12.426477947679734,57.009806048474026],[12.396239497036799,56.997912625259595],[12.356214872597386,56.990504473496834],[12.258357024669925,56.98732620026949],[12.14103731367035,57.12847165698628],[12.082799144108229,57.20724788363366],[12.024475974079893,57.312676425092114],[12.065653203132873,57.32562672181581],[12.087141539176194,57.32682658119824],[12.106181462007148,57.32870323197871],[12.135015645709606,57.321350276956714],[12.145308371377281,57.30306719364923],[12.215605347299038,57.32230573270988],[12.27454978816554,57.30047365371541],[12.31443482890836,57.30927205653407],[12.339140617326157,57.33034057287509],[12.386982101468497,57.35152922672683],[12.397487992445942,57.328659163122566]]]},"properties":{"lan_code":"13","kom_namn":"Varberg","id":"1383","geo_point_2d":[57.1804025311,12.3812078222]}},{"type":"Feature","geometry":{"type":"Polygon","coordinates":[[[12.340954655343289,57.56172404500022],[12.337577321827766,57.55842510369252],[12.335710570175012,57.556601862055],[12.311566621489836,57.520981721920705],[12.344369884939505,57.486421875826956],[12.334082688554078,57.47484116377625],[12.323965698787,57.4631274111626],[12.337661108786817,57.45105895262715],[12.376479144188158,57.449277159076935],[12.402282284504068,57.43624155672355],[12.407302428548892,57.41106179895016],[12.419440887336059,57.40065054752126],[12.396046073979633,57.381158193539285],[12.386982101468497,57.35152922672683],[12.339140617326157,57.33034057287509],[12.31443482890836,57.30927205653407],[12.27454978816554,57.30047365371541],[12.215605347299038,57.32230573270988],[12.145308371377281,57.30306719364923],[12.135015645709606,57.321350276956714],[12.106181462007148,57.32870323197871],[12.087141539176194,57.32682658119824],[12.065653203132873,57.32562672181581],[12.024475974079893,57.312676425092114],[11.917991875705065,57.25977953209606],[11.821543276690333,57.40011447052085],[11.784247116389926,57.500063444310555],[11.797025831943262,57.5264325416265],[11.817327609852242,57.55567284077072],[11.855550643968467,57.55798848136484],[11.878030316670019,57.55913455943707],[11.889857285730422,57.56218714031676],[11.908733373935963,57.562625259734695],[11.912020148425324,57.562549168097334],[11.919077953558984,57.56338332247469],[11.921083720734694,57.563075152090605],[11.924336775481864,57.56329989674465],[11.927441993097363,57.562093076495266],[11.949907043870565,57.56262778791085],[11.950418039374997,57.5627092955087],[11.953568137970738,57.5633737148483],[11.953660038448662,57.56328996324445],[11.953795355166273,57.563286096806756],[11.95425115966573,57.56300393807212],[11.954787077904511,57.563015540042336],[11.954987817259893,57.562994344655465],[11.955430264319597,57.56310331050568],[11.955570682819811,57.5631386079906],[11.956791652861636,57.56331834364132],[11.95787657560841,57.56398162795552],[11.958723728274283,57.56377628995454],[11.958803450889718,57.56375679004189],[11.962933653360263,57.56235899265757],[11.963814179036907,57.56217531122515],[11.964798471898455,57.562116757103524],[11.96729819105796,57.56261666699937],[11.967391317964285,57.562822008953546],[11.967750985706676,57.56325738651011],[11.96810638875704,57.563449227376076],[11.96917428799356,57.563802768713465],[11.969773814457776,57.563856793116386],[11.970222019035031,57.5637268806473],[11.97036771317983,57.56357859942477],[11.970826614308981,57.56348460377619],[11.971075881878217,57.563457038718255],[11.972261199392088,57.56349918580043],[11.973224808993832,57.56313657984744],[11.976020872840857,57.56168163419778],[11.978254966413932,57.5626915249879],[11.979120702232853,57.56401472161721],[11.982852221597211,57.56454305548654],[11.983519112756165,57.564642365080786],[11.98472122900655,57.56469838532549],[11.985955581168303,57.564841658129495],[11.987960341450828,57.56504185744799],[11.987898238817563,57.56468548001997],[11.996362736784063,57.56017146782473],[12.003108338996485,57.55529750842166],[12.004411872125253,57.554303595050634],[12.012704740762867,57.54581867951988],[12.05694561565699,57.55055813294515],[12.071694939529317,57.55155992303731],[12.090243349409736,57.554073704645],[12.090408974379686,57.554121030663744],[12.08715335370907,57.55882191285264],[12.088053580862406,57.559033742648246],[12.092015685683686,57.559773340029295],[12.092889055739638,57.55991256078708],[12.115681598249486,57.56108200541474],[12.122324700258309,57.561724314045215],[12.13751379819671,57.563228776641644],[12.140217126557634,57.56350123007683],[12.145970563427788,57.564080968568916],[12.149563374849851,57.56444285995228],[12.213981993130451,57.57640962141654],[12.218131977604962,57.57791780228187],[12.255257871567267,57.589695599592396],[12.257501819214516,57.59048403179718],[12.2772035952251,57.597454379901556],[12.283085916950082,57.59142773964904],[12.288050057998834,57.58940424652376],[12.292597087979319,57.587550405561686],[12.29327417305648,57.58727432674179],[12.340954655343289,57.56172404500022]]]},"properties":{"lan_code":"13","kom_namn":"Kungsbacka","id":"1384","geo_point_2d":[57.4363442962,12.0913701356]}},{"type":"Feature","geometry":{"type":"Polygon","coordinates":[[[13.413959935439793,57.11354462826387],[13.41459334840321,57.11350025440438],[13.454700190630371,57.10254117538251],[13.489077327093105,57.11381954797473],[13.505406712113556,57.0850758717546],[13.521895796147884,57.086944113988665],[13.522341717878536,57.08697020878495],[13.532548719930466,57.07923109499479],[13.532894019215254,57.07901331566571],[13.546411498175205,57.0793717447767],[13.603588077667446,57.059657753134765],[13.607947062770554,57.04203071640637],[13.596829155967328,57.02789864285219],[13.599134528226093,57.02634295498346],[13.595466319421448,57.015259029114304],[13.595809328896939,57.01490536483288],[13.628974465651188,56.994017799786604],[13.680703589382853,56.9720986552576],[13.693573122412781,56.96354027091409],[13.687422852660209,56.92681161940649],[13.662037669102482,56.91355357557088],[13.623402876501633,56.90756261531417],[13.576608442387535,56.88927838271653],[13.521787244415123,56.88785647303676],[13.486715450450976,56.87112278125715],[13.443693275303684,56.879804833648706],[13.432218322857993,56.86903689081158],[13.40646509785929,56.870761624838515],[13.339898991348408,56.85004256697325],[13.337909205035553,56.83823743504026],[13.298157125339486,56.823652069148196],[13.266621030579529,56.85290172578218],[13.213098928702403,56.83228994546133],[13.163056580608105,56.82719513074573],[13.156075193495724,56.839815468918474],[13.178725269512098,56.87438533005987],[13.137155117753284,56.89213136634611],[13.118046332534957,56.873776309301434],[13.087646914365747,56.86587829725936],[13.067430927295725,56.84419047831761],[13.043137008687946,56.84108796736252],[13.032519683021574,56.85375208077383],[13.001082936291988,56.865327365137716],[13.002640084994958,56.91514964808384],[12.972695340516307,56.923845070382384],[12.942124759494925,56.9223052365547],[12.935353914205418,56.943597672300854],[12.91191358370142,56.943337949342315],[12.911599237599475,56.957817717337065],[12.868923715425467,56.95589959074318],[12.822741835327852,56.97492143971143],[12.824664203782168,56.9914504483325],[12.859686097568021,57.02260890464297],[12.898618912440067,57.02110877425573],[12.914516150706419,57.03719138916117],[12.971915119231397,57.05102482983125],[13.002702799770763,57.041052549418055],[13.025220865352138,57.080325335915404],[13.058938228473128,57.08688160406619],[13.079071715966728,57.098897206605756],[13.08382106005966,57.081204005068614],[13.084229273465086,57.080914767031324],[13.121793520535714,57.053633786061035],[13.11395288346245,57.04052042018571],[13.114089631442463,57.04042438327375],[13.121706978524513,57.03597928784078],[13.121755460741126,57.03593540916934],[13.12184830859313,57.035847562004456],[13.121927918074496,57.03562916624391],[13.15629516144302,57.03740710747382],[13.176878353404133,57.046686574536956],[13.177223163508607,57.062588053039114],[13.177503296981548,57.06302744086],[13.228924567880703,57.07676724362387],[13.22938045685464,57.076795310917426],[13.240049014583418,57.09480554343121],[13.245496980885713,57.0926262506112],[13.2745453114139,57.09332441631085],[13.351407916808979,57.113287251821255],[13.413959935439793,57.11354462826387]]]},"properties":{"lan_code":"13","kom_namn":"Hylte","id":"1315","geo_point_2d":[56.9743623813,13.2777000093]}},{"type":"Feature","geometry":{"type":"Polygon","coordinates":[[[13.298157125339486,56.823652069148196],[13.318870609709421,56.782238112410745],[13.317123337212413,56.71951551129076],[13.324975251877904,56.70922441903261],[13.307793887731522,56.685465331933386],[13.249258003079857,56.67533294830835],[13.189808585173802,56.67693913359157],[13.188748406978057,56.65084202207185],[13.164091084959853,56.65026219707819],[13.164154718967513,56.634330074180845],[13.057392820065651,56.60110244627269],[13.028325210278505,56.59470113252294],[12.996387975561895,56.5591986646494],[12.965918440673958,56.548768487184454],[12.931992514728794,56.55309576551344],[12.82620764701429,56.638245590807074],[12.712551516992892,56.63430238206478],[12.629602767390317,56.70338115244989],[12.605034458437853,56.77748696205571],[12.63161803738419,56.78470173467443],[12.665917691407307,56.81470828189317],[12.72705655838061,56.841969914856236],[12.770945547002766,56.855692084986835],[12.841646943286799,56.85578949920171],[12.873557599806327,56.88063210611879],[12.871021998653832,56.903863715685034],[12.91191358370142,56.943337949342315],[12.935353914205418,56.943597672300854],[12.942124759494925,56.9223052365547],[12.972695340516307,56.923845070382384],[13.002640084994958,56.91514964808384],[13.001082936291988,56.865327365137716],[13.032519683021574,56.85375208077383],[13.043137008687946,56.84108796736252],[13.067430927295725,56.84419047831761],[13.087646914365747,56.86587829725936],[13.118046332534957,56.873776309301434],[13.137155117753284,56.89213136634611],[13.178725269512098,56.87438533005987],[13.156075193495724,56.839815468918474],[13.163056580608105,56.82719513074573],[13.213098928702403,56.83228994546133],[13.266621030579529,56.85290172578218],[13.298157125339486,56.823652069148196]]]},"properties":{"lan_code":"13","kom_namn":"Halmstad","id":"1380","geo_point_2d":[56.7441000012,12.9674142957]}},{"type":"Feature","geometry":{"type":"Polygon","coordinates":[[[13.100284178867316,57.14556470644536],[13.08070548055999,57.132345750353956],[13.093534531524483,57.120411138474374],[13.079071715966728,57.098897206605756],[13.058938228473128,57.08688160406619],[13.025220865352138,57.080325335915404],[13.002702799770763,57.041052549418055],[12.971915119231397,57.05102482983125],[12.914516150706419,57.03719138916117],[12.898618912440067,57.02110877425573],[12.859686097568021,57.02260890464297],[12.824664203782168,56.9914504483325],[12.822741835327852,56.97492143971143],[12.868923715425467,56.95589959074318],[12.911599237599475,56.957817717337065],[12.91191358370142,56.943337949342315],[12.871021998653832,56.903863715685034],[12.873557599806327,56.88063210611879],[12.841646943286799,56.85578949920171],[12.770945547002766,56.855692084986835],[12.72705655838061,56.841969914856236],[12.665917691407307,56.81470828189317],[12.63161803738419,56.78470173467443],[12.605034458437853,56.77748696205571],[12.602583558887567,56.78691161800737],[12.51213184501586,56.86974243434519],[12.443600616131839,56.881619510039684],[12.3814021552646,56.8956618213769],[12.258357024669925,56.98732620026949],[12.356214872597386,56.990504473496834],[12.396239497036799,56.997912625259595],[12.426477947679734,57.009806048474026],[12.542917702983944,57.00131413134397],[12.550464862785804,57.01803407446855],[12.609093762149133,57.02396640035443],[12.602128306635032,57.04144734705413],[12.573175120124777,57.05368598434397],[12.599502050940426,57.06642467387173],[12.576681705253552,57.085328503257166],[12.579354806403336,57.11316324082895],[12.618812324061292,57.13454335238406],[12.614308013632467,57.15360477756897],[12.649106880060426,57.165930755070875],[12.629975531451603,57.17868799027068],[12.623468565595594,57.20954029123281],[12.641259611785237,57.225618012694596],[12.673129184811375,57.22859204425605],[12.74047302743067,57.26737950392699],[12.762805430978286,57.27341079400674],[12.807536430000876,57.301109121674976],[12.83614547755568,57.269721017636506],[12.860774129385755,57.26561778567772],[12.906916512398809,57.27001229535241],[12.93355435693509,57.26122063596479],[12.954161322680658,57.24119620824393],[12.914430746728836,57.219832214614755],[12.920256769711587,57.20229368876001],[12.912155741567878,57.18061641737282],[12.934745708154349,57.174226471345975],[12.973960303894895,57.18324566646246],[13.03171548231338,57.17505685009667],[13.02091276822873,57.15748522272432],[13.059847912846537,57.14718103297051],[13.097434102835255,57.15785652516499],[13.100284178867316,57.14556470644536]]]},"properties":{"lan_code":"13","kom_namn":"Falkenberg","id":"1382","geo_point_2d":[57.0349186665,12.7172464755]}},{"type":"Feature","geometry":{"type":"Polygon","coordinates":[[[13.397585355394355,56.60884725112751],[13.417814149561282,56.57764310212177],[13.439894172110778,56.5712645369961],[13.440216288779348,56.554144246997254],[13.464791150292722,56.51395667054386],[13.454608537315405,56.497092295227155],[13.449877619347612,56.46787037259797],[13.46458296522787,56.44762027718607],[13.461757612845553,56.42783708356789],[13.439323989048253,56.41910548843898],[13.385590118726771,56.41451156552887],[13.346666063675475,56.390513249005814],[13.29265517845029,56.38041415029141],[13.25149845056632,56.35766681624461],[13.252572139587517,56.349354820405885],[13.252244461817693,56.34923756319925],[13.250657270226851,56.348913250795356],[13.250274551983358,56.3488810044171],[13.2249301232815,56.330475390288406],[13.222590767695573,56.329601053642776],[13.195989167862761,56.32413619005346],[13.171856547525339,56.34316332501804],[13.171253411960064,56.34343622520427],[13.169885399839114,56.34405530821318],[13.164631385498577,56.3464327242516],[13.158631082700682,56.349231826281574],[13.157911052425371,56.349534422288585],[13.152572210001304,56.351777624858265],[13.149991183910586,56.352496116581996],[13.14864317891076,56.35286776686879],[13.123794347010126,56.35514546161937],[13.122266258133816,56.35500525628181],[13.119230017410638,56.354671489341044],[13.09965717421081,56.35262907164336],[13.098762801098566,56.35292437527936],[13.048853421845006,56.35538050278901],[13.037003633006892,56.354923410710455],[12.992048498361358,56.357228444050925],[12.988533228819463,56.3575380617929],[12.979396481894423,56.36124354607973],[12.979047204750128,56.36190177927368],[12.977454919046787,56.36377607305796],[12.976625772536645,56.364595688709976],[12.973101805628417,56.367104936593556],[12.97061657534269,56.36766405229367],[12.96749435825149,56.36836631509109],[12.961107744259426,56.36871249896219],[12.956668260995418,56.36895246423212],[12.949812778717098,56.3693227769314],[12.965760349763736,56.42770336185111],[12.940946387335117,56.43950765613818],[12.890862046481569,56.4537707383088],[12.797266530886406,56.55295895552542],[12.931992514728794,56.55309576551344],[12.965918440673958,56.548768487184454],[12.996387975561895,56.5591986646494],[13.028325210278505,56.59470113252294],[13.057392820065651,56.60110244627269],[13.164154718967513,56.634330074180845],[13.164091084959853,56.65026219707819],[13.188748406978057,56.65084202207185],[13.189808585173802,56.67693913359157],[13.249258003079857,56.67533294830835],[13.307793887731522,56.685465331933386],[13.32826738146867,56.687688659985604],[13.364143493488577,56.66509784644861],[13.397585355394355,56.60884725112751]]]},"properties":{"lan_code":"13","kom_namn":"Laholm","id":"1381","geo_point_2d":[56.5015790072,13.1801386343]}}]}