{
"type": "FeatureCollection",
"name": "halland-lan",
"crs": { "type": "name", "properties": { "name": "urn:ogc:def:crs:OGC:1.3:CRS84" } },
"features": [
{ "type": "Feature", "properties": { "objektiden": "75ac5bbf-e340-4f20-a631-b3fbfb7a707e", "skapad": "2022-04-19", "objekttypn": 5112.0, "objekttyp": "Län", "lanskod": "13", "fid_": null }, "geometry": { "type": "Polygon", "coordinates": [ [ [ 12.261456335987933, 56.678347512386004 ], [ 12.25338454889385, 56.687728443471599 ], [ 12.240447237376374, 56.702760246711364 ], [ 12.227499453679483, 56.717790573784711 ], [ 12.214541183854172, 56.732819422412653 ], [ 12.201572413930723, 56.747846790312643 ], [ 12.188597214389809, 56.762872767338571 ], [ 12.175603317806832, 56.777897074781563 ], [ 12.162607051207994, 56.79292007979052 ], [ 12.149596142368157, 56.807941502326486 ], [ 12.136574663271002, 56.822961432670404 ], [ 12.123546692235946, 56.837979962868609 ], [ 12.110504031911274, 56.852996902358221 ], [ 12.097450758983616, 56.868012342735568 ], [ 12.084390781712401, 56.883028620373523 ], [ 12.071316241796966, 56.898041055994355 ], [ 12.058231046742213, 56.913051985550887 ], [ 12.045139106879365, 56.928063746646252 ], [ 12.032036663155882, 56.943071754974916 ], [ 12.018919240374307, 56.958080396084888 ], [ 12.014324049291059, 56.963334598229672 ], [ 12.008518179946718, 56.969970875678158 ], [ 12.005795390546394, 56.97308537729095 ], [ 11.986066739560409, 56.985438003646948 ], [ 11.966034305539846, 56.997969071212751 ], [ 11.945988357947886, 57.010496768666719 ], [ 11.925928884630355, 57.02302109146337 ], [ 11.914609604665561, 57.030086273480109 ], [ 11.769981972428443, 57.119995964934098 ], [ 11.769964507186399, 57.120006751148274 ], [ 11.769947041934167, 57.1200175373599 ], [ 11.764972565187779, 57.12309833652882 ], [ 11.744794739242204, 57.135594432655289 ], [ 11.733647118402075, 57.142491312487856 ], [ 11.73211671636226, 57.143437993539976 ], [ 11.72459914067373, 57.148087001873506 ], [ 11.704390079329414, 57.160573903925012 ], [ 11.684167145033856, 57.173059618452662 ], [ 11.683976438942006, 57.173479326578708 ], [ 11.67646651498821, 57.189600873641822 ], [ 11.668949793995948, 57.205721863908622 ], [ 11.661430195947743, 57.221844648498674 ], [ 11.659040960871812, 57.226959006592558 ], [ 11.659035609933719, 57.226972348372939 ], [ 11.653899647817674, 57.237966764909778 ], [ 11.646366610913271, 57.254086190577034 ], [ 11.638822396367754, 57.270207187838047 ], [ 11.631275677005213, 57.286325493286427 ], [ 11.623721896364355, 57.302445479393846 ], [ 11.61616124847821, 57.318564903422363 ], [ 11.608589784264353, 57.334681410886311 ], [ 11.601015369335887, 57.350799708019103 ], [ 11.595821867308031, 57.361844533894306 ], [ 11.595816887651358, 57.361853388708319 ], [ 11.59343405576502, 57.366917440577872 ], [ 11.585845833047216, 57.3830346077279 ], [ 11.57609628875622, 57.393554980707052 ], [ 11.562302351834047, 57.408425397210323 ], [ 11.548497259797793, 57.423291905410984 ], [ 11.53468057617267, 57.438158986072288 ], [ 11.520852496085444, 57.453024394946013 ], [ 11.505144345764531, 57.464047068538584 ], [ 11.490124606573829, 57.474576927861264 ], [ 11.486335937045206, 57.477231229122253 ], [ 11.467509723153269, 57.490412287455619 ], [ 11.453551724956657, 57.500183487411412 ], [ 11.453560051960807, 57.500183721728476 ], [ 11.454428454418673, 57.500183432400938 ], [ 11.503768630117266, 57.500249278095936 ], [ 11.633831439201098, 57.500328953159219 ], [ 11.640711375245706, 57.500325969219027 ], [ 11.718216333476688, 57.50021476048331 ], [ 11.784453125686429, 57.500090290161175 ], [ 11.816516804698351, 57.554860443129002 ], [ 11.85516371045742, 57.557299196070154 ], [ 11.877205849766359, 57.558500515159167 ], [ 11.880073021393304, 57.55904781882812 ], [ 11.883710945978814, 57.560068002692617 ], [ 11.886564728590178, 57.561019299041781 ], [ 11.891967509789673, 57.561646835484147 ], [ 11.896685752024354, 57.560691098347185 ], [ 11.901102452711459, 57.560918728768662 ], [ 11.917341732582051, 57.562547842513098 ], [ 11.921117333159106, 57.562449012595017 ], [ 11.924643058912705, 57.56199119500527 ], [ 11.926642765133971, 57.561729818120597 ], [ 11.930418453964485, 57.561628466438812 ], [ 11.933749664842853, 57.561740907013004 ], [ 11.937930974005447, 57.561887370805721 ], [ 11.942244269908748, 57.562504275496003 ], [ 11.944401947737521, 57.563100316075101 ], [ 11.947868168770135, 57.563849310516943 ], [ 11.951369516477557, 57.564279979225418 ], [ 11.955574423368576, 57.56449832733869 ], [ 11.959581960274321, 57.564576959153527 ], [ 11.96403695968832, 57.564504443348575 ], [ 11.968089060655092, 57.564147957519793 ], [ 11.970920557373603, 57.564440647778703 ], [ 11.973214061687953, 57.564163116414448 ], [ 11.975954943014148, 57.563280586566179 ], [ 11.978755281051372, 57.563091497222068 ], [ 11.979819858363417, 57.563514695832183 ], [ 11.981036756299034, 57.563714582364888 ], [ 11.983747602228478, 57.563849055145546 ], [ 11.98786804596188, 57.564432811963997 ], [ 11.986777998940259, 57.563051857576745 ], [ 11.987752429898277, 57.561733666490554 ], [ 11.991218157219265, 57.560724304079429 ], [ 11.991746817258573, 57.559840359489037 ], [ 11.994495611956999, 57.557685833120637 ], [ 11.99796077027257, 57.556676279512395 ], [ 12.000179570307747, 57.555621282342145 ], [ 12.004227919843272, 57.553054787192423 ], [ 12.006514062228078, 57.551327190080251 ], [ 12.009372439336182, 57.548276169147229 ], [ 12.012647244415694, 57.545237196493474 ], [ 12.030559605535739, 57.549639388852292 ], [ 12.034701656965133, 57.54999744195068 ], [ 12.036808026864643, 57.549844698568549 ], [ 12.041800092616349, 57.550235957124329 ], [ 12.043357569880005, 57.551182472326531 ], [ 12.047321259739967, 57.551681978469496 ], [ 12.048727215746982, 57.550784636221906 ], [ 12.049191430831581, 57.549076584604848 ], [ 12.053596436195971, 57.549491843868346 ], [ 12.057321736661169, 57.549837172292584 ], [ 12.06058580603708, 57.550616538273395 ], [ 12.063987375157749, 57.550053108567866 ], [ 12.066856821295966, 57.550596188348045 ], [ 12.072266354531227, 57.550998184860553 ], [ 12.074000693314005, 57.550375571422961 ], [ 12.07726518080108, 57.551154509725585 ], [ 12.080134740925539, 57.551699532929796 ], [ 12.083882828194158, 57.551817659533143 ], [ 12.085918671080876, 57.552336539461244 ], [ 12.09118155408243, 57.553848794800459 ], [ 12.093660889638009, 57.554155325281279 ], [ 12.095064548498829, 57.555791929461961 ], [ 12.09326140056749, 57.557069340484162 ], [ 12.090862408071843, 57.557744305853952 ], [ 12.087715181179071, 57.558626653114736 ], [ 12.100399842758684, 57.561345366806968 ], [ 12.102351760739429, 57.558932097018207 ], [ 12.166089909528642, 57.565450468199309 ], [ 12.16935760304213, 57.566229295312716 ], [ 12.173722170544506, 57.564565580901203 ], [ 12.176177252350371, 57.565094609480113 ], [ 12.177257211965873, 57.566698284151748 ], [ 12.178771179987166, 57.568098200308945 ], [ 12.182955132345343, 57.568227589920397 ], [ 12.185853348822736, 57.568546124950885 ], [ 12.190764657198971, 57.569601427505688 ], [ 12.206740413164777, 57.572791400732577 ], [ 12.277229148560636, 57.596807700066002 ], [ 12.282217265303533, 57.591536455104851 ], [ 12.28353249907291, 57.590899719628958 ], [ 12.294489352410663, 57.586290988306104 ], [ 12.297160172984011, 57.584800189370128 ], [ 12.300744647394557, 57.58266159391988 ], [ 12.308126008076592, 57.580190508437525 ], [ 12.321928230456072, 57.572285766739618 ], [ 12.324225523460413, 57.570328167177799 ], [ 12.326893792543048, 57.568838958937761 ], [ 12.329165977762932, 57.567103166819685 ], [ 12.332226322668953, 57.565849062387258 ], [ 12.338416385936187, 57.562668091300694 ], [ 12.340667099705442, 57.561156319490721 ], [ 12.325044440432494, 57.546519156974604 ], [ 12.313670211384069, 57.523246359192861 ], [ 12.314211197814966, 57.522136760666946 ], [ 12.313477017904056, 57.521217941580566 ], [ 12.313948608135295, 57.519688974443326 ], [ 12.315102842521956, 57.518756440947854 ], [ 12.315702998022923, 57.517749199045248 ], [ 12.314439516586155, 57.51693145564245 ], [ 12.315916569700141, 57.515524988408217 ], [ 12.317206681253992, 57.511944188412244 ], [ 12.319979715400734, 57.50988223203835 ], [ 12.323035610694456, 57.508399137616877 ], [ 12.325732394655462, 57.506515180731292 ], [ 12.342113654870245, 57.491051355491699 ], [ 12.343151405065811, 57.489057923462958 ], [ 12.346270172965424, 57.487130771037485 ], [ 12.335043414063367, 57.474653805216995 ], [ 12.325384580377698, 57.464727601710997 ], [ 12.32310025901497, 57.462782854739565 ], [ 12.325319767661883, 57.459738469473756 ], [ 12.327106763290672, 57.458673237453681 ], [ 12.329433360012464, 57.456266883201238 ], [ 12.331220065234815, 57.455201589836058 ], [ 12.331779802028011, 57.453869896257949 ], [ 12.335539219877466, 57.453758474924662 ], [ 12.337453289404779, 57.451338764325037 ], [ 12.338387767658347, 57.450466555493215 ], [ 12.341755621994812, 57.450117514901379 ], [ 12.345115309809163, 57.449995132231507 ], [ 12.34966479137592, 57.450362764116562 ], [ 12.356228872238423, 57.451460012511298 ], [ 12.360363310753868, 57.451807311608903 ], [ 12.362606176564837, 57.450295059195327 ], [ 12.364725877354134, 57.449912535070105 ], [ 12.367343021046585, 57.448870851251506 ], [ 12.369463236413761, 57.44847927287536 ], [ 12.373674874107813, 57.448153738163974 ], [ 12.377001746920278, 57.448252247803424 ], [ 12.378782528846919, 57.447186177362163 ], [ 12.380172280812815, 57.445876049139358 ], [ 12.380277321100476, 57.444757129921847 ], [ 12.384532966867882, 57.44398281400359 ], [ 12.387605357342849, 57.442503078131942 ], [ 12.39102880744394, 57.441706795211601 ], [ 12.391773146017149, 57.438567850447953 ], [ 12.39554094733459, 57.437785319122845 ], [ 12.398581458441306, 57.437210082554657 ], [ 12.400324993870274, 57.436358633112285 ], [ 12.403376050612932, 57.435102754945476 ], [ 12.404348652612763, 57.433781528148373 ], [ 12.406192849003192, 57.432033401158137 ], [ 12.405150853153062, 57.429983183804751 ], [ 12.407410402239005, 57.42824809024264 ], [ 12.407986964365278, 57.426691770588064 ], [ 12.408607832401621, 57.424684776553214 ], [ 12.408078139767307, 57.421750939414501 ], [ 12.409033572565143, 57.42042932721602 ], [ 12.410937648970753, 57.41823303361938 ], [ 12.412679103883921, 57.417039886823517 ], [ 12.411462652543419, 57.416576785677549 ], [ 12.409568921208287, 57.41621207698978 ], [ 12.408422176863363, 57.415882934002163 ], [ 12.406882514763161, 57.415752385547783 ], [ 12.40546639784055, 57.41517053222438 ], [ 12.404889821167727, 57.414610459413531 ], [ 12.404986687472817, 57.413594704802158 ], [ 12.405711739750009, 57.412526739281127 ], [ 12.406211500525535, 57.412112409795775 ], [ 12.406829778105436, 57.411788140021237 ], [ 12.407824600562249, 57.411496332740064 ], [ 12.408595152378627, 57.411314483780572 ], [ 12.409667031628269, 57.411051208247514 ], [ 12.411036109063575, 57.410293023310224 ], [ 12.412779771794778, 57.408709000553571 ], [ 12.413213368504069, 57.407637252866408 ], [ 12.417074815056349, 57.406950402791594 ], [ 12.418505533727124, 57.405193630561953 ], [ 12.418729905589181, 57.402951547487035 ], [ 12.420296593819325, 57.399849534679632 ], [ 12.418384135129884, 57.398224174547117 ], [ 12.415497019335353, 57.397913310125666 ], [ 12.411783308713114, 57.397580894730645 ], [ 12.409835366828334, 57.396170351113888 ], [ 12.410512003288506, 57.393717403107196 ], [ 12.408579994392953, 57.392084741315315 ], [ 12.405922652417575, 57.389531683561827 ], [ 12.396759595915292, 57.381393678319178 ], [ 12.395700055639336, 57.379558666525192 ], [ 12.392940052801812, 57.365762885917164 ], [ 12.390104962312581, 57.356914958444513 ], [ 12.387322984149469, 57.351431386342284 ], [ 12.385946264586515, 57.348697732025137 ], [ 12.384416524145768, 57.347299925562787 ], [ 12.38434885817197, 57.343928430492191 ], [ 12.38697392420497, 57.34265966995023 ], [ 12.389417512246872, 57.341310701556651 ], [ 12.392852748842671, 57.340213658949033 ], [ 12.392457974351993, 57.338163205826909 ], [ 12.389205019884566, 57.337104917964908 ], [ 12.391044946747531, 57.335356953406674 ], [ 12.393319255975547, 57.333397788965108 ], [ 12.394784290450346, 57.33142407041835 ], [ 12.397058312022233, 57.329462590061674 ], [ 12.400180348476004, 57.327311907723157 ], [ 12.417242211532725, 57.319047365263202 ], [ 12.419520764557602, 57.321138651409242 ], [ 12.423091124703941, 57.322816018517848 ], [ 12.425987970089279, 57.322904557907258 ], [ 12.427307746144427, 57.322264297027182 ], [ 12.429825522009407, 57.317849347485677 ], [ 12.432196599666788, 57.314992811969397 ], [ 12.430603834505037, 57.314135733449227 ], [ 12.428670345865449, 57.312867259429183 ], [ 12.426361171015916, 57.310382336958121 ], [ 12.424555401104019, 57.308954646604107 ], [ 12.420869869530044, 57.306924453251746 ], [ 12.425316735384607, 57.304894716294449 ], [ 12.425205629555823, 57.301971721340379 ], [ 12.425480883489557, 57.295005823058524 ], [ 12.425245795242098, 57.293203639592846 ], [ 12.427061335642072, 57.291688343432043 ], [ 12.426767533977483, 57.290547740095661 ], [ 12.425647994321631, 57.289170046413304 ], [ 12.425951024663412, 57.28625777555505 ], [ 12.428634519512572, 57.284308646347235 ], [ 12.430074932898858, 57.282334046716947 ], [ 12.429964091801297, 57.279402069819113 ], [ 12.429891192448647, 57.277472900842497 ], [ 12.430989390388202, 57.269094903941792 ], [ 12.45094921393696, 57.273053482258213 ], [ 12.450849891001079, 57.273950146016325 ], [ 12.452698104453658, 57.276254544680896 ], [ 12.454685526013856, 57.277206976712719 ], [ 12.455608715976727, 57.279216243234885 ], [ 12.460113828658713, 57.278370514781841 ], [ 12.461360442854129, 57.276953332375193 ], [ 12.462807883409729, 57.275630061293619 ], [ 12.481507288519023, 57.278888733062736 ], [ 12.483889638334629, 57.280084507143826 ], [ 12.48544678501551, 57.281034564051154 ], [ 12.488164670210415, 57.282910967369773 ], [ 12.488270871241205, 57.282996216750426 ], [ 12.491279065717727, 57.285365876926875 ], [ 12.494881154206201, 57.2868171813804 ], [ 12.498705375416762, 57.285794735511779 ], [ 12.498966662858658, 57.283106191163142 ], [ 12.503637233125417, 57.281891502636704 ], [ 12.506610543739816, 57.281294508826356 ], [ 12.512989471393569, 57.288443938941967 ], [ 12.522444447238994, 57.298145201187545 ], [ 12.526010593421296, 57.300044200541663 ], [ 12.531037028912225, 57.304002737490912 ], [ 12.53249711100599, 57.30606235754864 ], [ 12.532184654458787, 57.309423921235059 ], [ 12.534003722216683, 57.313690011887815 ], [ 12.53497054778393, 57.315620848288177 ], [ 12.537351976965976, 57.317635554223045 ], [ 12.537802418964803, 57.319095693061612 ], [ 12.542415019267676, 57.320041889145209 ], [ 12.552242876008734, 57.321437763148758 ], [ 12.556798389934773, 57.321564547147617 ], [ 12.559558953046036, 57.323208748329463 ], [ 12.560154696706942, 57.330196012861457 ], [ 12.565168766232048, 57.329875315919736 ], [ 12.570079027261135, 57.330684698662196 ], [ 12.573730564304087, 57.331687530750941 ], [ 12.577341042166253, 57.33312754855703 ], [ 12.579690359982292, 57.334545444021899 ], [ 12.584507306613586, 57.336473501883901 ], [ 12.586447060458356, 57.337872166367667 ], [ 12.591260649562676, 57.33979989129697 ], [ 12.592706650684757, 57.342083135676404 ], [ 12.596001546471424, 57.342402255481439 ], [ 12.600997635351156, 57.342313414617472 ], [ 12.602950775493662, 57.343712068158283 ], [ 12.603717716381681, 57.345461030411279 ], [ 12.604319633494457, 57.346427285524669 ], [ 12.608937694753134, 57.346344403364135 ], [ 12.614025746331627, 57.345358162718803 ], [ 12.617045968553477, 57.344087691646841 ], [ 12.621664708982557, 57.34353932137352 ], [ 12.625568108344591, 57.341840526600286 ], [ 12.625721204437994, 57.340048419262097 ], [ 12.62399307484953, 57.336185410876432 ], [ 12.622942036921772, 57.33412792471983 ], [ 12.623118013673686, 57.33211159419433 ], [ 12.628131282415291, 57.331797360492772 ], [ 12.631878097379094, 57.331668018573104 ], [ 12.635609891529837, 57.331771924162119 ], [ 12.641105669983526, 57.330796773317267 ], [ 12.644971714963617, 57.329321352089018 ], [ 12.647115938768199, 57.333203071862002 ], [ 12.649052030274065, 57.334823085448015 ], [ 12.65347809959159, 57.336291846400357 ], [ 12.654546937070105, 57.338358375169065 ], [ 12.652421292478909, 57.338725346249845 ], [ 12.651058171102898, 57.338926799912912 ], [ 12.65100287275984, 57.33959748211263 ], [ 12.652250624559004, 57.340357639919198 ], [ 12.65384933019676, 57.34030659170876 ], [ 12.657164023286548, 57.34155903180271 ], [ 12.662155761954113, 57.34146768286633 ], [ 12.667248123090081, 57.340247999167211 ], [ 12.670337233799213, 57.33831257823438 ], [ 12.670510782563396, 57.336293919405378 ], [ 12.672451485912271, 57.333198189182596 ], [ 12.674336859056503, 57.330775365668764 ], [ 12.677294875680772, 57.330174041250061 ], [ 12.681852014053804, 57.330296306538102 ], [ 12.686372668150916, 57.330867038569316 ], [ 12.691713007965198, 57.333470020491973 ], [ 12.692337178271842, 57.331333807479197 ], [ 12.69338577714664, 57.329382850484429 ], [ 12.698257181231975, 57.328065778957779 ], [ 12.701330131163154, 57.326079903210889 ], [ 12.703961137820247, 57.324582365847448 ], [ 12.706656857002889, 57.322176120600524 ], [ 12.707692022509669, 57.319957473662726 ], [ 12.706730952139095, 57.316788101871303 ], [ 12.704001054256604, 57.314689470818529 ], [ 12.70586110809985, 57.312490389826053 ], [ 12.709213028709636, 57.312131403781976 ], [ 12.71275282363343, 57.309749398667655 ], [ 12.72813019527813, 57.304753410663821 ], [ 12.731998353048159, 57.303612387470864 ], [ 12.73625800170033, 57.302040231212899 ], [ 12.740040908493075, 57.301468039309441 ], [ 12.741163534158581, 57.298118478964781 ], [ 12.741729435075786, 57.296333699626196 ], [ 12.742401196203003, 57.293429819882824 ], [ 12.742295699742151, 57.290817501408505 ], [ 12.742957855726869, 57.289490483374188 ], [ 12.744712371811792, 57.286990179522157 ], [ 12.745865067076606, 57.285101339174339 ], [ 12.747329606320481, 57.283402290956438 ], [ 12.748975300912994, 57.28158740740124 ], [ 12.749817091795043, 57.280708378315346 ], [ 12.756876308634279, 57.274924061588536 ], [ 12.760078273110656, 57.273554655776451 ], [ 12.76387077192631, 57.273795176983207 ], [ 12.769308295506821, 57.275019548519786 ], [ 12.772893128529814, 57.276916255564174 ], [ 12.775870918854601, 57.276299541280977 ], [ 12.778194851669388, 57.27772222982648 ], [ 12.779644919599527, 57.280227962520875 ], [ 12.779861967115478, 57.282478268234073 ], [ 12.779660495929731, 57.284721180040833 ], [ 12.80937925594127, 57.300985768446232 ], [ 12.817554103435235, 57.292876756478911 ], [ 12.821284910614564, 57.288024009592 ], [ 12.827691867348817, 57.278216860524275 ], [ 12.83500835109327, 57.269950412919883 ], [ 12.84198105129485, 57.268992059727765 ], [ 12.858365009525453, 57.266475555932459 ], [ 12.86142948466804, 57.265896502410719 ], [ 12.862630100577743, 57.267644430779121 ], [ 12.862800449773664, 57.268640247604139 ], [ 12.869450411917855, 57.267652425512686 ], [ 12.873984058985553, 57.267983056324475 ], [ 12.877616813375443, 57.269199122506002 ], [ 12.880701207634896, 57.270003726557768 ], [ 12.881487806926645, 57.271180631224496 ], [ 12.887836981045169, 57.271026922087877 ], [ 12.893271389696769, 57.270480164484908 ], [ 12.897082593376565, 57.2694544938064 ], [ 12.900948639444479, 57.267971359707836 ], [ 12.905393989558114, 57.269204677297758 ], [ 12.908634659454695, 57.270188659513224 ], [ 12.916796354908074, 57.266790648126957 ], [ 12.923643607532757, 57.264253236860377 ], [ 12.927796275857466, 57.264133091015736 ], [ 12.931538981880122, 57.264003813908708 ], [ 12.934625218537295, 57.261603775868721 ], [ 12.929614984507614, 57.257212750748778 ], [ 12.930635148523651, 57.254765270457604 ], [ 12.931353905447908, 57.253182171891645 ], [ 12.931238199454077, 57.249774741909931 ], [ 12.93233752651696, 57.248941459046875 ], [ 12.936706775648025, 57.251735915402399 ], [ 12.941341460547426, 57.249709332890767 ], [ 12.94487250356068, 57.247920621071209 ], [ 12.949011308984124, 57.248015217485857 ], [ 12.952008089353297, 57.246734252678593 ], [ 12.953423108529888, 57.244755791394176 ], [ 12.953900844412042, 57.243462921243172 ], [ 12.95366755725029, 57.241691221580169 ], [ 12.952632049152159, 57.239742461799935 ], [ 12.950685129210898, 57.237720418997128 ], [ 12.938872865998176, 57.230237603861596 ], [ 12.937338882681241, 57.22863095931789 ], [ 12.934518236066156, 57.227668071424922 ], [ 12.930403109513989, 57.227339739761611 ], [ 12.925803301797169, 57.22789958127553 ], [ 12.923624414396441, 57.226872912050084 ], [ 12.920702939394152, 57.223809901285748 ], [ 12.918747624866413, 57.223011485436587 ], [ 12.916530489435546, 57.219807285759963 ], [ 12.916271932218299, 57.21800362305202 ], [ 12.92033838654446, 57.203723235958989 ], [ 12.919604896268691, 57.197632293974692 ], [ 12.917629579503, 57.194935292986571 ], [ 12.915188299582248, 57.19103991726287 ], [ 12.914949820738912, 57.190058764277403 ], [ 12.915049568514451, 57.188141980884609 ], [ 12.914876101295286, 57.186961975955455 ], [ 12.914125761943911, 57.18640138103212 ], [ 12.911207055118213, 57.183944673080333 ], [ 12.911691294612337, 57.183281052184611 ], [ 12.912727278665809, 57.180609321618697 ], [ 12.914534491646101, 57.17885571053727 ], [ 12.917547175924494, 57.177360206686103 ], [ 12.92308839708474, 57.175466212451383 ], [ 12.926818007859096, 57.175336944315092 ], [ 12.930552229158172, 57.175198655923055 ], [ 12.93903033064867, 57.174911377262099 ], [ 12.938938807891409, 57.176109455672474 ], [ 12.939746654285564, 57.176531568361121 ], [ 12.94183327202126, 57.176866829262686 ], [ 12.943467199000942, 57.177533843808874 ], [ 12.944908288274849, 57.178024705377446 ], [ 12.948286640915855, 57.17804179936833 ], [ 12.949473637254771, 57.17767032782794 ], [ 12.950464708513445, 57.177176586110804 ], [ 12.951745649809014, 57.176975107883713 ], [ 12.953855644744793, 57.176964603713593 ], [ 12.954754219017804, 57.177619476269221 ], [ 12.956523208973145, 57.177942574339113 ], [ 12.958488829892207, 57.17845080431929 ], [ 12.960874475656674, 57.177642702810218 ], [ 12.965462825478513, 57.178069863305687 ], [ 12.969077569115006, 57.179507701326891 ], [ 12.971363179207097, 57.181804536846322 ], [ 12.974152136678757, 57.18322437799376 ], [ 12.978365775547262, 57.182196092075145 ], [ 12.981393088314272, 57.180692574173435 ], [ 12.985622101280029, 57.179448643634011 ], [ 12.988064093565676, 57.179952819534172 ], [ 12.989646688610989, 57.180896950886563 ], [ 12.993070064107499, 57.179401746947981 ], [ 12.996063377538785, 57.178128714943959 ], [ 13.000689124282221, 57.177335400039134 ], [ 13.004353890261992, 57.178099095741047 ], [ 13.00712367292495, 57.17950890500336 ], [ 13.010290492613423, 57.18138545142321 ], [ 13.01397252176992, 57.181915512126629 ], [ 13.017771275228702, 57.180886086750505 ], [ 13.021934601647686, 57.180538449295675 ], [ 13.024842704515532, 57.180379835604974 ], [ 13.029880497142761, 57.17937628230375 ], [ 13.03452565742227, 57.179062749309942 ], [ 13.038118586517369, 57.179792876424067 ], [ 13.039924107636748, 57.178035242297533 ], [ 13.039230114284905, 57.176222827629473 ], [ 13.034309492772524, 57.175656138825971 ], [ 13.032239817112561, 57.174832983638744 ], [ 13.030922768554026, 57.174634861199699 ], [ 13.030161085570962, 57.174103998166942 ], [ 13.029018947152391, 57.172951652944803 ], [ 13.028240339205874, 57.172040877211352 ], [ 13.027635975102482, 57.171896597160369 ], [ 13.026656866221181, 57.171800333754383 ], [ 13.026290667031784, 57.171610372596298 ], [ 13.026292908702976, 57.170947731864047 ], [ 13.026105120861839, 57.16973848266089 ], [ 13.025721984593156, 57.169168618242772 ], [ 13.024551335626256, 57.168478530661979 ], [ 13.024395770619527, 57.167984128140787 ], [ 13.023242974267246, 57.167038223466342 ], [ 13.022785613717197, 57.166233558007818 ], [ 13.023050832750442, 57.165215642248342 ], [ 13.023203351371839, 57.164449789266278 ], [ 13.02187162981182, 57.163373008096663 ], [ 13.021583754879087, 57.162802384934508 ], [ 13.022099802031125, 57.162197264240888 ], [ 13.022377498109082, 57.161642297238771 ], [ 13.02214315280869, 57.160998388942019 ], [ 13.021080303330846, 57.160076342640025 ], [ 13.020552822778152, 57.159580559441295 ], [ 13.0204699273185, 57.15881099413302 ], [ 13.021530643480256, 57.157837079762153 ], [ 13.023804597541597, 57.156978868958049 ], [ 13.02685969690903, 57.155034435010748 ], [ 13.044965881370693, 57.15446431243361 ], [ 13.050779347864861, 57.150423740402957 ], [ 13.050963364819269, 57.148182493539764 ], [ 13.052632099140494, 57.146705602916526 ], [ 13.055652343482549, 57.147821721449404 ], [ 13.057396726850541, 57.147105208142982 ], [ 13.058109622314294, 57.146750092313063 ], [ 13.05859380556458, 57.146737370445038 ], [ 13.05910809884227, 57.146859893583176 ], [ 13.0616081059856, 57.147417460486139 ], [ 13.06373949785357, 57.147991750527694 ], [ 13.065107469120498, 57.148545244193556 ], [ 13.066431960584243, 57.149140732823483 ], [ 13.071018415828251, 57.150907337760216 ], [ 13.072031746951561, 57.151369938610856 ], [ 13.073759848622966, 57.154143760296726 ], [ 13.073997009117086, 57.155306512383945 ], [ 13.075221153709405, 57.156169923950927 ], [ 13.077080736326797, 57.157216032618919 ], [ 13.077939186365725, 57.157083176424784 ], [ 13.078698960686665, 57.157099307635562 ], [ 13.07954663944685, 57.157094316618029 ], [ 13.080736208636496, 57.156793542211545 ], [ 13.083439616069011, 57.156235102216392 ], [ 13.084599280707829, 57.156351652560531 ], [ 13.085388979524863, 57.156588340749721 ], [ 13.087211044651946, 57.157566333897293 ], [ 13.088663377086258, 57.158100632838064 ], [ 13.089502201994534, 57.158187538929099 ], [ 13.092420615932447, 57.158510493874282 ], [ 13.09371288718966, 57.15902432875923 ], [ 13.095486701450124, 57.159017574697536 ], [ 13.096713246379295, 57.158800324776116 ], [ 13.097057336521202, 57.157976650757995 ], [ 13.097006508009155, 57.157517629448613 ], [ 13.096985326946763, 57.156883844449922 ], [ 13.096768482385452, 57.154184963846461 ], [ 13.095298342887482, 57.151907337635329 ], [ 13.0958916761855, 57.149449877561914 ], [ 13.100759539923875, 57.145511738853955 ], [ 13.092092643756915, 57.139914876424612 ], [ 13.08932158342949, 57.138284531590209 ], [ 13.085035346747262, 57.135038341745698 ], [ 13.083054821127966, 57.133871435086981 ], [ 13.082262186953065, 57.133621204056439 ], [ 13.080812836641613, 57.130894435650028 ], [ 13.080764453536908, 57.130552251100994 ], [ 13.080165675558369, 57.128633693554839 ], [ 13.077741984744783, 57.127897948721412 ], [ 13.077423834102801, 57.126704754376384 ], [ 13.077633083918695, 57.125456748140863 ], [ 13.080489266778249, 57.125015294995727 ], [ 13.08208082342534, 57.125306964716458 ], [ 13.084491450456323, 57.126294017386726 ], [ 13.092259774888626, 57.128878928552616 ], [ 13.096236394890933, 57.128901178082906 ], [ 13.098597973430651, 57.128197966225315 ], [ 13.097400648427016, 57.126416432136971 ], [ 13.096455086820949, 57.125928104243691 ], [ 13.095203969047352, 57.125679978181559 ], [ 13.094352238726566, 57.125536748876733 ], [ 13.093621634525793, 57.12520666305624 ], [ 13.09377056551941, 57.124800093944408 ], [ 13.093921710299989, 57.12427000975989 ], [ 13.093183722652055, 57.124164442613903 ], [ 13.092142488607646, 57.124173313154493 ], [ 13.090825597006141, 57.124081385447759 ], [ 13.090564500172754, 57.123697778212758 ], [ 13.090361067501759, 57.123317294972395 ], [ 13.09034155816579, 57.122813817744785 ], [ 13.091143343627751, 57.1220802423028 ], [ 13.092197480117141, 57.121096665706858 ], [ 13.092650956362489, 57.120389229293011 ], [ 13.092737981830931, 57.119981719419059 ], [ 13.092373561334428, 57.119439300019181 ], [ 13.084557451924804, 57.112778774263518 ], [ 13.088178434546267, 57.110614659914638 ], [ 13.089152546787023, 57.108614541166801 ], [ 13.089777708364013, 57.1059329480088 ], [ 13.087881472182564, 57.103637472240045 ], [ 13.085129886117423, 57.102005051350346 ], [ 13.080035181178523, 57.098517150622229 ], [ 13.083168966713114, 57.095215806906673 ], [ 13.085804072436655, 57.093252336919349 ], [ 13.088980145588428, 57.089511214983006 ], [ 13.089589763185069, 57.087045030891751 ], [ 13.085998551395836, 57.085395318680725 ], [ 13.083387218994819, 57.084670266235591 ], [ 13.083260984131018, 57.083358709790005 ], [ 13.085636032184306, 57.079540271831434 ], [ 13.089504745085961, 57.077386662136739 ], [ 13.092883241046435, 57.076337420150438 ], [ 13.095088948914894, 57.074587371440067 ], [ 13.096834272369188, 57.073286301962909 ], [ 13.099698480865589, 57.073572384782203 ], [ 13.100271336684512, 57.071563849650197 ], [ 13.102098711699769, 57.06913403898195 ], [ 13.105538810109836, 57.067420477975041 ], [ 13.108154374864924, 57.065454015952426 ], [ 13.111924496082862, 57.064861702356943 ], [ 13.116315311843698, 57.063654127536516 ], [ 13.116110070533884, 57.062822139663965 ], [ 13.115450524958833, 57.062086649089935 ], [ 13.11443213866662, 57.061435607452971 ], [ 13.114310963013828, 57.060654300962298 ], [ 13.114436816270107, 57.060123811280434 ], [ 13.114727295526945, 57.059842897562497 ], [ 13.115533809018677, 57.059711267694766 ], [ 13.117765063041274, 57.059614528283248 ], [ 13.118934519426276, 57.059398476232538 ], [ 13.11959075004833, 57.058977031336106 ], [ 13.12017531839393, 57.058260236479079 ], [ 13.120489599610231, 57.057588803068803 ], [ 13.120466082060689, 57.056667448764735 ], [ 13.120426193851866, 57.055988453953226 ], [ 13.120406797283898, 57.055067161246157 ], [ 13.121503574575065, 57.054654563705064 ], [ 13.121370553750566, 57.054023591873481 ], [ 13.12098151542591, 57.053238273950889 ], [ 13.120145037219798, 57.052497905481765 ], [ 13.119059205579124, 57.051553861495485 ], [ 13.117878159816227, 57.050700476914791 ], [ 13.1169397981541, 57.050102320893238 ], [ 13.11643422928516, 57.049748780477159 ], [ 13.116368905892973, 57.049410845583452 ], [ 13.116596688290224, 57.048738120119481 ], [ 13.116727351365151, 57.0481111071595 ], [ 13.115620559785965, 57.047503668276761 ], [ 13.114941110119977, 57.047003738315716 ], [ 13.114915228948348, 57.046131764465365 ], [ 13.115005129120817, 57.044926826927522 ], [ 13.114816412640661, 57.043852476255502 ], [ 13.114888406867133, 57.042838208821578 ], [ 13.114266383718624, 57.04161356648639 ], [ 13.11544220217074, 57.04044743984111 ], [ 13.118940867056205, 57.037835872874027 ], [ 13.121522610688217, 57.036320156063518 ], [ 13.122704166941318, 57.035522451359611 ], [ 13.120729716132788, 57.034560596598162 ], [ 13.118687892645092, 57.033303425068233 ], [ 13.121236154774031, 57.02934318059544 ], [ 13.122206274741529, 57.027342755856409 ], [ 13.122334912735212, 57.025772237589599 ], [ 13.127613739079415, 57.026792520952455 ], [ 13.130426937291926, 57.027535424252186 ], [ 13.133653313279845, 57.028502318999038 ], [ 13.1342477844935, 57.031435922591335 ], [ 13.13636151302431, 57.034392143493349 ], [ 13.138380005144148, 57.035304983564671 ], [ 13.14240227478294, 57.036770930458061 ], [ 13.144300393592969, 57.037376384476488 ], [ 13.144958944302008, 57.037390635187649 ], [ 13.145770561421319, 57.036731001387516 ], [ 13.146976788518591, 57.036337778146667 ], [ 13.148395000548767, 57.036403684856822 ], [ 13.149639006024563, 57.036907283134653 ], [ 13.150393120925644, 57.037071175640072 ], [ 13.152089792352477, 57.037089487423401 ], [ 13.154108609845458, 57.037507880354411 ], [ 13.155246675911503, 57.037574071482666 ], [ 13.156188999158569, 57.037516068107301 ], [ 13.158318531900246, 57.038279711452589 ], [ 13.160270554184027, 57.039135055737773 ], [ 13.161505719710256, 57.039822602860909 ], [ 13.163070513597068, 57.040762069298061 ], [ 13.165631349801139, 57.041309524870272 ], [ 13.167185669316108, 57.042381318021818 ], [ 13.169040793746897, 57.043120540738997 ], [ 13.173148536396397, 57.044901215269483 ], [ 13.176407911758279, 57.046424551935786 ], [ 13.178493485086697, 57.047852113300813 ], [ 13.179505224785085, 57.048232974094205 ], [ 13.181926626488654, 57.048865668781247 ], [ 13.183886379403928, 57.049078300492802 ], [ 13.185479779765407, 57.049112627887475 ], [ 13.186300224758531, 57.048769594512287 ], [ 13.188546158555946, 57.048945863580435 ], [ 13.189292293207627, 57.048689342191871 ], [ 13.190126672410273, 57.048651983957186 ], [ 13.193785179153137, 57.049446082795377 ], [ 13.195855933533437, 57.050091418332052 ], [ 13.196573136669715, 57.050771147469312 ], [ 13.197545289119777, 57.052229517440225 ], [ 13.198674590728588, 57.052912917270753 ], [ 13.200964927931532, 57.05345574717316 ], [ 13.201701355852581, 57.054337888786357 ], [ 13.202654869830987, 57.054567220385614 ], [ 13.204258282586881, 57.054484642615286 ], [ 13.205346351844421, 57.054830444005091 ], [ 13.206218529794253, 57.055721241654794 ], [ 13.205232622276716, 57.057528869011023 ], [ 13.200751858283963, 57.056752507518794 ], [ 13.1970945350871, 57.056001317160387 ], [ 13.192913313112728, 57.054921239127943 ], [ 13.190827437066662, 57.057209318419268 ], [ 13.187949124344836, 57.057140755990872 ], [ 13.183547063993656, 57.055351826965278 ], [ 13.182359481948646, 57.054768527603258 ], [ 13.176705093830449, 57.052974650202557 ], [ 13.173362527144102, 57.051203019248469 ], [ 13.169384921259681, 57.049527592401155 ], [ 13.166237666041837, 57.049910597776282 ], [ 13.163624983128447, 57.051653651293222 ], [ 13.168481774962348, 57.052886117210754 ], [ 13.17405097947343, 57.055483309404345 ], [ 13.181044458875794, 57.066652646644577 ], [ 13.184019853783486, 57.065592875440466 ], [ 13.188003611604698, 57.063044844499913 ], [ 13.191985444575529, 57.063747068063556 ], [ 13.192223745335951, 57.066223689427538 ], [ 13.195007178619571, 57.067411685920717 ], [ 13.196957737898428, 57.069025663591681 ], [ 13.200486363285687, 57.071354145810623 ], [ 13.203766972871399, 57.071655055053284 ], [ 13.208245903577877, 57.072422280145318 ], [ 13.211452055620232, 57.073845068396146 ], [ 13.216909312021917, 57.075549166830569 ], [ 13.221188439496208, 57.075852590116476 ], [ 13.225667817654378, 57.076628176119549 ], [ 13.230200068220237, 57.076730462416762 ], [ 13.233384828961078, 57.078368019188709 ], [ 13.22988582719306, 57.08098946660531 ], [ 13.224330096437125, 57.083561475413141 ], [ 13.227333928075618, 57.085452693887518 ], [ 13.229241934939212, 57.084978749148121 ], [ 13.231344275824053, 57.087007627224033 ], [ 13.233397417066218, 57.089381700639869 ], [ 13.23156107684229, 57.091813228563943 ], [ 13.228979768984047, 57.093333448687304 ], [ 13.228030884853064, 57.09488569221061 ], [ 13.226035168770057, 57.094161114184423 ], [ 13.224261557644111, 57.095697161796195 ], [ 13.228271855532826, 57.09736000370669 ], [ 13.233612236913356, 57.097704932498715 ], [ 13.254435846132042, 57.089388979300445 ], [ 13.259348574633703, 57.089946995541879 ], [ 13.267476193856009, 57.091468022519578 ], [ 13.271138038764258, 57.092226161277608 ], [ 13.274107365722516, 57.092172743871913 ], [ 13.274082292544165, 57.093156258636512 ], [ 13.275356323650191, 57.094422714328452 ], [ 13.275804046540191, 57.094911819054779 ], [ 13.276036615538432, 57.095591140685642 ], [ 13.277123395020995, 57.096093521280544 ], [ 13.278807277009969, 57.096624309510204 ], [ 13.279912872457727, 57.097434660133437 ], [ 13.280609121554953, 57.097817090755107 ], [ 13.282326928578296, 57.098420175899015 ], [ 13.283967567694265, 57.098997471803074 ], [ 13.285216344738171, 57.099481781808691 ], [ 13.285808140980386, 57.100251354535267 ], [ 13.286116185455851, 57.100999074768801 ], [ 13.288013084695113, 57.101930234081031 ], [ 13.288526308184055, 57.102615608701768 ], [ 13.289537984427572, 57.103053957840643 ], [ 13.291001935761644, 57.102993060581014 ], [ 13.293950461266554, 57.102152697786586 ], [ 13.300084036464295, 57.102959316655181 ], [ 13.304129318855757, 57.10394629875838 ], [ 13.306691869537957, 57.102875791994194 ], [ 13.310478638118852, 57.101837463995111 ], [ 13.314598151486589, 57.101919875613262 ], [ 13.318717380720051, 57.102008886557009 ], [ 13.322396009849825, 57.102532127064258 ], [ 13.324794474645749, 57.103712025728292 ], [ 13.328840510487755, 57.10469821439046 ], [ 13.329701908555876, 57.105093799475426 ], [ 13.332444481450333, 57.10634102690824 ], [ 13.335341023697161, 57.106184102314529 ], [ 13.343049838034094, 57.108725623875657 ], [ 13.349864273923529, 57.110978609251468 ], [ 13.352173162964542, 57.113277652478644 ], [ 13.355060619617664, 57.113335785637915 ], [ 13.360432757768262, 57.11322421102976 ], [ 13.364113105867938, 57.11374623568917 ], [ 13.368219797723455, 57.114058065424089 ], [ 13.37156142106323, 57.113459098101039 ], [ 13.375758833606518, 57.112642019672805 ], [ 13.378705755441464, 57.111810883327557 ], [ 13.382872416363995, 57.111217791270008 ], [ 13.385881624011709, 57.111036442562529 ], [ 13.386573887676851, 57.113345458737086 ], [ 13.42116264759257, 57.112678428694288 ], [ 13.425709474511216, 57.112549170643369 ], [ 13.429906772930181, 57.111507915537381 ], [ 13.436574407861766, 57.110519813268816 ], [ 13.440756158510924, 57.109933977751218 ], [ 13.44251859326927, 57.108170177333875 ], [ 13.444723268883779, 57.106191715179122 ], [ 13.451004093856648, 57.104746574576083 ], [ 13.454814401123068, 57.103245987076555 ], [ 13.453709647413135, 57.10142869020347 ], [ 13.453010250256376, 57.099394014597948 ], [ 13.453568571269997, 57.097383841640386 ], [ 13.457674628963241, 57.097683756445065 ], [ 13.460235120425494, 57.098335178086103 ], [ 13.460559327185063, 57.098777163018617 ], [ 13.461163784233198, 57.099029417300379 ], [ 13.462388747528843, 57.099246604346362 ], [ 13.463265338731173, 57.099405600954206 ], [ 13.464069803342008, 57.100410512412047 ], [ 13.46728064229316, 57.100811445548729 ], [ 13.467766389411977, 57.101241908986289 ], [ 13.469722872058986, 57.104641791187881 ], [ 13.471296037312083, 57.10713400845983 ], [ 13.471927299922735, 57.107642598202041 ], [ 13.474313992540925, 57.108226467497538 ], [ 13.475192162868757, 57.108252874449036 ], [ 13.476125408608411, 57.108848222792126 ], [ 13.479930019269528, 57.110495919443935 ], [ 13.483152162432152, 57.111453621413908 ], [ 13.488426716969553, 57.112907692037581 ], [ 13.492622057626109, 57.11187106418685 ], [ 13.495399019851146, 57.111091314034212 ], [ 13.497738285254558, 57.109495399540762 ], [ 13.499970635597073, 57.107067088205135 ], [ 13.498873459120233, 57.104801067516291 ], [ 13.497775581283021, 57.102759642246333 ], [ 13.497051441450429, 57.101174163968246 ], [ 13.497603285077421, 57.099163734372056 ], [ 13.496650508521933, 57.094868896339612 ], [ 13.497615439585282, 57.092641049948412 ], [ 13.498623487090159, 57.089445619794397 ], [ 13.496746629161265, 57.089027799192927 ], [ 13.495475733254425, 57.08862396428912 ], [ 13.495005016446569, 57.088124158152354 ], [ 13.494456784954215, 57.087297726106989 ], [ 13.493691387366823, 57.086740466621045 ], [ 13.492904650939234, 57.086506392517023 ], [ 13.490635893484601, 57.085991672813229 ], [ 13.501778890811769, 57.073405389039806 ], [ 13.504206494333571, 57.073544453932954 ], [ 13.504475630412195, 57.075670285672324 ], [ 13.505112449422752, 57.078294657173394 ], [ 13.50385109482262, 57.08093905290238 ], [ 13.505117790501004, 57.083083524592062 ], [ 13.506184660041587, 57.08517393856895 ], [ 13.510848566498545, 57.085941473348704 ], [ 13.528496994488599, 57.087405525636697 ], [ 13.531342395188425, 57.085767771000221 ], [ 13.533447649489142, 57.084062894270232 ], [ 13.535420061546798, 57.082374399771105 ], [ 13.533500530781719, 57.080319192179026 ], [ 13.534393946746333, 57.079211064484383 ], [ 13.538828619405084, 57.08087333513172 ], [ 13.547175351213552, 57.079236358783994 ], [ 13.573691207499996, 57.069821957814717 ], [ 13.570538246065857, 57.067420848729562 ], [ 13.571197309521317, 57.06486328183567 ], [ 13.573749556495139, 57.063571635918997 ], [ 13.577096536451073, 57.062731455746075 ], [ 13.580761998192814, 57.063480563684834 ], [ 13.584347900708153, 57.065565110927501 ], [ 13.586445701448021, 57.064937419532093 ], [ 13.597216990855891, 57.06401403510413 ], [ 13.600550497065356, 57.063408923559777 ], [ 13.602731636223488, 57.061649847012873 ], [ 13.603609903522162, 57.060767928655963 ], [ 13.605324655371044, 57.059675199344838 ], [ 13.606191164201331, 57.052503987375815 ], [ 13.606011912946723, 57.052117905449066 ], [ 13.602423768306215, 57.048888423967703 ], [ 13.603250964872872, 57.047053580571934 ], [ 13.605813745613787, 57.045527813328924 ], [ 13.608787882171898, 57.044015549039621 ], [ 13.608538350451633, 57.041542037707565 ], [ 13.605739658132107, 57.040136281999146 ], [ 13.593323303078751, 57.034734745228967 ], [ 13.587694459837078, 57.032380329916599 ], [ 13.592306453662673, 57.031338391511923 ], [ 13.59441477794685, 57.030486081514169 ], [ 13.602128874409626, 57.025691584057334 ], [ 13.603426318687081, 57.024591979326104 ], [ 13.59928336066606, 57.018669804840712 ], [ 13.596607818143214, 57.015470538444383 ], [ 13.601069167253817, 57.009934320930846 ], [ 13.603217513455878, 57.008635334402193 ], [ 13.606218177422159, 57.006667470643876 ], [ 13.608749010149497, 57.005588278653896 ], [ 13.611324812615317, 57.004071538120044 ], [ 13.613896829181153, 57.002318859116329 ], [ 13.615678947717305, 57.000328288296693 ], [ 13.618221429733534, 56.99902666942792 ], [ 13.620784054726956, 56.997731960165616 ], [ 13.627517374509466, 56.995155539795093 ], [ 13.628887159317854, 56.993158016706978 ], [ 13.62782657172335, 56.990444290174644 ], [ 13.630956147882847, 56.986457981847821 ], [ 13.635063509611015, 56.986536543009457 ], [ 13.639553246283931, 56.986848232547423 ], [ 13.647707012010912, 56.988122568982561 ], [ 13.649087700038988, 56.985900335808985 ], [ 13.652425605208322, 56.985069320113162 ], [ 13.655763767306356, 56.984226988302936 ], [ 13.660282037902526, 56.984313628593654 ], [ 13.665704204680898, 56.983284438471713 ], [ 13.681197385039127, 56.972114757363194 ], [ 13.691043164283515, 56.965551669338439 ], [ 13.69404805853444, 56.963581781049832 ], [ 13.693353997418214, 56.961326164814764 ], [ 13.689756494792391, 56.946210286653042 ], [ 13.686144753608042, 56.945017883046383 ], [ 13.682564996669466, 56.942925011226855 ], [ 13.682641179202419, 56.941580380062661 ], [ 13.686940326329204, 56.938519195331466 ], [ 13.689544648581935, 56.936316106327418 ], [ 13.68801818248866, 56.934269594435683 ], [ 13.686919228725882, 56.932220814313979 ], [ 13.688407373524253, 56.92798000779009 ], [ 13.688539867886476, 56.925959875110372 ], [ 13.667903712462733, 56.920867562123775 ], [ 13.662644156399217, 56.912898222091648 ], [ 13.62440125696213, 56.907242886181855 ], [ 13.620248736959566, 56.908068625842532 ], [ 13.617509120237672, 56.905765228096882 ], [ 13.611997162573287, 56.902067580330268 ], [ 13.610451392427194, 56.900691467126343 ], [ 13.60730261737014, 56.898383285365995 ], [ 13.602123972463577, 56.896036606608035 ], [ 13.598105813934492, 56.894610190669603 ], [ 13.594112553061059, 56.89296604358244 ], [ 13.590873535787308, 56.892226502306194 ], [ 13.586408094258337, 56.891473007202933 ], [ 13.583207162171762, 56.890059839532846 ], [ 13.579135774803692, 56.889530675903643 ], [ 13.575846524859932, 56.889695384747803 ], [ 13.57214337546934, 56.889844046915229 ], [ 13.567171427690123, 56.89065416043465 ], [ 13.564546991334581, 56.891136169681715 ], [ 13.563605335345223, 56.89129156646262 ], [ 13.561846308341963, 56.892425877269787 ], [ 13.56010565819313, 56.893293078212892 ], [ 13.558629759702365, 56.893464742356649 ], [ 13.556343930661296, 56.893034037843151 ], [ 13.553421666549912, 56.892081544904045 ], [ 13.54524799037036, 56.887078692850388 ], [ 13.541587552840744, 56.886555330079801 ], [ 13.539020308068617, 56.888304331849817 ], [ 13.536816575127332, 56.890511273281213 ], [ 13.531665180794144, 56.890956238146018 ], [ 13.528231228997649, 56.890408192482766 ], [ 13.527595228059166, 56.889884070750426 ], [ 13.526502609097831, 56.888867133511908 ], [ 13.524448699122351, 56.888294818067337 ], [ 13.522870166022731, 56.887948218453744 ], [ 13.521212179708455, 56.887432192232318 ], [ 13.519190983419506, 56.886348039265414 ], [ 13.517570404925594, 56.885201220365119 ], [ 13.515865846337489, 56.884001718949143 ], [ 13.512141992384716, 56.8816842517464 ], [ 13.509019671576752, 56.879726507257438 ], [ 13.505432750706767, 56.878007962576469 ], [ 13.502175295358557, 56.876778447832322 ], [ 13.499213699929097, 56.875848903354431 ], [ 13.495676287650998, 56.874858444831958 ], [ 13.4923540564115, 56.873214582677434 ], [ 13.490439635540884, 56.872573747541495 ], [ 13.488468381173906, 56.872123124590637 ], [ 13.486609120926458, 56.87204894816692 ], [ 13.483470912795649, 56.872156891247542 ], [ 13.480192197578369, 56.872087839638972 ], [ 13.477353668786087, 56.87158380605031 ], [ 13.472113417685804, 56.870129393295692 ], [ 13.471183473575973, 56.871910514077818 ], [ 13.46940002751832, 56.873896811590072 ], [ 13.471365821615327, 56.875282104964427 ], [ 13.474130781213589, 56.876690607987065 ], [ 13.469939077971169, 56.87817351644717 ], [ 13.465473995933628, 56.877408934354222 ], [ 13.462154626192252, 56.878019524138608 ], [ 13.459545391855928, 56.87991465127363 ], [ 13.457350664259582, 56.879510199176153 ], [ 13.454861303654148, 56.879486171991452 ], [ 13.448288860175328, 56.879483323491407 ], [ 13.442999033627281, 56.878727904793116 ], [ 13.440868981946041, 56.877367064432669 ], [ 13.438257329176153, 56.873491101275746 ], [ 13.43673378578538, 56.871663808110519 ], [ 13.432768009953888, 56.869783411573628 ], [ 13.428674100890754, 56.869696034882068 ], [ 13.424138793716706, 56.870058946491795 ], [ 13.420833272038843, 56.870437248531225 ], [ 13.415888318884909, 56.870783450437976 ], [ 13.412217448320794, 56.870487504102009 ], [ 13.407225140033823, 56.870594657183183 ], [ 13.404421834053176, 56.870347728032762 ], [ 13.40363802165427, 56.869971570624571 ], [ 13.403359317764011, 56.869581649743687 ], [ 13.400864340242938, 56.868455796420655 ], [ 13.398027571101681, 56.867940987235215 ], [ 13.389852836196816, 56.867092349347786 ], [ 13.380898164892853, 56.864559585170063 ], [ 13.376165123913328, 56.863336805955292 ], [ 13.374307318209029, 56.863054313264819 ], [ 13.362845560373394, 56.858912925292593 ], [ 13.361938631031261, 56.858741545338582 ], [ 13.36083943748176, 56.858747338583271 ], [ 13.360121162692437, 56.858481830905603 ], [ 13.359642652148926, 56.858172296595804 ], [ 13.359020815325719, 56.85785863072438 ], [ 13.358501995376383, 56.857346395706394 ], [ 13.356408870618225, 56.857857974388125 ], [ 13.355217588772447, 56.858561103700119 ], [ 13.354352331129029, 56.859122509503869 ], [ 13.353884492238841, 56.860717951980824 ], [ 13.353135809885499, 56.861611091663519 ], [ 13.352618735639869, 56.862552208334854 ], [ 13.351382048587014, 56.863256949567131 ], [ 13.349451929062901, 56.863316814294869 ], [ 13.348376228379545, 56.863623813082938 ], [ 13.347352071319785, 56.863877573693237 ], [ 13.346426530882564, 56.864033794694926 ], [ 13.345576845618094, 56.864422382453775 ], [ 13.345504765830107, 56.865497404057919 ], [ 13.345674849720647, 56.866382451906311 ], [ 13.346765313346047, 56.867230267488686 ], [ 13.347220912845263, 56.867966343668684 ], [ 13.34696443903589, 56.868387499273346 ], [ 13.346569576052794, 56.868784359427551 ], [ 13.346552937400443, 56.871205645513278 ], [ 13.345122208648569, 56.872300859679548 ], [ 13.344392004960211, 56.87267305305172 ], [ 13.341283799898042, 56.872368997970305 ], [ 13.336118389068606, 56.872298047680921 ], [ 13.335547413427433, 56.870008199369714 ], [ 13.335871599273748, 56.864095761918499 ], [ 13.332431258059964, 56.862517892119669 ], [ 13.33294270050747, 56.860516524284982 ], [ 13.33782915004536, 56.855006334581219 ], [ 13.335219740406888, 56.851352773483065 ], [ 13.339840067533544, 56.849873325591766 ], [ 13.339607132606275, 56.847172415160721 ], [ 13.33857559626723, 56.844456385505183 ], [ 13.334964516177505, 56.843253675762405 ], [ 13.335795102078178, 56.841717043121307 ], [ 13.337450636492454, 56.837841754016793 ], [ 13.298658934487621, 56.823600757429972 ], [ 13.301253632754706, 56.815423507701759 ], [ 13.29887486895012, 56.8148609684145 ], [ 13.299963171517318, 56.810726817182832 ], [ 13.302674266838912, 56.810817635819355 ], [ 13.303411153868003, 56.808648711891927 ], [ 13.30442469104433, 56.805973625092655 ], [ 13.305812398270696, 56.803532737709929 ], [ 13.307657753752693, 56.80183484213115 ], [ 13.315009511095537, 56.793932905402031 ], [ 13.317541516329602, 56.786661997596063 ], [ 13.318496104841362, 56.779322608399383 ], [ 13.319415948753306, 56.767442883410403 ], [ 13.31942681632186, 56.759785246483034 ], [ 13.319438608314943, 56.753387813848263 ], [ 13.318086994770775, 56.742917326287809 ], [ 13.316864869106789, 56.732491231599163 ], [ 13.316299840181244, 56.72895008277218 ], [ 13.317200769655338, 56.721407753112345 ], [ 13.317827101162719, 56.718635218206572 ], [ 13.323448181864332, 56.71166415211335 ], [ 13.325004146141566, 56.708728872208575 ], [ 13.324183573593379, 56.707343065659607 ], [ 13.322758574676783, 56.706142304159364 ], [ 13.320376808155427, 56.705061165198948 ], [ 13.318974177563971, 56.704004427219097 ], [ 13.317251983976181, 56.703338716617864 ], [ 13.315382125371007, 56.702414899297416 ], [ 13.315497880746076, 56.701286542822345 ], [ 13.316650832061967, 56.70024858253565 ], [ 13.316406738755628, 56.693187199967255 ], [ 13.313305470814051, 56.690689961186038 ], [ 13.311213110109962, 56.688734222509645 ], [ 13.310187942638855, 56.687471334939104 ], [ 13.309159188889719, 56.686745272701472 ], [ 13.309219976830439, 56.68675508343663 ], [ 13.312141111551254, 56.687243979401586 ], [ 13.314912921884801, 56.68787904645103 ], [ 13.318094258202555, 56.687479513154173 ], [ 13.321325531449942, 56.686781805247321 ], [ 13.323261421555177, 56.68629795732766 ], [ 13.328168482975888, 56.687846523887394 ], [ 13.358293929733895, 56.669820414534442 ], [ 13.363671665199808, 56.665295159545757 ], [ 13.370943604683097, 56.652761511539786 ], [ 13.373221544788763, 56.649298216620316 ], [ 13.376277859143803, 56.644506208814882 ], [ 13.376608563125341, 56.643546835227738 ], [ 13.379034942455549, 56.636502432081222 ], [ 13.385404538348528, 56.629291308856246 ], [ 13.392720861423776, 56.620647694405697 ], [ 13.392555091604997, 56.619275274390098 ], [ 13.396537784941925, 56.616154807451707 ], [ 13.396557805238736, 56.615970864124186 ], [ 13.397304224836361, 56.608450686749272 ], [ 13.398251289196221, 56.606092974447051 ], [ 13.403661382527339, 56.59515759962111 ], [ 13.401993089681058, 56.593682779848741 ], [ 13.403219670147424, 56.592018253925225 ], [ 13.405476297113163, 56.590158014956039 ], [ 13.408169245030985, 56.587694557468652 ], [ 13.410849926608654, 56.585805955193038 ], [ 13.411197341181582, 56.584123376314231 ], [ 13.41288512477932, 56.583383411531564 ], [ 13.417560903255755, 56.578155065897953 ], [ 13.422825043073322, 56.575380300918916 ], [ 13.427170353893684, 56.573546154104775 ], [ 13.42891565114085, 56.573853506654132 ], [ 13.433803442727916, 56.572765035756028 ], [ 13.438909014181167, 56.57171729704752 ], [ 13.438013971171012, 56.569540569465246 ], [ 13.439217556643486, 56.568178668456497 ], [ 13.439517802942758, 56.565235218031965 ], [ 13.439127529671602, 56.564239675358955 ], [ 13.439350827966205, 56.5633619066815 ], [ 13.439183580844624, 56.56198952887064 ], [ 13.439465544182996, 56.561168655286878 ], [ 13.440064181040558, 56.560066467699016 ], [ 13.439800540721979, 56.559157876717407 ], [ 13.439493116050222, 56.557929752345984 ], [ 13.439511973036044, 56.557175212363092 ], [ 13.439800359614484, 56.556296013017082 ], [ 13.439422729801958, 56.555588162107128 ], [ 13.439246445793064, 56.554831171839638 ], [ 13.446669239705196, 56.547097837506804 ], [ 13.45113276741014, 56.542061045681898 ], [ 13.45248031264325, 56.540525598109127 ], [ 13.454469381288327, 56.53671356846678 ], [ 13.456661660187926, 56.532293021546501 ], [ 13.458933347784779, 56.52870682140427 ], [ 13.45957784201298, 56.525446357481783 ], [ 13.460953842538746, 56.521882708567851 ], [ 13.46147656531271, 56.520516655210969 ], [ 13.462339524191107, 56.516468160761832 ], [ 13.462895364979058, 56.514983453814068 ], [ 13.463664846565351, 56.514242686746719 ], [ 13.463563107765486, 56.513342882901654 ], [ 13.461898972242503, 56.509889843460655 ], [ 13.459980883789394, 56.506395441306019 ], [ 13.456941998454047, 56.501602162418756 ], [ 13.455106775134928, 56.4982884138484 ], [ 13.454240140240127, 56.496130097876744 ], [ 13.454229392549097, 56.491502432410229 ], [ 13.454028041488689, 56.48766760833346 ], [ 13.449911725999559, 56.473706703910302 ], [ 13.449621734797747, 56.47175996111546 ], [ 13.449140179126127, 56.469734446870305 ], [ 13.449222835168291, 56.46800576286762 ], [ 13.449274621243353, 56.467930032657719 ], [ 13.450821914827849, 56.465610864007971 ], [ 13.454623895725025, 56.461023960497315 ], [ 13.457916640660375, 56.456666488569724 ], [ 13.46063337669705, 56.453593460710628 ], [ 13.462906364202274, 56.45135278186347 ], [ 13.462582277742138, 56.450337894177736 ], [ 13.462957266444331, 56.449589999502649 ], [ 13.463873390779787, 56.448599453861156 ], [ 13.464425761312397, 56.447676285768452 ], [ 13.463867782069336, 56.4467281446898 ], [ 13.462972079556849, 56.445506252007597 ], [ 13.462958888269238, 56.444225647713701 ], [ 13.466458668904293, 56.434867811451163 ], [ 13.467371854727579, 56.43152074154866 ], [ 13.464706160469587, 56.430564518561084 ], [ 13.46263724982531, 56.42818468088597 ], [ 13.460434878585154, 56.427007217624336 ], [ 13.456880461771618, 56.425586018779534 ], [ 13.442195193514211, 56.420100981547414 ], [ 13.438137039156382, 56.418937984024446 ], [ 13.423963318122109, 56.417476019683875 ], [ 13.408134695627105, 56.41597547640368 ], [ 13.405241754139766, 56.415861939478241 ], [ 13.405213375748039, 56.41479677081356 ], [ 13.398915764308295, 56.41450448048041 ], [ 13.39384227006844, 56.414400701046119 ], [ 13.390659259558987, 56.414730105634121 ], [ 13.387267388469548, 56.414726488491972 ], [ 13.38478874248562, 56.413829361913507 ], [ 13.382360624863464, 56.412699214851862 ], [ 13.379896964690261, 56.411550583304951 ], [ 13.375069168490931, 56.409115194366294 ], [ 13.373200871812342, 56.407983210150284 ], [ 13.346722498519458, 56.390490408180106 ], [ 13.343353574182208, 56.389820928624808 ], [ 13.340168735362914, 56.388832577390893 ], [ 13.337125809473248, 56.3885873780835 ], [ 13.332893214916416, 56.38813516478114 ], [ 13.3316357167152, 56.387996941938155 ], [ 13.321156508502362, 56.387590412483348 ], [ 13.314682915542841, 56.387086992874792 ], [ 13.309707723377908, 56.386129664463127 ], [ 13.304636353065117, 56.385155093902895 ], [ 13.301581378527171, 56.383736192139892 ], [ 13.299019071827688, 56.381807283178759 ], [ 13.297282622731828, 56.381066819830295 ], [ 13.294259944079336, 56.380569233291737 ], [ 13.292923861249763, 56.380204885124272 ], [ 13.292375616957843, 56.380060299420506 ], [ 13.251375931265322, 56.357776312506992 ], [ 13.25531169808534, 56.353293835886717 ], [ 13.254885555482947, 56.352436408779482 ], [ 13.254169230227062, 56.351554673543468 ], [ 13.251759452956463, 56.348512622020209 ], [ 13.249274333080377, 56.347653065925854 ], [ 13.246943417532428, 56.346256477188334 ], [ 13.24243094066342, 56.342865461619297 ], [ 13.228934267681669, 56.332613334665787 ], [ 13.216684978813278, 56.327236886129789 ], [ 13.195945320411941, 56.323566760657194 ], [ 13.188193877439236, 56.325291300545373 ], [ 13.18632741211132, 56.33293145780231 ], [ 13.182578356063704, 56.33999582615413 ], [ 13.168400752137082, 56.343127670473685 ], [ 13.163248998538892, 56.345783217588959 ], [ 13.157150434492154, 56.349516304086144 ], [ 13.154607936405988, 56.350891550208701 ], [ 13.150841542590493, 56.352136159986159 ], [ 13.146557573813899, 56.353368423759527 ], [ 13.140045712062751, 56.354311014605415 ], [ 13.131969316463588, 56.35538245804581 ], [ 13.127227367719012, 56.355288420606698 ], [ 13.121866995805124, 56.354769214526947 ], [ 13.117503757791342, 56.354053748963686 ], [ 13.114230935879027, 56.353055932237709 ], [ 13.110617867429099, 56.352232566336703 ], [ 13.107630066020297, 56.353492237148195 ], [ 13.098909938685537, 56.352278156794881 ], [ 13.096228278882522, 56.352502083248929 ], [ 13.073832994105423, 56.351605572201727 ], [ 13.067413694868572, 56.352606454942865 ], [ 13.063967694091351, 56.35385569161852 ], [ 13.058037661165578, 56.354054959246675 ], [ 13.055780583502713, 56.354356557655287 ], [ 13.048740791953517, 56.355286085319392 ], [ 13.048570972381969, 56.35528341117061 ], [ 13.03404215109984, 56.354842581140801 ], [ 12.980464469318925, 56.358460775640673 ], [ 12.979442727624958, 56.361097406272982 ], [ 12.978095756163231, 56.36329961427748 ], [ 12.975957986435137, 56.365221545212329 ], [ 12.974133844422381, 56.366492547534726 ], [ 12.970698135469284, 56.367541688996539 ], [ 12.965044138480772, 56.368282489895485 ], [ 12.958069677334548, 56.36888221414214 ], [ 12.95013931940065, 56.369261295905858 ], [ 12.953885074197634, 56.375204929903816 ], [ 12.95730280878165, 56.377993227838466 ], [ 12.96098241868539, 56.382028129256582 ], [ 12.963172219630321, 56.38272913604132 ], [ 12.968325057930425, 56.38946375178179 ], [ 12.96638480378353, 56.39053054805872 ], [ 12.963825254447677, 56.393256400160631 ], [ 12.959539346502549, 56.393943057670214 ], [ 12.954464622675278, 56.392718140713029 ], [ 12.960559209138944, 56.400702009793825 ], [ 12.96505677729213, 56.403047252766498 ], [ 12.964209467126123, 56.403511878864116 ], [ 12.962818828944631, 56.40458989330741 ], [ 12.962410922241521, 56.406005313442947 ], [ 12.970204167593279, 56.410320845195628 ], [ 12.969901602326264, 56.411284191239652 ], [ 12.9675627086645, 56.412434351651562 ], [ 12.964825199452688, 56.412470337621798 ], [ 12.958139632639622, 56.413351213112747 ], [ 12.958504998499043, 56.414096371737628 ], [ 12.959506062764291, 56.415004760865727 ], [ 12.962660093277249, 56.418325465625877 ], [ 12.962919411329645, 56.421587343290206 ], [ 12.964381385884684, 56.423282839214103 ], [ 12.965734909021394, 56.425493262688221 ], [ 12.965950790973137, 56.427676033577562 ], [ 12.954525438115207, 56.430774987271725 ], [ 12.955896622729199, 56.436427650684742 ], [ 12.956360483051482, 56.440629752569514 ], [ 12.952543441417518, 56.441847401193414 ], [ 12.950112928037299, 56.441791542271616 ], [ 12.9474763829241, 56.440968371567251 ], [ 12.94442532435732, 56.440012465011669 ], [ 12.94146465866516, 56.440012803174859 ], [ 12.934917518162688, 56.441157626608586 ], [ 12.922831792488397, 56.443896738839598 ], [ 12.91020833221822, 56.446423434195871 ], [ 12.898872712498578, 56.449105473336758 ], [ 12.896411651846867, 56.450108472256922 ], [ 12.893652441275508, 56.451584901648062 ], [ 12.892075365535359, 56.452517445909727 ], [ 12.89084381435948, 56.453509763971695 ], [ 12.890640170268727, 56.453670308846917 ], [ 12.888926005375856, 56.455535095781492 ], [ 12.850900958992071, 56.496021309012335 ], [ 12.850572629749296, 56.496368353298152 ], [ 12.797563826530396, 56.552642480066879 ], [ 12.79726478157696, 56.552958455707703 ], [ 12.550759348013163, 56.55525540312717 ], [ 12.240855176511349, 56.55721984613357 ], [ 12.240842989093924, 56.557219575478641 ], [ 12.242175805604496, 56.559089504482976 ], [ 12.253208574247283, 56.57456436162996 ], [ 12.264250032642506, 56.590040534562227 ], [ 12.275300356785067, 56.605515778132308 ], [ 12.286359720453929, 56.620987847129896 ], [ 12.292654121070608, 56.629789454609636 ], [ 12.292665367917182, 56.629803181391679 ], [ 12.298747420508226, 56.636995461975943 ], [ 12.294699561621368, 56.641363283211888 ], [ 12.289300895699416, 56.647660936696077 ], [ 12.286043959750485, 56.65177608697779 ], [ 12.276344961133166, 56.661030766457458 ], [ 12.276309942484088, 56.661063704986532 ], [ 12.266315314563423, 56.672697499277689 ], [ 12.261456335987933, 56.678347512386004 ] ] ] } }
]
}
