{
"type": "FeatureCollection",
"name": "tatorter-halland",
"crs": { "type": "name", "properties": { "name": "urn:ogc:def:crs:OGC:1.3:CRS84" } },
"features": [
{ "type": "Feature", "properties": { "community": "1401TB105_14", "namn": "Hindås", "kommun": "Härryda", "lan": "14", "nattbef": 1589, "i_halland": false }, "geometry": { "type": "Point", "coordinates": [ 12.450072056706965, 57.706810559374055 ] } },
{ "type": "Feature", "properties": { "community": "1401TB106_14", "namn": "Härryda", "kommun": "Härryda", "lan": "14", "nattbef": 717, "i_halland": false }, "geometry": { "type": "Point", "coordinates": [ 12.288773830743947, 57.696365129934208 ] } },
{ "type": "Feature", "properties": { "community": "1401TB107_14", "namn": "Landvetter", "kommun": "Härryda", "lan": "14", "nattbef": 5323, "i_halland": false }, "geometry": { "type": "Point", "coordinates": [ 12.210507904809976, 57.686887281319912 ] } },
{ "type": "Feature", "properties": { "community": "1440TB106_14", "namn": "Älvängen", "kommun": "Ale", "lan": "14", "nattbef": 3436, "i_halland": false }, "geometry": { "type": "Point", "coordinates": [ 12.131839405963955, 57.956955267303371 ] } },
{ "type": "Feature", "properties": { "community": "1440TC102_14", "namn": "Nödinge-Nol", "kommun": "Ale", "lan": "14", "nattbef": 5885, "i_halland": false }, "geometry": { "type": "Point", "coordinates": [ 12.076437283346285, 57.906907994202292 ] } },
{ "type": "Feature", "properties": { "community": "1441TB105_14", "namn": "Gråbo", "kommun": "Lerum", "lan": "14", "nattbef": 3551, "i_halland": false }, "geometry": { "type": "Point", "coordinates": [ 12.280849716116355, 57.832566981237079 ] } },
{ "type": "Feature", "properties": { "community": "1496TB103_14", "namn": "Skultorp", "kommun": "Skövde", "lan": "14", "nattbef": 2038, "i_halland": false }, "geometry": { "type": "Point", "coordinates": [ 13.830494057523198, 58.340755009809577 ] } },
{ "type": "Feature", "properties": { "community": "1480TB121_14", "namn": "Styrsö och Donsö", "kommun": "Göteborg", "lan": "14", "nattbef": 1425, "i_halland": false }, "geometry": { "type": "Point", "coordinates": [ 11.787549325519789, 57.609587617132199 ] } },
{ "type": "Feature", "properties": { "community": "1480TC108_14", "namn": "Göteborg", "kommun": "Göteborg", "lan": "14", "nattbef": 345042, "i_halland": false }, "geometry": { "type": "Point", "coordinates": [ 11.950542593855991, 57.688582575373601 ] } },
{ "type": "Feature", "properties": { "community": "1481TB101_14", "namn": "Hällesåker", "kommun": "Mölndal", "lan": "14", "nattbef": 429, "i_halland": false }, "geometry": { "type": "Point", "coordinates": [ 12.192762194541933, 57.603351523564562 ] } },
{ "type": "Feature", "properties": { "community": "1481TB121_14", "namn": "Östra Balltorp", "kommun": "Mölndal", "lan": "14", "nattbef": 1333, "i_halland": false }, "geometry": { "type": "Point", "coordinates": [ 12.022733550864265, 57.628158013504851 ] } },
{ "type": "Feature", "properties": { "community": "1401TB111_14", "namn": "Rävlanda", "kommun": "Härryda", "lan": "14", "nattbef": 909, "i_halland": false }, "geometry": { "type": "Point", "coordinates": [ 12.49717237189315, 57.65517086900185 ] } },
{ "type": "Feature", "properties": { "community": "1401TC108_14", "namn": "Mölnlycke och Öjersjö", "kommun": "Härryda", "lan": "14", "nattbef": 13417, "i_halland": false }, "geometry": { "type": "Point", "coordinates": [ 12.123012380509181, 57.662486325162554 ] } },
{ "type": "Feature", "properties": { "community": "1402TB101_14", "namn": "Jonsered", "kommun": "Partille", "lan": "14", "nattbef": 475, "i_halland": false }, "geometry": { "type": "Point", "coordinates": [ 12.172415172614373, 57.745043133230702 ] } },
{ "type": "Feature", "properties": { "community": "1407TC109_14", "namn": "Hönö och Öckerö", "kommun": "Öckerö", "lan": "14", "nattbef": 4712, "i_halland": false }, "geometry": { "type": "Point", "coordinates": [ 11.649120367188189, 57.699845166675566 ] } },
{ "type": "Feature", "properties": { "community": "1415TC104_14", "namn": "Stenungsund", "kommun": "Stenungsund", "lan": "14", "nattbef": 7105, "i_halland": false }, "geometry": { "type": "Point", "coordinates": [ 11.836572355303392, 58.063239515344691 ] } },
{ "type": "Feature", "properties": { "community": "1481TB122_14", "namn": "Björnåsen", "kommun": "Mölndal", "lan": "14", "nattbef": 168, "i_halland": false }, "geometry": { "type": "Point", "coordinates": [ 12.049489764401507, 57.57319133056945 ] } },
{ "type": "Feature", "properties": { "community": "1440TB105_14", "namn": "Surte", "kommun": "Ale", "lan": "14", "nattbef": 3531, "i_halland": false }, "geometry": { "type": "Point", "coordinates": [ 12.019868509937266, 57.838898005405667 ] } },
{ "type": "Feature", "properties": { "community": "1441TC106_14", "namn": "Lerum", "kommun": "Lerum", "lan": "14", "nattbef": 14798, "i_halland": false }, "geometry": { "type": "Point", "coordinates": [ 12.303782452701812, 57.784297233978393 ] } },
{ "type": "Feature", "properties": { "community": "1446TB103_14", "namn": "Mölltorp", "kommun": "Karlsborg", "lan": "14", "nattbef": 520, "i_halland": false }, "geometry": { "type": "Point", "coordinates": [ 14.414091694319081, 58.496370753178795 ] } },
{ "type": "Feature", "properties": { "community": "1446TC102_14", "namn": "Karlsborg", "kommun": "Karlsborg", "lan": "14", "nattbef": 1811, "i_halland": false }, "geometry": { "type": "Point", "coordinates": [ 14.506011179226906, 58.537309266403931 ] } },
{ "type": "Feature", "properties": { "community": "1463TB101_14", "namn": "Ubbhult norra", "kommun": "Mark", "lan": "14", "nattbef": 229, "i_halland": false }, "geometry": { "type": "Point", "coordinates": [ 12.399922773071522, 57.603410391366126 ] } },
{ "type": "Feature", "properties": { "community": "1463TB102_14", "namn": "Berghem", "kommun": "Mark", "lan": "14", "nattbef": 169, "i_halland": false }, "geometry": { "type": "Point", "coordinates": [ 12.587496975525982, 57.46417207709267 ] } },
{ "type": "Feature", "properties": { "community": "1463TB104_14", "namn": "Fritsla", "kommun": "Mark", "lan": "14", "nattbef": 1122, "i_halland": false }, "geometry": { "type": "Point", "coordinates": [ 12.789768169260819, 57.556495935222017 ] } },
{ "type": "Feature", "properties": { "community": "1463TB105_14", "namn": "Horred", "kommun": "Mark", "lan": "14", "nattbef": 631, "i_halland": false }, "geometry": { "type": "Point", "coordinates": [ 12.47305864695206, 57.356747896163384 ] } },
{ "type": "Feature", "properties": { "community": "1463TB106_14", "namn": "Hyssna", "kommun": "Mark", "lan": "14", "nattbef": 400, "i_halland": false }, "geometry": { "type": "Point", "coordinates": [ 12.53951682159413, 57.558164742654036 ] } },
{ "type": "Feature", "properties": { "community": "1463TC107_14", "namn": "Kinna", "kommun": "Mark", "lan": "14", "nattbef": 7384, "i_halland": false }, "geometry": { "type": "Point", "coordinates": [ 12.680320428976332, 57.495410669415584 ] } },
{ "type": "Feature", "properties": { "community": "1481TB123_14", "namn": "Västra Balltorp", "kommun": "Mölndal", "lan": "14", "nattbef": 631, "i_halland": false }, "geometry": { "type": "Point", "coordinates": [ 12.00419225900067, 57.626974432221871 ] } },
{ "type": "Feature", "properties": { "community": "1443TC101_14", "namn": "Bollebygd", "kommun": "Bollebygd", "lan": "14", "nattbef": 2270, "i_halland": false }, "geometry": { "type": "Point", "coordinates": [ 12.571823136610424, 57.672346833907369 ] } },
{ "type": "Feature", "properties": { "community": "1482TC106_14", "namn": "Kungälv", "kommun": "Kungälv", "lan": "14", "nattbef": 15313, "i_halland": false }, "geometry": { "type": "Point", "coordinates": [ 11.943908916579208, 57.873090425569949 ] } },
{ "type": "Feature", "properties": { "community": "1463TB109_14", "namn": "Sätila", "kommun": "Mark", "lan": "14", "nattbef": 749, "i_halland": false }, "geometry": { "type": "Point", "coordinates": [ 12.440162740465109, 57.539247111412244 ] } },
{ "type": "Feature", "properties": { "community": "1463TB133_14", "namn": "Fotskäl", "kommun": "Mark", "lan": "14", "nattbef": 115, "i_halland": false }, "geometry": { "type": "Point", "coordinates": [ 12.483071478365291, 57.47096800366662 ] } },
{ "type": "Feature", "properties": { "community": "1465TB103_14", "namn": "Mjöbäck", "kommun": "Svenljunga", "lan": "14", "nattbef": 125, "i_halland": false }, "geometry": { "type": "Point", "coordinates": [ 12.877884946079892, 57.311719192598034 ] } },
{ "type": "Feature", "properties": { "community": "1465TB108_14", "namn": "Överlida", "kommun": "Svenljunga", "lan": "14", "nattbef": 223, "i_halland": false }, "geometry": { "type": "Point", "coordinates": [ 12.896921963577713, 57.349616330255415 ] } },
{ "type": "Feature", "properties": { "community": "1465TC106_14", "namn": "Svenljunga", "kommun": "Svenljunga", "lan": "14", "nattbef": 1695, "i_halland": false }, "geometry": { "type": "Point", "coordinates": [ 13.110328320347366, 57.495801880628939 ] } },
{ "type": "Feature", "properties": { "community": "1470TC109_14", "namn": "Vara", "kommun": "Vara", "lan": "14", "nattbef": 2100, "i_halland": false }, "geometry": { "type": "Point", "coordinates": [ 12.960854547012083, 58.262270271479991 ] } },
{ "type": "Feature", "properties": { "community": "1472TC102_14", "namn": "Tibro", "kommun": "Tibro", "lan": "14", "nattbef": 3948, "i_halland": false }, "geometry": { "type": "Point", "coordinates": [ 14.15748442531962, 58.418703844111391 ] } },
{ "type": "Feature", "properties": { "community": "1480TB101_14", "namn": "Angered", "kommun": "Göteborg", "lan": "14", "nattbef": 818, "i_halland": false }, "geometry": { "type": "Point", "coordinates": [ 12.093245262043894, 57.785605829194921 ] } },
{ "type": "Feature", "properties": { "community": "1480TB107_14", "namn": "Nordöstra Göteborg", "kommun": "Göteborg", "lan": "14", "nattbef": 20324, "i_halland": false }, "geometry": { "type": "Point", "coordinates": [ 12.041540657318439, 57.791177458686164 ] } },
{ "type": "Feature", "properties": { "community": "1480TB117_14", "namn": "Olofstorp", "kommun": "Göteborg", "lan": "14", "nattbef": 2266, "i_halland": false }, "geometry": { "type": "Point", "coordinates": [ 12.155481985465331, 57.795866499811225 ] } },
{ "type": "Feature", "properties": { "community": "1485TC111_14", "namn": "Uddevalla", "kommun": "Uddevalla", "lan": "14", "nattbef": 16777, "i_halland": false }, "geometry": { "type": "Point", "coordinates": [ 11.916290895864465, 58.352720464385804 ] } },
{ "type": "Feature", "properties": { "community": "1486TC103_14", "namn": "Strömstad", "kommun": "Strömstad", "lan": "14", "nattbef": 4002, "i_halland": false }, "geometry": { "type": "Point", "coordinates": [ 11.186207327349765, 58.944310393952961 ] } },
{ "type": "Feature", "properties": { "community": "1489TC106_14", "namn": "Alingsås", "kommun": "Alingsås", "lan": "14", "nattbef": 14077, "i_halland": false }, "geometry": { "type": "Point", "coordinates": [ 12.530803966936771, 57.930078166892329 ] } },
{ "type": "Feature", "properties": { "community": "1487TC106_14", "namn": "Vänersborg", "kommun": "Vänersborg", "lan": "14", "nattbef": 11484, "i_halland": false }, "geometry": { "type": "Point", "coordinates": [ 12.323753387628527, 58.365282200299553 ] } },
{ "type": "Feature", "properties": { "community": "1488TC105_14", "namn": "Trollhättan", "kommun": "Trollhättan", "lan": "14", "nattbef": 24201, "i_halland": false }, "geometry": { "type": "Point", "coordinates": [ 12.297844593067333, 58.28731728657074 ] } },
{ "type": "Feature", "properties": { "community": "1490TB108_14", "namn": "Fristad", "kommun": "Borås", "lan": "14", "nattbef": 3015, "i_halland": false }, "geometry": { "type": "Point", "coordinates": [ 13.009145216747688, 57.814489953914943 ] } },
{ "type": "Feature", "properties": { "community": "1490TB116_14", "namn": "Sjömarken och Viared", "kommun": "Borås", "lan": "14", "nattbef": 2183, "i_halland": false }, "geometry": { "type": "Point", "coordinates": [ 12.827678691727293, 57.703479049429959 ] } },
{ "type": "Feature", "properties": { "community": "1490TC104_14", "namn": "Borås", "kommun": "Borås", "lan": "14", "nattbef": 37727, "i_halland": false }, "geometry": { "type": "Point", "coordinates": [ 12.951000852381465, 57.728161530241557 ] } },
{ "type": "Feature", "properties": { "community": "1493TC103_14", "namn": "Mariestad", "kommun": "Mariestad", "lan": "14", "nattbef": 8077, "i_halland": false }, "geometry": { "type": "Point", "coordinates": [ 13.826226071353929, 58.702235572268791 ] } },
{ "type": "Feature", "properties": { "community": "1495TC104_14", "namn": "Skara", "kommun": "Skara", "lan": "14", "nattbef": 5566, "i_halland": false }, "geometry": { "type": "Point", "coordinates": [ 13.434960482631158, 58.384079482504781 ] } },
{ "type": "Feature", "properties": { "community": "1496TC104_14", "namn": "Skövde", "kommun": "Skövde", "lan": "14", "nattbef": 20930, "i_halland": false }, "geometry": { "type": "Point", "coordinates": [ 13.856062539415433, 58.399919133388664 ] } },
{ "type": "Feature", "properties": { "community": "1497TC102_14", "namn": "Hjo", "kommun": "Hjo", "lan": "14", "nattbef": 3013, "i_halland": false }, "geometry": { "type": "Point", "coordinates": [ 14.277482862614393, 58.304933909924365 ] } },
{ "type": "Feature", "properties": { "community": "1498TC104_14", "namn": "Tidaholm", "kommun": "Tidaholm", "lan": "14", "nattbef": 3958, "i_halland": false }, "geometry": { "type": "Point", "coordinates": [ 13.958708732964341, 58.178964917144562 ] } },
{ "type": "Feature", "properties": { "community": "1383TB122_13", "namn": "Årnäs", "kommun": "Varberg", "lan": "13", "nattbef": 393, "i_halland": true }, "geometry": { "type": "Point", "coordinates": [ 12.193273448156942, 57.19763421372582 ] } },
{ "type": "Feature", "properties": { "community": "1383TB123_13", "namn": "Åsby", "kommun": "Varberg", "lan": "13", "nattbef": 308, "i_halland": true }, "geometry": { "type": "Point", "coordinates": [ 12.304534449909619, 57.233420274901817 ] } },
{ "type": "Feature", "properties": { "community": "1383TB149_13", "namn": "Moarna", "kommun": "Varberg", "lan": "13", "nattbef": 112, "i_halland": true }, "geometry": { "type": "Point", "coordinates": [ 12.35353270112455, 57.047049958414398 ] } },
{ "type": "Feature", "properties": { "community": "1383TB155_13", "namn": "Ringhals, Skällåkra och Lingome", "kommun": "Varberg", "lan": "13", "nattbef": 136, "i_halland": true }, "geometry": { "type": "Point", "coordinates": [ 12.123661647116796, 57.259561479213566 ] } },
{ "type": "Feature", "properties": { "community": "1383TC119_13", "namn": "Varberg", "kommun": "Varberg", "lan": "13", "nattbef": 20093, "i_halland": true }, "geometry": { "type": "Point", "coordinates": [ 12.274683427652599, 57.098926529096715 ] } },
{ "type": "Feature", "properties": { "community": "1384TB101_13", "namn": "Röda holme", "kommun": "Kungsbacka", "lan": "13", "nattbef": 367, "i_halland": true }, "geometry": { "type": "Point", "coordinates": [ 11.97695596918917, 57.372198142378593 ] } },
{ "type": "Feature", "properties": { "community": "1384TB105_13", "namn": "Buerås", "kommun": "Kungsbacka", "lan": "13", "nattbef": 509, "i_halland": true }, "geometry": { "type": "Point", "coordinates": [ 11.972687130592762, 57.424705303314937 ] } },
{ "type": "Feature", "properties": { "community": "1384TB106_13", "namn": "Fjärås kyrkby", "kommun": "Kungsbacka", "lan": "13", "nattbef": 1443, "i_halland": true }, "geometry": { "type": "Point", "coordinates": [ 12.16756731753031, 57.460809961191927 ] } },
{ "type": "Feature", "properties": { "community": "1384TB112_13", "namn": "Halla Heberg", "kommun": "Kungsbacka", "lan": "13", "nattbef": 1071, "i_halland": true }, "geometry": { "type": "Point", "coordinates": [ 11.940026404956372, 57.454159184852344 ] } },
{ "type": "Feature", "properties": { "community": "1381TB106_13", "namn": "Lilla Tjärby", "kommun": "Laholm", "lan": "13", "nattbef": 531, "i_halland": true }, "geometry": { "type": "Point", "coordinates": [ 13.05680722104734, 56.526873822793007 ] } },
{ "type": "Feature", "properties": { "community": "1381TB107_13", "namn": "Mellbystrand", "kommun": "Laholm", "lan": "13", "nattbef": 2233, "i_halland": true }, "geometry": { "type": "Point", "coordinates": [ 12.939043097052938, 56.484018015722206 ] } },
{ "type": "Feature", "properties": { "community": "1381TB108_13", "namn": "Ränneslöv", "kommun": "Laholm", "lan": "13", "nattbef": 248, "i_halland": true }, "geometry": { "type": "Point", "coordinates": [ 13.072852136030264, 56.45092706793983 ] } },
{ "type": "Feature", "properties": { "community": "1380TB104_13", "namn": "Getinge", "kommun": "Halmstad", "lan": "13", "nattbef": 973, "i_halland": true }, "geometry": { "type": "Point", "coordinates": [ 12.733743568548201, 56.819274073142068 ] } },
{ "type": "Feature", "properties": { "community": "1380TB105_13", "namn": "Gullbrandstorp", "kommun": "Halmstad", "lan": "13", "nattbef": 890, "i_halland": true }, "geometry": { "type": "Point", "coordinates": [ 12.733132052402572, 56.704423853969352 ] } },
{ "type": "Feature", "properties": { "community": "1382TB108_13", "namn": "Långasand och Ugglarp", "kommun": "Falkenberg", "lan": "13", "nattbef": 253, "i_halland": true }, "geometry": { "type": "Point", "coordinates": [ 12.612741450423641, 56.828592546459497 ] } },
{ "type": "Feature", "properties": { "community": "1382TB109_13", "namn": "Morup", "kommun": "Falkenberg", "lan": "13", "nattbef": 142, "i_halland": true }, "geometry": { "type": "Point", "coordinates": [ 12.397355640067518, 56.980140464587997 ] } },
{ "type": "Feature", "properties": { "community": "1382TB114_13", "namn": "Slöinge", "kommun": "Falkenberg", "lan": "13", "nattbef": 495, "i_halland": true }, "geometry": { "type": "Point", "coordinates": [ 12.694371635996745, 56.853407452438027 ] } },
{ "type": "Feature", "properties": { "community": "1382TB115_13", "namn": "Ullared", "kommun": "Falkenberg", "lan": "13", "nattbef": 397, "i_halland": true }, "geometry": { "type": "Point", "coordinates": [ 12.717963859012077, 57.135534284583734 ] } },
{ "type": "Feature", "properties": { "community": "1382TB116_13", "namn": "Vessigebro", "kommun": "Falkenberg", "lan": "13", "nattbef": 426, "i_halland": true }, "geometry": { "type": "Point", "coordinates": [ 12.655430618645624, 56.977159941912397 ] } },
{ "type": "Feature", "properties": { "community": "1383TB104_13", "namn": "Hunnestad", "kommun": "Varberg", "lan": "13", "nattbef": 194, "i_halland": true }, "geometry": { "type": "Point", "coordinates": [ 12.364175162867658, 57.103214557929952 ] } },
{ "type": "Feature", "properties": { "community": "1383TB105_13", "namn": "Kungsäter", "kommun": "Varberg", "lan": "13", "nattbef": 194, "i_halland": true }, "geometry": { "type": "Point", "coordinates": [ 12.566921057775076, 57.307565383893881 ] } },
{ "type": "Feature", "properties": { "community": "1383TB106_13", "namn": "Nordvära och Källstorp", "kommun": "Varberg", "lan": "13", "nattbef": 162, "i_halland": true }, "geometry": { "type": "Point", "coordinates": [ 12.189075972502017, 57.273156261769422 ] } },
{ "type": "Feature", "properties": { "community": "1383TB108_13", "namn": "Rolfstorp", "kommun": "Varberg", "lan": "13", "nattbef": 285, "i_halland": true }, "geometry": { "type": "Point", "coordinates": [ 12.454441547016755, 57.14632478070169 ] } },
{ "type": "Feature", "properties": { "community": "1383TB109_13", "namn": "Skällinge", "kommun": "Varberg", "lan": "13", "nattbef": 347, "i_halland": true }, "geometry": { "type": "Point", "coordinates": [ 12.468466839268338, 57.181986116234306 ] } },
{ "type": "Feature", "properties": { "community": "1383TB110_13", "namn": "Tofta", "kommun": "Varberg", "lan": "13", "nattbef": 253, "i_halland": true }, "geometry": { "type": "Point", "coordinates": [ 12.286702332991155, 57.170545067827454 ] } },
{ "type": "Feature", "properties": { "community": "1383TB111_13", "namn": "Torpa", "kommun": "Varberg", "lan": "13", "nattbef": 156, "i_halland": true }, "geometry": { "type": "Point", "coordinates": [ 12.282552547369072, 57.190010782784043 ] } },
{ "type": "Feature", "properties": { "community": "1383TB115_13", "namn": "Bläshammar och Trönningenäs", "kommun": "Varberg", "lan": "13", "nattbef": 717, "i_halland": true }, "geometry": { "type": "Point", "coordinates": [ 12.23589564374514, 57.146836848053837 ] } },
{ "type": "Feature", "properties": { "community": "1383TB116_13", "namn": "Tvååker", "kommun": "Varberg", "lan": "13", "nattbef": 1572, "i_halland": true }, "geometry": { "type": "Point", "coordinates": [ 12.398620912730493, 57.04181504886909 ] } },
{ "type": "Feature", "properties": { "community": "1383TB117_13", "namn": "Tångaberg", "kommun": "Varberg", "lan": "13", "nattbef": 614, "i_halland": true }, "geometry": { "type": "Point", "coordinates": [ 12.21871305930468, 57.181519177169974 ] } },
{ "type": "Feature", "properties": { "community": "1383TB118_13", "namn": "Valinge", "kommun": "Varberg", "lan": "13", "nattbef": 153, "i_halland": true }, "geometry": { "type": "Point", "coordinates": [ 12.374320116441554, 57.175745633779549 ] } },
{ "type": "Feature", "properties": { "community": "1383TB120_13", "namn": "Veddige", "kommun": "Varberg", "lan": "13", "nattbef": 1058, "i_halland": true }, "geometry": { "type": "Point", "coordinates": [ 12.328765992738536, 57.267134226763432 ] } },
{ "type": "Feature", "properties": { "community": "1383TB121_13", "namn": "Väröbacka", "kommun": "Varberg", "lan": "13", "nattbef": 411, "i_halland": true }, "geometry": { "type": "Point", "coordinates": [ 12.183376112847839, 57.244975388727781 ] } },
{ "type": "Feature", "properties": { "community": "1315TB102_13", "namn": "Kinnared", "kommun": "Hylte", "lan": "13", "nattbef": 149, "i_halland": true }, "geometry": { "type": "Point", "coordinates": [ 13.104874399546794, 57.026133766683735 ] } },
{ "type": "Feature", "properties": { "community": "1315TB103_13", "namn": "Landeryd", "kommun": "Hylte", "lan": "13", "nattbef": 174, "i_halland": true }, "geometry": { "type": "Point", "coordinates": [ 13.270611191870371, 57.078197721198151 ] } },
{ "type": "Feature", "properties": { "community": "1315TB104_13", "namn": "Rydöbruk", "kommun": "Hylte", "lan": "13", "nattbef": 167, "i_halland": true }, "geometry": { "type": "Point", "coordinates": [ 13.133601185424787, 56.960112979103855 ] } },
{ "type": "Feature", "properties": { "community": "1315TB105_13", "namn": "Torup", "kommun": "Hylte", "lan": "13", "nattbef": 581, "i_halland": true }, "geometry": { "type": "Point", "coordinates": [ 13.073602236429734, 56.954723244232703 ] } },
{ "type": "Feature", "properties": { "community": "1315TB106_13", "namn": "Unnaryd", "kommun": "Hylte", "lan": "13", "nattbef": 331, "i_halland": true }, "geometry": { "type": "Point", "coordinates": [ 13.528524800052585, 56.955360170796581 ] } },
{ "type": "Feature", "properties": { "community": "1315TC101_13", "namn": "Hyltebruk", "kommun": "Hylte", "lan": "13", "nattbef": 1665, "i_halland": true }, "geometry": { "type": "Point", "coordinates": [ 13.240786032341978, 57.000266170497838 ] } },
{ "type": "Feature", "properties": { "community": "1380TB101_13", "namn": "Eldsberga", "kommun": "Halmstad", "lan": "13", "nattbef": 366, "i_halland": true }, "geometry": { "type": "Point", "coordinates": [ 12.989809851560953, 56.597373387850226 ] } },
{ "type": "Feature", "properties": { "community": "1380TB102_13", "namn": "Frösakull", "kommun": "Halmstad", "lan": "13", "nattbef": 1145, "i_halland": true }, "geometry": { "type": "Point", "coordinates": [ 12.732581037630155, 56.668893889686451 ] } },
{ "type": "Feature", "properties": { "community": "1380TB106_13", "namn": "Gullbranna", "kommun": "Halmstad", "lan": "13", "nattbef": 333, "i_halland": true }, "geometry": { "type": "Point", "coordinates": [ 12.948450325179376, 56.58697019164488 ] } },
{ "type": "Feature", "properties": { "community": "1380TB108_13", "namn": "Harplinge", "kommun": "Halmstad", "lan": "13", "nattbef": 864, "i_halland": true }, "geometry": { "type": "Point", "coordinates": [ 12.730669336521544, 56.742809179043554 ] } },
{ "type": "Feature", "properties": { "community": "1380TB109_13", "namn": "Haverdal", "kommun": "Halmstad", "lan": "13", "nattbef": 874, "i_halland": true }, "geometry": { "type": "Point", "coordinates": [ 12.669957915739506, 56.725656128669939 ] } },
{ "type": "Feature", "properties": { "community": "1380TB110_13", "namn": "Holm", "kommun": "Halmstad", "lan": "13", "nattbef": 443, "i_halland": true }, "geometry": { "type": "Point", "coordinates": [ 12.854355848261374, 56.739792625499696 ] } },
{ "type": "Feature", "properties": { "community": "1380TB111_13", "namn": "Kvibille", "kommun": "Halmstad", "lan": "13", "nattbef": 502, "i_halland": true }, "geometry": { "type": "Point", "coordinates": [ 12.831014304634804, 56.78285216529806 ] } },
{ "type": "Feature", "properties": { "community": "1380TB112_13", "namn": "Laxvik", "kommun": "Halmstad", "lan": "13", "nattbef": 243, "i_halland": true }, "geometry": { "type": "Point", "coordinates": [ 12.924371532975291, 56.599695132325451 ] } },
{ "type": "Feature", "properties": { "community": "1380TB113_13", "namn": "Oskarström", "kommun": "Halmstad", "lan": "13", "nattbef": 1993, "i_halland": true }, "geometry": { "type": "Point", "coordinates": [ 12.971827616824099, 56.804821114303344 ] } },
{ "type": "Feature", "properties": { "community": "1380TB114_13", "namn": "Sennan", "kommun": "Halmstad", "lan": "13", "nattbef": 195, "i_halland": true }, "geometry": { "type": "Point", "coordinates": [ 12.980707241287776, 56.773484457212476 ] } },
{ "type": "Feature", "properties": { "community": "1380TB115_13", "namn": "Simlångsdalen", "kommun": "Halmstad", "lan": "13", "nattbef": 354, "i_halland": true }, "geometry": { "type": "Point", "coordinates": [ 13.126534258376243, 56.720543861453166 ] } },
{ "type": "Feature", "properties": { "community": "1380TB116_13", "namn": "Skedala", "kommun": "Halmstad", "lan": "13", "nattbef": 281, "i_halland": true }, "geometry": { "type": "Point", "coordinates": [ 12.973717229199098, 56.694646565936971 ] } },
{ "type": "Feature", "properties": { "community": "1380TB117_13", "namn": "Steninge", "kommun": "Halmstad", "lan": "13", "nattbef": 574, "i_halland": true }, "geometry": { "type": "Point", "coordinates": [ 12.630573407613163, 56.767953204252507 ] } },
{ "type": "Feature", "properties": { "community": "1380TB118_13", "namn": "Trönninge", "kommun": "Halmstad", "lan": "13", "nattbef": 858, "i_halland": true }, "geometry": { "type": "Point", "coordinates": [ 12.942727670181482, 56.619093745390266 ] } },
{ "type": "Feature", "properties": { "community": "1380TB120_13", "namn": "Villshärad", "kommun": "Halmstad", "lan": "13", "nattbef": 324, "i_halland": true }, "geometry": { "type": "Point", "coordinates": [ 12.695465072637802, 56.694461163816932 ] } },
{ "type": "Feature", "properties": { "community": "1380TB121_13", "namn": "Åled", "kommun": "Halmstad", "lan": "13", "nattbef": 990, "i_halland": true }, "geometry": { "type": "Point", "coordinates": [ 12.948434166787258, 56.744067779315053 ] } },
{ "type": "Feature", "properties": { "community": "1380TC107_13", "namn": "Halmstad", "kommun": "Halmstad", "lan": "13", "nattbef": 36129, "i_halland": true }, "geometry": { "type": "Point", "coordinates": [ 12.864923302980239, 56.667881924521247 ] } },
{ "type": "Feature", "properties": { "community": "1381TB101_13", "namn": "Genevad", "kommun": "Laholm", "lan": "13", "nattbef": 314, "i_halland": true }, "geometry": { "type": "Point", "coordinates": [ 13.031675930437443, 56.568647270927322 ] } },
{ "type": "Feature", "properties": { "community": "1381TB102_13", "namn": "Hasslöv", "kommun": "Laholm", "lan": "13", "nattbef": 128, "i_halland": true }, "geometry": { "type": "Point", "coordinates": [ 13.006845375102587, 56.41141551574723 ] } },
{ "type": "Feature", "properties": { "community": "1381TB103_13", "namn": "Hishult", "kommun": "Laholm", "lan": "13", "nattbef": 142, "i_halland": true }, "geometry": { "type": "Point", "coordinates": [ 13.312399016848163, 56.426860235752343 ] } },
{ "type": "Feature", "properties": { "community": "1381TB104_13", "namn": "Knäred", "kommun": "Laholm", "lan": "13", "nattbef": 539, "i_halland": true }, "geometry": { "type": "Point", "coordinates": [ 13.324996879480439, 56.5181734128223 ] } },
{ "type": "Feature", "properties": { "community": "1381TB109_13", "namn": "Skottorp", "kommun": "Laholm", "lan": "13", "nattbef": 300, "i_halland": true }, "geometry": { "type": "Point", "coordinates": [ 12.95862546008733, 56.450366757786313 ] } },
{ "type": "Feature", "properties": { "community": "1381TB111_13", "namn": "Vallberga", "kommun": "Laholm", "lan": "13", "nattbef": 405, "i_halland": true }, "geometry": { "type": "Point", "coordinates": [ 13.023861676919623, 56.467586574467077 ] } },
{ "type": "Feature", "properties": { "community": "1381TB112_13", "namn": "Veinge", "kommun": "Laholm", "lan": "13", "nattbef": 722, "i_halland": true }, "geometry": { "type": "Point", "coordinates": [ 13.074981970670013, 56.557450089482636 ] } },
{ "type": "Feature", "properties": { "community": "1381TB113_13", "namn": "Våxtorp", "kommun": "Laholm", "lan": "13", "nattbef": 502, "i_halland": true }, "geometry": { "type": "Point", "coordinates": [ 13.120232343316633, 56.416762612935074 ] } },
{ "type": "Feature", "properties": { "community": "1381TB114_13", "namn": "Ysby", "kommun": "Laholm", "lan": "13", "nattbef": 138, "i_halland": true }, "geometry": { "type": "Point", "coordinates": [ 13.117642536985908, 56.492391398649886 ] } },
{ "type": "Feature", "properties": { "community": "1381TC105_13", "namn": "Laholm", "kommun": "Laholm", "lan": "13", "nattbef": 3117, "i_halland": true }, "geometry": { "type": "Point", "coordinates": [ 13.038888971571, 56.503801697151623 ] } },
{ "type": "Feature", "properties": { "community": "1382TB101_13", "namn": "Bergagård", "kommun": "Falkenberg", "lan": "13", "nattbef": 213, "i_halland": true }, "geometry": { "type": "Point", "coordinates": [ 12.577628610672143, 56.986441866131749 ] } },
{ "type": "Feature", "properties": { "community": "1382TB103_13", "namn": "Fegen", "kommun": "Falkenberg", "lan": "13", "nattbef": 108, "i_halland": true }, "geometry": { "type": "Point", "coordinates": [ 13.036764651354366, 57.106200973479119 ] } },
{ "type": "Feature", "properties": { "community": "1382TB104_13", "namn": "Glommen", "kommun": "Falkenberg", "lan": "13", "nattbef": 628, "i_halland": true }, "geometry": { "type": "Point", "coordinates": [ 12.372469151384825, 56.940086749080017 ] } },
{ "type": "Feature", "properties": { "community": "1382TB105_13", "namn": "Heberg", "kommun": "Falkenberg", "lan": "13", "nattbef": 228, "i_halland": true }, "geometry": { "type": "Point", "coordinates": [ 12.628898066306553, 56.884642707621197 ] } },
{ "type": "Feature", "properties": { "community": "1480TC108_13", "namn": "Kungsbacka", "kommun": "Göteborg", "lan": "13", "nattbef": 20841, "i_halland": true }, "geometry": { "type": "Point", "coordinates": [ 12.021565075174609, 57.521535491960044 ] } },
{ "type": "Feature", "properties": { "community": "1382TB106_13", "namn": "Köinge", "kommun": "Falkenberg", "lan": "13", "nattbef": 112, "i_halland": true }, "geometry": { "type": "Point", "coordinates": [ 12.643218886743448, 57.064468698379386 ] } },
{ "type": "Feature", "properties": { "community": "1382TB107_13", "namn": "Långås", "kommun": "Falkenberg", "lan": "13", "nattbef": 267, "i_halland": true }, "geometry": { "type": "Point", "coordinates": [ 12.449101014156779, 56.976417422162669 ] } },
{ "type": "Feature", "properties": { "community": "1382TB117_13", "namn": "Vinberg", "kommun": "Falkenberg", "lan": "13", "nattbef": 319, "i_halland": true }, "geometry": { "type": "Point", "coordinates": [ 12.543805024266069, 56.949300378091934 ] } },
{ "type": "Feature", "properties": { "community": "1382TB119_13", "namn": "Årstad", "kommun": "Falkenberg", "lan": "13", "nattbef": 144, "i_halland": true }, "geometry": { "type": "Point", "coordinates": [ 12.678420971426121, 56.917750963323229 ] } },
{ "type": "Feature", "properties": { "community": "1382TB120_13", "namn": "Älvsered", "kommun": "Falkenberg", "lan": "13", "nattbef": 214, "i_halland": true }, "geometry": { "type": "Point", "coordinates": [ 12.86552080326067, 57.24093286630125 ] } },
{ "type": "Feature", "properties": { "community": "1382TB121_13", "namn": "Ätran", "kommun": "Falkenberg", "lan": "13", "nattbef": 160, "i_halland": true }, "geometry": { "type": "Point", "coordinates": [ 12.947840596967838, 57.122145835103559 ] } },
{ "type": "Feature", "properties": { "community": "1382TB141_13", "namn": "Olofsbo", "kommun": "Falkenberg", "lan": "13", "nattbef": 95, "i_halland": true }, "geometry": { "type": "Point", "coordinates": [ 12.393390043183267, 56.92056642459103 ] } },
{ "type": "Feature", "properties": { "community": "1382TC102_13", "namn": "Falkenberg", "kommun": "Falkenberg", "lan": "13", "nattbef": 14821, "i_halland": true }, "geometry": { "type": "Point", "coordinates": [ 12.506526514668755, 56.901975902491188 ] } },
{ "type": "Feature", "properties": { "community": "1383TB101_13", "namn": "Bua", "kommun": "Varberg", "lan": "13", "nattbef": 969, "i_halland": true }, "geometry": { "type": "Point", "coordinates": [ 12.124840737722552, 57.233386309428326 ] } },
{ "type": "Feature", "properties": { "community": "1383TB102_13", "namn": "Getterön", "kommun": "Varberg", "lan": "13", "nattbef": 142, "i_halland": true }, "geometry": { "type": "Point", "coordinates": [ 12.215049775684191, 57.119042180786863 ] } },
{ "type": "Feature", "properties": { "community": "1383TB103_13", "namn": "Himle", "kommun": "Varberg", "lan": "13", "nattbef": 164, "i_halland": true }, "geometry": { "type": "Point", "coordinates": [ 12.370765778866847, 57.073393483368925 ] } },
{ "type": "Feature", "properties": { "community": "1384TB107_13", "namn": "Fjärås station", "kommun": "Kungsbacka", "lan": "13", "nattbef": 128, "i_halland": true }, "geometry": { "type": "Point", "coordinates": [ 12.156447474827331, 57.432773700965932 ] } },
{ "type": "Feature", "properties": { "community": "1384TB108_13", "namn": "Frillesås", "kommun": "Kungsbacka", "lan": "13", "nattbef": 1932, "i_halland": true }, "geometry": { "type": "Point", "coordinates": [ 12.174616114220756, 57.314551100054722 ] } },
{ "type": "Feature", "properties": { "community": "1384TB113_13", "namn": "Hjälm", "kommun": "Kungsbacka", "lan": "13", "nattbef": 151, "i_halland": true }, "geometry": { "type": "Point", "coordinates": [ 12.168020144371157, 57.494305425495924 ] } },
{ "type": "Feature", "properties": { "community": "1384TB115_13", "namn": "Kläppa", "kommun": "Kungsbacka", "lan": "13", "nattbef": 422, "i_halland": true }, "geometry": { "type": "Point", "coordinates": [ 12.157761627218623, 57.359802718709958 ] } },
{ "type": "Feature", "properties": { "community": "1384TB119_13", "namn": "Onsala", "kommun": "Kungsbacka", "lan": "13", "nattbef": 6575, "i_halland": true }, "geometry": { "type": "Point", "coordinates": [ 12.014310740017208, 57.412630080017777 ] } },
{ "type": "Feature", "properties": { "community": "1384TB122_13", "namn": "Östra Hanhals och Torkelstorp", "kommun": "Kungsbacka", "lan": "13", "nattbef": 190, "i_halland": true }, "geometry": { "type": "Point", "coordinates": [ 12.114175704868998, 57.445424802923952 ] } },
{ "type": "Feature", "properties": { "community": "1384TB123_13", "namn": "Vallda", "kommun": "Kungsbacka", "lan": "13", "nattbef": 2111, "i_halland": true }, "geometry": { "type": "Point", "coordinates": [ 11.980907918555324, 57.476579120844079 ] } },
{ "type": "Feature", "properties": { "community": "1384TB126_13", "namn": "Åsa", "kommun": "Kungsbacka", "lan": "13", "nattbef": 3059, "i_halland": true }, "geometry": { "type": "Point", "coordinates": [ 12.113143246808797, 57.350210308496052 ] } },
{ "type": "Feature", "properties": { "community": "1384TB127_13", "namn": "Västra Hagen", "kommun": "Kungsbacka", "lan": "13", "nattbef": 775, "i_halland": true }, "geometry": { "type": "Point", "coordinates": [ 11.939271605527944, 57.427779989428466 ] } },
{ "type": "Feature", "properties": { "community": "1384TB145_13", "namn": "Dala", "kommun": "Kungsbacka", "lan": "13", "nattbef": 110, "i_halland": true }, "geometry": { "type": "Point", "coordinates": [ 12.220936133181798, 57.408219198305126 ] } },
{ "type": "Feature", "properties": { "community": "1384TB164_13", "namn": "Västra Hanhals", "kommun": "Kungsbacka", "lan": "13", "nattbef": 126, "i_halland": true }, "geometry": { "type": "Point", "coordinates": [ 12.080412139710036, 57.445816826935577 ] } },
{ "type": "Feature", "properties": { "community": "0683TB102_06", "namn": "Bredaryd", "kommun": "Värnamo", "lan": "06", "nattbef": 783, "i_halland": false }, "geometry": { "type": "Point", "coordinates": [ 13.737759122197135, 57.17423208113518 ] } },
{ "type": "Feature", "properties": { "community": "0617TC101_06", "namn": "Gnosjö", "kommun": "Gnosjö", "lan": "06", "nattbef": 2134, "i_halland": false }, "geometry": { "type": "Point", "coordinates": [ 13.740173277643377, 57.353878623930022 ] } },
{ "type": "Feature", "properties": { "community": "0643TC104_06", "namn": "Habo", "kommun": "Habo", "lan": "06", "nattbef": 4878, "i_halland": false }, "geometry": { "type": "Point", "coordinates": [ 14.086421198868601, 57.904637826473902 ] } },
{ "type": "Feature", "properties": { "community": "0662TB101_06", "namn": "Anderstorp", "kommun": "Gislaved", "lan": "06", "nattbef": 2631, "i_halland": false }, "geometry": { "type": "Point", "coordinates": [ 13.632840229621143, 57.280202797651107 ] } },
{ "type": "Feature", "properties": { "community": "0662TB102_06", "namn": "Broaryd", "kommun": "Gislaved", "lan": "06", "nattbef": 146, "i_halland": false }, "geometry": { "type": "Point", "coordinates": [ 13.255065233780149, 57.122087143837952 ] } },
{ "type": "Feature", "properties": { "community": "0662TB103_06", "namn": "Burseryd", "kommun": "Gislaved", "lan": "06", "nattbef": 401, "i_halland": false }, "geometry": { "type": "Point", "coordinates": [ 13.285489804416619, 57.201014209722658 ] } },
{ "type": "Feature", "properties": { "community": "0662TB106_06", "namn": "Reftele", "kommun": "Gislaved", "lan": "06", "nattbef": 657, "i_halland": false }, "geometry": { "type": "Point", "coordinates": [ 13.5961001473138, 57.174943873999716 ] } },
{ "type": "Feature", "properties": { "community": "0662TB107_06", "namn": "Skeppshult", "kommun": "Gislaved", "lan": "06", "nattbef": 208, "i_halland": false }, "geometry": { "type": "Point", "coordinates": [ 13.375422810205835, 57.124975051269864 ] } },
{ "type": "Feature", "properties": { "community": "0662TB108_06", "namn": "Smålandsstenar", "kommun": "Gislaved", "lan": "06", "nattbef": 2316, "i_halland": false }, "geometry": { "type": "Point", "coordinates": [ 13.406541467673877, 57.160761688026447 ] } },
{ "type": "Feature", "properties": { "community": "0662TC104_06", "namn": "Gislaved", "kommun": "Gislaved", "lan": "06", "nattbef": 4846, "i_halland": false }, "geometry": { "type": "Point", "coordinates": [ 13.546450331919953, 57.298301081908107 ] } },
{ "type": "Feature", "properties": { "community": "0680TC107_06", "namn": "Jönköping", "kommun": "Jönköping", "lan": "06", "nattbef": 53710, "i_halland": false }, "geometry": { "type": "Point", "coordinates": [ 14.186493194061629, 57.759900423249981 ] } },
{ "type": "Feature", "properties": { "community": "0685TC111_06", "namn": "Vetlanda", "kommun": "Vetlanda", "lan": "06", "nattbef": 6804, "i_halland": false }, "geometry": { "type": "Point", "coordinates": [ 15.078004335558832, 57.422939580301971 ] } },
{ "type": "Feature", "properties": { "community": "0686TC102_06", "namn": "Eksjö", "kommun": "Eksjö", "lan": "06", "nattbef": 5331, "i_halland": false }, "geometry": { "type": "Point", "coordinates": [ 14.972243711067582, 57.662017923230991 ] } },
{ "type": "Feature", "properties": { "community": "0683TC110_06", "namn": "Värnamo", "kommun": "Värnamo", "lan": "06", "nattbef": 10649, "i_halland": false }, "geometry": { "type": "Point", "coordinates": [ 14.03774011860602, 57.186587748110888 ] } },
{ "type": "Feature", "properties": { "community": "0764TC101_07", "namn": "Alvesta", "kommun": "Alvesta", "lan": "07", "nattbef": 3963, "i_halland": false }, "geometry": { "type": "Point", "coordinates": [ 14.553443408151233, 56.901251102582378 ] } },
{ "type": "Feature", "properties": { "community": "0765TC106_07", "namn": "Älmhult", "kommun": "Älmhult", "lan": "07", "nattbef": 5210, "i_halland": false }, "geometry": { "type": "Point", "coordinates": [ 14.134770718196492, 56.551959976967225 ] } },
{ "type": "Feature", "properties": { "community": "0767TB102_07", "namn": "Strömsnäsbruk", "kommun": "Markaryd", "lan": "07", "nattbef": 898, "i_halland": false }, "geometry": { "type": "Point", "coordinates": [ 13.729496142651083, 56.549171943843575 ] } },
{ "type": "Feature", "properties": { "community": "0767TC101_07", "namn": "Markaryd", "kommun": "Markaryd", "lan": "07", "nattbef": 2558, "i_halland": false }, "geometry": { "type": "Point", "coordinates": [ 13.60117591889404, 56.459629794586256 ] } },
{ "type": "Feature", "properties": { "community": "0780TC110_07", "namn": "Växjö", "kommun": "Växjö", "lan": "07", "nattbef": 37994, "i_halland": false }, "geometry": { "type": "Point", "coordinates": [ 14.799178963223802, 56.888156477841456 ] } },
{ "type": "Feature", "properties": { "community": "0781TB105_07", "namn": "Lidhult", "kommun": "Ljungby", "lan": "07", "nattbef": 235, "i_halland": false }, "geometry": { "type": "Point", "coordinates": [ 13.439302005441498, 56.827612907604127 ] } },
{ "type": "Feature", "properties": { "community": "0781TC106_07", "namn": "Ljungby", "kommun": "Ljungby", "lan": "07", "nattbef": 8215, "i_halland": false }, "geometry": { "type": "Point", "coordinates": [ 13.935982541586512, 56.831966856283834 ] } },
{ "type": "Feature", "properties": { "community": "1262TB101_12", "namn": "Bjärred", "kommun": "Lomma", "lan": "12", "nattbef": 4678, "i_halland": false }, "geometry": { "type": "Point", "coordinates": [ 13.027620150035508, 55.721992192011562 ] } },
{ "type": "Feature", "properties": { "community": "1230TB103_12", "namn": "Hjärup", "kommun": "Staffanstorp", "lan": "12", "nattbef": 3134, "i_halland": false }, "geometry": { "type": "Point", "coordinates": [ 13.143810570610901, 55.670523914541015 ] } },
{ "type": "Feature", "properties": { "community": "1233TB104_12", "namn": "Höllviken och Ljunghusen", "kommun": "Vellinge", "lan": "12", "nattbef": 7854, "i_halland": false }, "geometry": { "type": "Point", "coordinates": [ 12.954567947579374, 55.40838473697525 ] } },
{ "type": "Feature", "properties": { "community": "1257TC104_12", "namn": "Örkelljunga", "kommun": "Örkelljunga", "lan": "12", "nattbef": 2536, "i_halland": false }, "geometry": { "type": "Point", "coordinates": [ 13.289695039014699, 56.283569491390843 ] } },
{ "type": "Feature", "properties": { "community": "1260TC102_12", "namn": "Bjuv", "kommun": "Bjuv", "lan": "12", "nattbef": 5188, "i_halland": false }, "geometry": { "type": "Point", "coordinates": [ 12.942857559589861, 56.071505732807189 ] } },
{ "type": "Feature", "properties": { "community": "1261TB109_12", "namn": "Löddeköpinge", "kommun": "Kävlinge", "lan": "12", "nattbef": 3166, "i_halland": false }, "geometry": { "type": "Point", "coordinates": [ 13.00480432496324, 55.762480148575861 ] } },
{ "type": "Feature", "properties": { "community": "1262TC103_12", "namn": "Lomma", "kommun": "Lomma", "lan": "12", "nattbef": 6731, "i_halland": false }, "geometry": { "type": "Point", "coordinates": [ 13.079855564574421, 55.674833310576339 ] } },
{ "type": "Feature", "properties": { "community": "1263TC105_12", "namn": "Svedala", "kommun": "Svedala", "lan": "12", "nattbef": 6922, "i_halland": false }, "geometry": { "type": "Point", "coordinates": [ 13.233250182582371, 55.512809022253094 ] } },
{ "type": "Feature", "properties": { "community": "1278TB103_12", "namn": "Grevie", "kommun": "Båstad", "lan": "12", "nattbef": 530, "i_halland": false }, "geometry": { "type": "Point", "coordinates": [ 12.785792704282564, 56.387995823402399 ] } },
{ "type": "Feature", "properties": { "community": "1278TB104_12", "namn": "Torekov", "kommun": "Båstad", "lan": "12", "nattbef": 385, "i_halland": false }, "geometry": { "type": "Point", "coordinates": [ 12.643036715862607, 56.425276268577235 ] } },
{ "type": "Feature", "properties": { "community": "1278TB105_12", "namn": "Västra Karup", "kommun": "Båstad", "lan": "12", "nattbef": 298, "i_halland": false }, "geometry": { "type": "Point", "coordinates": [ 12.729476664963405, 56.406966654236243 ] } },
{ "type": "Feature", "properties": { "community": "1278TC101_12", "namn": "Båstad", "kommun": "Båstad", "lan": "12", "nattbef": 3308, "i_halland": false }, "geometry": { "type": "Point", "coordinates": [ 12.870290502784394, 56.430348520730369 ] } },
{ "type": "Feature", "properties": { "community": "1265TC105_12", "namn": "Sjöbo", "kommun": "Sjöbo", "lan": "12", "nattbef": 4039, "i_halland": false }, "geometry": { "type": "Point", "coordinates": [ 13.696210978011621, 55.633805167791053 ] } },
{ "type": "Feature", "properties": { "community": "1267TC103_12", "namn": "Höör", "kommun": "Höör", "lan": "12", "nattbef": 7012, "i_halland": false }, "geometry": { "type": "Point", "coordinates": [ 13.551407869012163, 55.925648689733571 ] } },
{ "type": "Feature", "properties": { "community": "1273TC104_12", "namn": "Osby", "kommun": "Osby", "lan": "12", "nattbef": 3498, "i_halland": false }, "geometry": { "type": "Point", "coordinates": [ 13.995620979549724, 56.380045922690854 ] } },
{ "type": "Feature", "properties": { "community": "1275TC101_12", "namn": "Perstorp", "kommun": "Perstorp", "lan": "12", "nattbef": 2321, "i_halland": false }, "geometry": { "type": "Point", "coordinates": [ 13.389979010748984, 56.137487898788756 ] } },
{ "type": "Feature", "properties": { "community": "1276TB105_12", "namn": "Östra Ljungby", "kommun": "Klippan", "lan": "12", "nattbef": 882, "i_halland": false }, "geometry": { "type": "Point", "coordinates": [ 13.090009026399827, 56.19539148766583 ] } },
{ "type": "Feature", "properties": { "community": "1276TC101_12", "namn": "Klippan", "kommun": "Klippan", "lan": "12", "nattbef": 4131, "i_halland": false }, "geometry": { "type": "Point", "coordinates": [ 13.14754609026703, 56.134383630870744 ] } },
{ "type": "Feature", "properties": { "community": "1277TC104_12", "namn": "Åstorp", "kommun": "Åstorp", "lan": "12", "nattbef": 4485, "i_halland": false }, "geometry": { "type": "Point", "coordinates": [ 12.937764029538918, 56.132948132300037 ] } },
{ "type": "Feature", "properties": { "community": "1278TB102_12", "namn": "Förslöv", "kommun": "Båstad", "lan": "12", "nattbef": 1191, "i_halland": false }, "geometry": { "type": "Point", "coordinates": [ 12.817190691791238, 56.35197257574594 ] } },
{ "type": "Feature", "properties": { "community": "1280TC106_12", "namn": "Malmö", "kommun": "Malmö", "lan": "12", "nattbef": 169574, "i_halland": false }, "geometry": { "type": "Point", "coordinates": [ 13.021485780177324, 55.592319666794531 ] } },
{ "type": "Feature", "properties": { "community": "1281TB101_12", "namn": "Dalby", "kommun": "Lund", "lan": "12", "nattbef": 3232, "i_halland": false }, "geometry": { "type": "Point", "coordinates": [ 13.354390566823664, 55.665184576004478 ] } },
{ "type": "Feature", "properties": { "community": "1281TB108_12", "namn": "Södra Sandby", "kommun": "Lund", "lan": "12", "nattbef": 3241, "i_halland": false }, "geometry": { "type": "Point", "coordinates": [ 13.345902550055586, 55.717941775357218 ] } },
{ "type": "Feature", "properties": { "community": "1281TC105_12", "namn": "Lund", "kommun": "Lund", "lan": "12", "nattbef": 45937, "i_halland": false }, "geometry": { "type": "Point", "coordinates": [ 13.199344192381226, 55.70866283154816 ] } },
{ "type": "Feature", "properties": { "community": "1290TC112_12", "namn": "Kristianstad", "kommun": "Kristianstad", "lan": "12", "nattbef": 18908, "i_halland": false }, "geometry": { "type": "Point", "coordinates": [ 14.140474051327773, 56.024981604176595 ] } },
{ "type": "Feature", "properties": { "community": "1282TC108_12", "namn": "Landskrona", "kommun": "Landskrona", "lan": "12", "nattbef": 14999, "i_halland": false }, "geometry": { "type": "Point", "coordinates": [ 12.840477622556714, 55.879874556918793 ] } },
{ "type": "Feature", "properties": { "community": "1283TB108_12", "namn": "Hittarp", "kommun": "Helsingborg", "lan": "12", "nattbef": 2350, "i_halland": false }, "geometry": { "type": "Point", "coordinates": [ 12.653304974283193, 56.0941158173028 ] } },
{ "type": "Feature", "properties": { "community": "1283TB111_12", "namn": "Påarp", "kommun": "Helsingborg", "lan": "12", "nattbef": 2916, "i_halland": false }, "geometry": { "type": "Point", "coordinates": [ 12.811804264403651, 56.021084224549803 ] } },
{ "type": "Feature", "properties": { "community": "1283TB112_12", "namn": "Rydebäck", "kommun": "Helsingborg", "lan": "12", "nattbef": 3165, "i_halland": false }, "geometry": { "type": "Point", "coordinates": [ 12.772578627686771, 55.965401736205393 ] } },
{ "type": "Feature", "properties": { "community": "1283TB116_12", "namn": "Ödåkra", "kommun": "Helsingborg", "lan": "12", "nattbef": 2781, "i_halland": false }, "geometry": { "type": "Point", "coordinates": [ 12.751880103654347, 56.099757060737417 ] } },
{ "type": "Feature", "properties": { "community": "1283TC107_12", "namn": "Helsingborg", "kommun": "Helsingborg", "lan": "12", "nattbef": 55507, "i_halland": false }, "geometry": { "type": "Point", "coordinates": [ 12.727000613877685, 56.042711860934105 ] } },
{ "type": "Feature", "properties": { "community": "1284TB101_12", "namn": "Farhult", "kommun": "Höganäs", "lan": "12", "nattbef": 233, "i_halland": false }, "geometry": { "type": "Point", "coordinates": [ 12.718840687367768, 56.222317466898922 ] } },
{ "type": "Feature", "properties": { "community": "1284TB105_12", "namn": "Jonstorp", "kommun": "Höganäs", "lan": "12", "nattbef": 1146, "i_halland": false }, "geometry": { "type": "Point", "coordinates": [ 12.671893020993245, 56.233736888743195 ] } },
{ "type": "Feature", "properties": { "community": "1284TB109_12", "namn": "Viken", "kommun": "Höganäs", "lan": "12", "nattbef": 2531, "i_halland": false }, "geometry": { "type": "Point", "coordinates": [ 12.578970757952723, 56.15132838640595 ] } },
{ "type": "Feature", "properties": { "community": "1284TC103_12", "namn": "Höganäs", "kommun": "Höganäs", "lan": "12", "nattbef": 7681, "i_halland": false }, "geometry": { "type": "Point", "coordinates": [ 12.562673067671453, 56.204630281478934 ] } },
{ "type": "Feature", "properties": { "community": "1285TC102_12", "namn": "Eslöv", "kommun": "Eslöv", "lan": "12", "nattbef": 9544, "i_halland": false }, "geometry": { "type": "Point", "coordinates": [ 13.300600203251156, 55.838831323535253 ] } },
{ "type": "Feature", "properties": { "community": "1287TC110_12", "namn": "Trelleborg", "kommun": "Trelleborg", "lan": "12", "nattbef": 15030, "i_halland": false }, "geometry": { "type": "Point", "coordinates": [ 13.178560658321151, 55.372608425529315 ] } },
{ "type": "Feature", "properties": { "community": "1290TB126_12", "namn": "Åhus", "kommun": "Kristianstad", "lan": "12", "nattbef": 5150, "i_halland": false }, "geometry": { "type": "Point", "coordinates": [ 14.294399897833253, 55.92939826941128 ] } },
{ "type": "Feature", "properties": { "community": "1292TB101_12", "namn": "Hjärnarp", "kommun": "Ängelholm", "lan": "12", "nattbef": 557, "i_halland": false }, "geometry": { "type": "Point", "coordinates": [ 12.920467753291188, 56.319446326654109 ] } },
{ "type": "Feature", "properties": { "community": "1292TB103_12", "namn": "Lerbäckshult och Tullstorp", "kommun": "Ängelholm", "lan": "12", "nattbef": 355, "i_halland": false }, "geometry": { "type": "Point", "coordinates": [ 12.978139980873577, 56.333575473546659 ] } },
{ "type": "Feature", "properties": { "community": "1292TB105_12", "namn": "Munka-Ljungby", "kommun": "Ängelholm", "lan": "12", "nattbef": 1849, "i_halland": false }, "geometry": { "type": "Point", "coordinates": [ 12.973405552194642, 56.259103180699725 ] } },
{ "type": "Feature", "properties": { "community": "1292TB107_12", "namn": "Strövelstorp", "kommun": "Ängelholm", "lan": "12", "nattbef": 789, "i_halland": false }, "geometry": { "type": "Point", "coordinates": [ 12.84340427997228, 56.175494534232008 ] } },
{ "type": "Feature", "properties": { "community": "1292TB108_12", "namn": "Svenstorp", "kommun": "Ängelholm", "lan": "12", "nattbef": 161, "i_halland": false }, "geometry": { "type": "Point", "coordinates": [ 12.93027615874089, 56.341728994148411 ] } },
{ "type": "Feature", "properties": { "community": "1292TC111_12", "namn": "Ängelholm", "kommun": "Ängelholm", "lan": "12", "nattbef": 15537, "i_halland": false }, "geometry": { "type": "Point", "coordinates": [ 12.843934362146809, 56.265507607543661 ] } },
{ "type": "Feature", "properties": { "community": "1293TB102_12", "namn": "Bjärnum", "kommun": "Hässleholm", "lan": "12", "nattbef": 1180, "i_halland": false }, "geometry": { "type": "Point", "coordinates": [ 13.710919682746278, 56.294232397395973 ] } },
{ "type": "Feature", "properties": { "community": "1293TB114_12", "namn": "Tyringe", "kommun": "Hässleholm", "lan": "12", "nattbef": 2090, "i_halland": false }, "geometry": { "type": "Point", "coordinates": [ 13.603181301865842, 56.159059902488529 ] } },
{ "type": "Feature", "properties": { "community": "1293TC105_12", "namn": "Hässleholm", "kommun": "Hässleholm", "lan": "12", "nattbef": 9299, "i_halland": false }, "geometry": { "type": "Point", "coordinates": [ 13.779231120017007, 56.160063031308376 ] } }
]
}
