{
"type": "FeatureCollection",
"name": "03-jarnvag-karta-stationer",
"xy_coordinate_resolution": 1e-05,
"features": [
{ "type": "Feature", "properties": { "station": "Anneberg", "i_halland": 1, "kommun": "Kungsbacka", "avgangar_dygn": 121, "avgangar_06_20": 96, "forsta_avgang": "04:54", "sista_avgang": "01:09", "produkter": "Pendeltåg Göteborg–Kungsbacka", "operatorer": "Västtrafik", "restid_goteborg_min": 21.0, "direkta_goteborg": 61, "restid_malmo_min": 163.0, "direkta_malmo": 0 }, "geometry": { "type": "Point", "coordinates": [ 12.10124, 57.53926 ] } },
{ "type": "Feature", "properties": { "station": "Aspedalen", "i_halland": 0, "kommun": null, "avgangar_dygn": 40, "avgangar_06_20": 28, "forsta_avgang": "04:56", "sista_avgang": "01:02", "produkter": "Västtåg", "operatorer": "Västtrafik", "restid_goteborg_min": null, "direkta_goteborg": null, "restid_malmo_min": null, "direkta_malmo": null }, "geometry": { "type": "Point", "coordinates": [ 12.25911, 57.76309 ] } },
{ "type": "Feature", "properties": { "station": "Aspen", "i_halland": 0, "kommun": null, "avgangar_dygn": 83, "avgangar_06_20": 56, "forsta_avgang": "04:29", "sista_avgang": "01:04", "produkter": "Västtåg", "operatorer": "Västtrafik", "restid_goteborg_min": null, "direkta_goteborg": null, "restid_malmo_min": null, "direkta_malmo": null }, "geometry": { "type": "Point", "coordinates": [ 12.24138, 57.75447 ] } },
{ "type": "Feature", "properties": { "station": "Assberg", "i_halland": 0, "kommun": null, "avgangar_dygn": 25, "avgangar_06_20": 22, "forsta_avgang": "05:51", "sista_avgang": "21:31", "produkter": "Västtåg, Västtåg Viskadalsbanan", "operatorer": "Västtrafik", "restid_goteborg_min": null, "direkta_goteborg": null, "restid_malmo_min": null, "direkta_malmo": null }, "geometry": { "type": "Point", "coordinates": [ 12.6697, 57.49483 ] } },
{ "type": "Feature", "properties": { "station": "Ballingslöv", "i_halland": 0, "kommun": null, "avgangar_dygn": 24, "avgangar_06_20": 22, "forsta_avgang": "05:29", "sista_avgang": "20:26", "produkter": "Krösatåg", "operatorer": "Krösatågen", "restid_goteborg_min": null, "direkta_goteborg": null, "restid_malmo_min": null, "direkta_malmo": null }, "geometry": { "type": "Point", "coordinates": [ 13.8489, 56.21448 ] } },
{ "type": "Feature", "properties": { "station": "Barkåkra", "i_halland": 0, "kommun": null, "avgangar_dygn": 60, "avgangar_06_20": 46, "forsta_avgang": "04:42", "sista_avgang": "00:15", "produkter": "Pågatåg", "operatorer": "Skånetrafiken", "restid_goteborg_min": null, "direkta_goteborg": null, "restid_malmo_min": null, "direkta_malmo": null }, "geometry": { "type": "Point", "coordinates": [ 12.82782, 56.28782 ] } },
{ "type": "Feature", "properties": { "station": "Berghem", "i_halland": 0, "kommun": null, "avgangar_dygn": 24, "avgangar_06_20": 21, "forsta_avgang": "05:58", "sista_avgang": "21:25", "produkter": "Västtåg Viskadalsbanan", "operatorer": "Västtrafik", "restid_goteborg_min": null, "direkta_goteborg": null, "restid_malmo_min": null, "direkta_malmo": null }, "geometry": { "type": "Point", "coordinates": [ 12.59837, 57.46698 ] } },
{ "type": "Feature", "properties": { "station": "Billesholm", "i_halland": 0, "kommun": null, "avgangar_dygn": 38, "avgangar_06_20": 28, "forsta_avgang": "05:14", "sista_avgang": "23:42", "produkter": "Pågatåg", "operatorer": "Skånetrafiken", "restid_goteborg_min": null, "direkta_goteborg": null, "restid_malmo_min": null, "direkta_malmo": null }, "geometry": { "type": "Point", "coordinates": [ 12.97663, 56.05649 ] } },
{ "type": "Feature", "properties": { "station": "Bjärnum", "i_halland": 0, "kommun": null, "avgangar_dygn": 22, "avgangar_06_20": 16, "forsta_avgang": "05:11", "sista_avgang": "23:26", "produkter": "Pågatåg", "operatorer": "Skånetrafiken", "restid_goteborg_min": null, "direkta_goteborg": null, "restid_malmo_min": null, "direkta_malmo": null }, "geometry": { "type": "Point", "coordinates": [ 13.70687, 56.29144 ] } },
{ "type": "Feature", "properties": { "station": "Björketorp", "i_halland": 0, "kommun": null, "avgangar_dygn": 24, "avgangar_06_20": 22, "forsta_avgang": "06:04", "sista_avgang": "21:19", "produkter": "Västtåg Viskadalsbanan", "operatorer": "Västtrafik", "restid_goteborg_min": null, "direkta_goteborg": null, "restid_malmo_min": null, "direkta_malmo": null }, "geometry": { "type": "Point", "coordinates": [ 12.52347, 57.42769 ] } },
{ "type": "Feature", "properties": { "station": "Bollebygd", "i_halland": 0, "kommun": null, "avgangar_dygn": 16, "avgangar_06_20": 15, "forsta_avgang": "05:49", "sista_avgang": "19:42", "produkter": "Västtåg", "operatorer": "Västtrafik", "restid_goteborg_min": null, "direkta_goteborg": null, "restid_malmo_min": null, "direkta_malmo": null }, "geometry": { "type": "Point", "coordinates": [ 12.56877, 57.66723 ] } },
{ "type": "Feature", "properties": { "station": "Bor", "i_halland": 0, "kommun": null, "avgangar_dygn": 20, "avgangar_06_20": 16, "forsta_avgang": "05:39", "sista_avgang": "22:05", "produkter": "Krösatåg", "operatorer": "Jönköpings Länstrafik", "restid_goteborg_min": null, "direkta_goteborg": null, "restid_malmo_min": null, "direkta_malmo": null }, "geometry": { "type": "Point", "coordinates": [ 14.16941, 57.11588 ] } },
{ "type": "Feature", "properties": { "station": "Borås C", "i_halland": 0, "kommun": null, "avgangar_dygn": 42, "avgangar_06_20": 37, "forsta_avgang": "05:16", "sista_avgang": "20:22", "produkter": "SJ Regional, Västtåg, Västtåg Viskadalsbanan", "operatorer": "SJ, Västtrafik", "restid_goteborg_min": null, "direkta_goteborg": null, "restid_malmo_min": null, "direkta_malmo": null }, "geometry": { "type": "Point", "coordinates": [ 12.932, 57.72084 ] } },
{ "type": "Feature", "properties": { "station": "Bredaryd", "i_halland": 0, "kommun": null, "avgangar_dygn": 10, "avgangar_06_20": 9, "forsta_avgang": "06:17", "sista_avgang": "20:34", "produkter": "Krösatåg", "operatorer": "Jönköpings Länstrafik", "restid_goteborg_min": null, "direkta_goteborg": null, "restid_malmo_min": null, "direkta_malmo": null }, "geometry": { "type": "Point", "coordinates": [ 13.73807, 57.17632 ] } },
{ "type": "Feature", "properties": { "station": "Båstad", "i_halland": 0, "kommun": null, "avgangar_dygn": 53, "avgangar_06_20": 41, "forsta_avgang": "05:26", "sista_avgang": "00:27", "produkter": "Pågatåg, Öresundståg", "operatorer": "Skånetrafiken, Öresundståg", "restid_goteborg_min": null, "direkta_goteborg": null, "restid_malmo_min": null, "direkta_malmo": null }, "geometry": { "type": "Point", "coordinates": [ 12.90699, 56.43184 ] } },
{ "type": "Feature", "properties": { "station": "Derome", "i_halland": 1, "kommun": "Varberg", "avgangar_dygn": 24, "avgangar_06_20": 22, "forsta_avgang": "06:22", "sista_avgang": "21:07", "produkter": "Västtåg Viskadalsbanan", "operatorer": "Västtrafik", "restid_goteborg_min": 57.0, "direkta_goteborg": 0, "restid_malmo_min": 136.0, "direkta_malmo": 0 }, "geometry": { "type": "Point", "coordinates": [ 12.31979, 57.23041 ] } },
{ "type": "Feature", "properties": { "station": "Diö", "i_halland": 0, "kommun": null, "avgangar_dygn": 24, "avgangar_06_20": 20, "forsta_avgang": "04:46", "sista_avgang": "21:00", "produkter": "Krösatåg", "operatorer": "Krösatågen", "restid_goteborg_min": null, "direkta_goteborg": null, "restid_malmo_min": null, "direkta_malmo": null }, "geometry": { "type": "Point", "coordinates": [ 14.21526, 56.63418 ] } },
{ "type": "Feature", "properties": { "station": "Falkenberg", "i_halland": 1, "kommun": "Falkenberg", "avgangar_dygn": 58, "avgangar_06_20": 45, "forsta_avgang": "05:11", "sista_avgang": "00:49", "produkter": "Öresundståg", "operatorer": "Öresundståg", "restid_goteborg_min": 53.0, "direkta_goteborg": 28, "restid_malmo_min": 98.0, "direkta_malmo": 17 }, "geometry": { "type": "Point", "coordinates": [ 12.50756, 56.91977 ] } },
{ "type": "Feature", "properties": { "station": "Floda", "i_halland": 0, "kommun": null, "avgangar_dygn": 65, "avgangar_06_20": 44, "forsta_avgang": "04:20", "sista_avgang": "00:53", "produkter": "Västtåg", "operatorer": "Västtrafik", "restid_goteborg_min": null, "direkta_goteborg": null, "restid_malmo_min": null, "direkta_malmo": null }, "geometry": { "type": "Point", "coordinates": [ 12.36133, 57.81007 ] } },
{ "type": "Feature", "properties": { "station": "Forsheda", "i_halland": 0, "kommun": null, "avgangar_dygn": 10, "avgangar_06_20": 9, "forsta_avgang": "06:12", "sista_avgang": "20:29", "produkter": "Krösatåg", "operatorer": "Jönköpings Länstrafik", "restid_goteborg_min": null, "direkta_goteborg": null, "restid_malmo_min": null, "direkta_malmo": null }, "geometry": { "type": "Point", "coordinates": [ 13.83309, 57.16342 ] } },
{ "type": "Feature", "properties": { "station": "Fritsla", "i_halland": 0, "kommun": null, "avgangar_dygn": 25, "avgangar_06_20": 22, "forsta_avgang": "05:42", "sista_avgang": "21:41", "produkter": "Västtåg, Västtåg Viskadalsbanan", "operatorer": "Västtrafik", "restid_goteborg_min": null, "direkta_goteborg": null, "restid_malmo_min": null, "direkta_malmo": null }, "geometry": { "type": "Point", "coordinates": [ 12.78992, 57.55785 ] } },
{ "type": "Feature", "properties": { "station": "Förslöv", "i_halland": 0, "kommun": null, "avgangar_dygn": 37, "avgangar_06_20": 29, "forsta_avgang": "05:10", "sista_avgang": "00:10", "produkter": "Pågatåg", "operatorer": "Skånetrafiken", "restid_goteborg_min": null, "direkta_goteborg": null, "restid_malmo_min": null, "direkta_malmo": null }, "geometry": { "type": "Point", "coordinates": [ 12.80061, 56.35425 ] } },
{ "type": "Feature", "properties": { "station": "Gamlestaden", "i_halland": 0, "kommun": null, "avgangar_dygn": 185, "avgangar_06_20": 152, "forsta_avgang": "04:24", "sista_avgang": "01:43", "produkter": "Snälltåget, Västtåg", "operatorer": "Snälltåget, Västtrafik", "restid_goteborg_min": null, "direkta_goteborg": null, "restid_malmo_min": null, "direkta_malmo": null }, "geometry": { "type": "Point", "coordinates": [ 12.00441, 57.72915 ] } },
{ "type": "Feature", "properties": { "station": "Gantofta", "i_halland": 0, "kommun": null, "avgangar_dygn": 38, "avgangar_06_20": 28, "forsta_avgang": "04:41", "sista_avgang": "00:18", "produkter": "Pågatåg", "operatorer": "Skånetrafiken", "restid_goteborg_min": null, "direkta_goteborg": null, "restid_malmo_min": null, "direkta_malmo": null }, "geometry": { "type": "Point", "coordinates": [ 12.80575, 55.99049 ] } },
{ "type": "Feature", "properties": { "station": "Gnosjö", "i_halland": 0, "kommun": null, "avgangar_dygn": 8, "avgangar_06_20": 8, "forsta_avgang": "07:49", "sista_avgang": "19:50", "produkter": "SJ Regional", "operatorer": "SJ", "restid_goteborg_min": null, "direkta_goteborg": null, "restid_malmo_min": null, "direkta_malmo": null }, "geometry": { "type": "Point", "coordinates": [ 13.73551, 57.35824 ] } },
{ "type": "Feature", "properties": { "station": "Göteborg C", "i_halland": 0, "kommun": null, "avgangar_dygn": 329, "avgangar_06_20": 266, "forsta_avgang": "04:16", "sista_avgang": "00:30", "produkter": "Pendeltåg Göteborg–Kungsbacka, SJ Regional, SJ Snabbtåg, VR Snabbtåg, Vy Norge, Värmlandstrafik, Västtåg, Västtåg Göteborg–Varberg, Öresundståg", "operatorer": "SJ, VR Snabbtåg, Vy Norge, Värmlandstrafik, Västtrafik, Öresundståg", "restid_goteborg_min": null, "direkta_goteborg": null, "restid_malmo_min": null, "direkta_malmo": null }, "geometry": { "type": "Point", "coordinates": [ 11.97348, 57.7089 ] } },
{ "type": "Feature", "properties": { "station": "Halmstad C", "i_halland": 1, "kommun": "Halmstad", "avgangar_dygn": 77, "avgangar_06_20": 63, "forsta_avgang": "04:53", "sista_avgang": "23:14", "produkter": "Krösatåg, Pågatåg, SJ Snabbtåg, Snälltåget, Öresundståg", "operatorer": "Jönköpings Länstrafik, SJ, Skånetrafiken, Snälltåget, Öresundståg", "restid_goteborg_min": 60.0, "direkta_goteborg": 36, "restid_malmo_min": 74.0, "direkta_malmo": 27 }, "geometry": { "type": "Point", "coordinates": [ 12.86484, 56.66927 ] } },
{ "type": "Feature", "properties": { "station": "Hede", "i_halland": 1, "kommun": "Kungsbacka", "avgangar_dygn": 121, "avgangar_06_20": 96, "forsta_avgang": "04:51", "sista_avgang": "01:06", "produkter": "Pendeltåg Göteborg–Kungsbacka", "operatorer": "Västtrafik", "restid_goteborg_min": 24.0, "direkta_goteborg": 61, "restid_malmo_min": 160.0, "direkta_malmo": 0 }, "geometry": { "type": "Point", "coordinates": [ 12.08358, 57.51309 ] } },
{ "type": "Feature", "properties": { "station": "Helsingborg C", "i_halland": 0, "kommun": null, "avgangar_dygn": 181, "avgangar_06_20": 150, "forsta_avgang": "04:18", "sista_avgang": "23:21", "produkter": "Pågatåg, SJ Snabbtåg, Snälltåget, Öresundståg", "operatorer": "SJ, Skånetrafiken, Snälltåget, Öresundståg", "restid_goteborg_min": null, "direkta_goteborg": null, "restid_malmo_min": null, "direkta_malmo": null }, "geometry": { "type": "Point", "coordinates": [ 12.69426, 56.0444 ] } },
{ "type": "Feature", "properties": { "station": "Hestra", "i_halland": 0, "kommun": null, "avgangar_dygn": 8, "avgangar_06_20": 8, "forsta_avgang": "07:40", "sista_avgang": "19:41", "produkter": "SJ Regional", "operatorer": "SJ", "restid_goteborg_min": null, "direkta_goteborg": null, "restid_malmo_min": null, "direkta_malmo": null }, "geometry": { "type": "Point", "coordinates": [ 13.59584, 57.44329 ] } },
{ "type": "Feature", "properties": { "station": "Hindås", "i_halland": 0, "kommun": null, "avgangar_dygn": 16, "avgangar_06_20": 16, "forsta_avgang": "06:01", "sista_avgang": "19:29", "produkter": "Västtåg", "operatorer": "Västtrafik", "restid_goteborg_min": null, "direkta_goteborg": null, "restid_malmo_min": null, "direkta_malmo": null }, "geometry": { "type": "Point", "coordinates": [ 12.45123, 57.70445 ] } },
{ "type": "Feature", "properties": { "station": "Horred", "i_halland": 0, "kommun": null, "avgangar_dygn": 24, "avgangar_06_20": 22, "forsta_avgang": "06:12", "sista_avgang": "21:12", "produkter": "Västtåg Viskadalsbanan", "operatorer": "Västtrafik", "restid_goteborg_min": null, "direkta_goteborg": null, "restid_malmo_min": null, "direkta_malmo": null }, "geometry": { "type": "Point", "coordinates": [ 12.47727, 57.35334 ] } },
{ "type": "Feature", "properties": { "station": "Hovslätt", "i_halland": 0, "kommun": null, "avgangar_dygn": 28, "avgangar_06_20": 26, "forsta_avgang": "06:21", "sista_avgang": "20:44", "produkter": "Krösatåg", "operatorer": "Jönköpings Länstrafik", "restid_goteborg_min": null, "direkta_goteborg": null, "restid_malmo_min": null, "direkta_malmo": null }, "geometry": { "type": "Point", "coordinates": [ 14.12422, 57.73507 ] } },
{ "type": "Feature", "properties": { "station": "Hässleholm C", "i_halland": 0, "kommun": null, "avgangar_dygn": 219, "avgangar_06_20": 170, "forsta_avgang": "04:28", "sista_avgang": "00:34", "produkter": "Krösatåg, Pågatåg, SJ Regional, SJ Snabbtåg, Snälltåget, Öresundståg", "operatorer": "Krösatågen, SJ, Skånetrafiken, Snälltåget, Öresundståg", "restid_goteborg_min": null, "direkta_goteborg": null, "restid_malmo_min": null, "direkta_malmo": null }, "geometry": { "type": "Point", "coordinates": [ 13.76314, 56.15776 ] } },
{ "type": "Feature", "properties": { "station": "Hästveda", "i_halland": 0, "kommun": null, "avgangar_dygn": 24, "avgangar_06_20": 22, "forsta_avgang": "05:23", "sista_avgang": "20:32", "produkter": "Krösatåg", "operatorer": "Krösatågen", "restid_goteborg_min": null, "direkta_goteborg": null, "restid_malmo_min": null, "direkta_malmo": null }, "geometry": { "type": "Point", "coordinates": [ 13.93468, 56.28766 ] } },
{ "type": "Feature", "properties": { "station": "Jonsered", "i_halland": 0, "kommun": null, "avgangar_dygn": 40, "avgangar_06_20": 28, "forsta_avgang": "04:51", "sista_avgang": "01:08", "produkter": "Västtåg", "operatorer": "Västtrafik", "restid_goteborg_min": null, "direkta_goteborg": null, "restid_malmo_min": null, "direkta_malmo": null }, "geometry": { "type": "Point", "coordinates": [ 12.1738, 57.74995 ] } },
{ "type": "Feature", "properties": { "station": "Jönköping C", "i_halland": 0, "kommun": null, "avgangar_dygn": 71, "avgangar_06_20": 60, "forsta_avgang": "04:48", "sista_avgang": "22:09", "produkter": "Krösatåg, Västtåg", "operatorer": "Jönköpings Länstrafik, Västtrafik", "restid_goteborg_min": null, "direkta_goteborg": null, "restid_malmo_min": null, "direkta_malmo": null }, "geometry": { "type": "Point", "coordinates": [ 14.16332, 57.78471 ] } },
{ "type": "Feature", "properties": { "station": "Kattarp", "i_halland": 0, "kommun": null, "avgangar_dygn": 60, "avgangar_06_20": 46, "forsta_avgang": "04:30", "sista_avgang": "00:27", "produkter": "Pågatåg", "operatorer": "Skånetrafiken", "restid_goteborg_min": null, "direkta_goteborg": null, "restid_malmo_min": null, "direkta_malmo": null }, "geometry": { "type": "Point", "coordinates": [ 12.77843, 56.14438 ] } },
{ "type": "Feature", "properties": { "station": "Killeberg", "i_halland": 0, "kommun": null, "avgangar_dygn": 24, "avgangar_06_20": 22, "forsta_avgang": "05:08", "sista_avgang": "20:47", "produkter": "Krösatåg", "operatorer": "Krösatågen", "restid_goteborg_min": null, "direkta_goteborg": null, "restid_malmo_min": null, "direkta_malmo": null }, "geometry": { "type": "Point", "coordinates": [ 14.09836, 56.47478 ] } },
{ "type": "Feature", "properties": { "station": "Kinna", "i_halland": 0, "kommun": null, "avgangar_dygn": 25, "avgangar_06_20": 22, "forsta_avgang": "05:48", "sista_avgang": "21:35", "produkter": "Västtåg, Västtåg Viskadalsbanan", "operatorer": "Västtrafik", "restid_goteborg_min": null, "direkta_goteborg": null, "restid_malmo_min": null, "direkta_malmo": null }, "geometry": { "type": "Point", "coordinates": [ 12.69824, 57.50598 ] } },
{ "type": "Feature", "properties": { "station": "Kinnared", "i_halland": 1, "kommun": "Hylte", "avgangar_dygn": 10, "avgangar_06_20": 9, "forsta_avgang": "06:40", "sista_avgang": "21:10", "produkter": "Krösatåg", "operatorer": "Jönköpings Länstrafik", "restid_goteborg_min": 126.0, "direkta_goteborg": 0, "restid_malmo_min": 155.0, "direkta_malmo": 0 }, "geometry": { "type": "Point", "coordinates": [ 13.10552, 57.02616 ] } },
{ "type": "Feature", "properties": { "station": "Klevshult", "i_halland": 0, "kommun": null, "avgangar_dygn": 30, "avgangar_06_20": 27, "forsta_avgang": "05:56", "sista_avgang": "21:25", "produkter": "Krösatåg", "operatorer": "Jönköpings Länstrafik", "restid_goteborg_min": null, "direkta_goteborg": null, "restid_malmo_min": null, "direkta_malmo": null }, "geometry": { "type": "Point", "coordinates": [ 14.09737, 57.35272 ] } },
{ "type": "Feature", "properties": { "station": "Klippan", "i_halland": 0, "kommun": null, "avgangar_dygn": 58, "avgangar_06_20": 45, "forsta_avgang": "04:53", "sista_avgang": "00:04", "produkter": "Pågatåg", "operatorer": "Skånetrafiken", "restid_goteborg_min": null, "direkta_goteborg": null, "restid_malmo_min": null, "direkta_malmo": null }, "geometry": { "type": "Point", "coordinates": [ 13.12837, 56.13084 ] } },
{ "type": "Feature", "properties": { "station": "Knalleland", "i_halland": 0, "kommun": null, "avgangar_dygn": 28, "avgangar_06_20": 25, "forsta_avgang": "05:18", "sista_avgang": "21:38", "produkter": "Västtåg, Västtåg Viskadalsbanan", "operatorer": "Västtrafik", "restid_goteborg_min": null, "direkta_goteborg": null, "restid_malmo_min": null, "direkta_malmo": null }, "geometry": { "type": "Point", "coordinates": [ 12.94255, 57.73373 ] } },
{ "type": "Feature", "properties": { "station": "Kristianstad C", "i_halland": 0, "kommun": null, "avgangar_dygn": 78, "avgangar_06_20": 60, "forsta_avgang": "04:04", "sista_avgang": "00:04", "produkter": "Pågatåg, Öresundståg", "operatorer": "Skånetrafiken, Öresundståg", "restid_goteborg_min": null, "direkta_goteborg": null, "restid_malmo_min": null, "direkta_malmo": null }, "geometry": { "type": "Point", "coordinates": [ 14.15126, 56.03167 ] } },
{ "type": "Feature", "properties": { "station": "Kungsbacka", "i_halland": 1, "kommun": "Kungsbacka", "avgangar_dygn": 139, "avgangar_06_20": 112, "forsta_avgang": "04:49", "sista_avgang": "01:04", "produkter": "Pendeltåg Göteborg–Kungsbacka, Västtåg Göteborg–Varberg, Öresundståg", "operatorer": "Västtrafik, Öresundståg", "restid_goteborg_min": 19.0, "direkta_goteborg": 99, "restid_malmo_min": 133.0, "direkta_malmo": 17 }, "geometry": { "type": "Point", "coordinates": [ 12.07962, 57.49056 ] } },
{ "type": "Feature", "properties": { "station": "Kvidinge", "i_halland": 0, "kommun": null, "avgangar_dygn": 58, "avgangar_06_20": 45, "forsta_avgang": "04:48", "sista_avgang": "00:08", "produkter": "Pågatåg", "operatorer": "Skånetrafiken", "restid_goteborg_min": null, "direkta_goteborg": null, "restid_malmo_min": null, "direkta_malmo": null }, "geometry": { "type": "Point", "coordinates": [ 13.04686, 56.13722 ] } },
{ "type": "Feature", "properties": { "station": "Kågeröd", "i_halland": 0, "kommun": null, "avgangar_dygn": 38, "avgangar_06_20": 28, "forsta_avgang": "05:21", "sista_avgang": "23:35", "produkter": "Pågatåg", "operatorer": "Skånetrafiken", "restid_goteborg_min": null, "direkta_goteborg": null, "restid_malmo_min": null, "direkta_malmo": null }, "geometry": { "type": "Point", "coordinates": [ 13.08337, 55.99948 ] } },
{ "type": "Feature", "properties": { "station": "Kållered", "i_halland": 0, "kommun": null, "avgangar_dygn": 121, "avgangar_06_20": 96, "forsta_avgang": "04:58", "sista_avgang": "01:16", "produkter": "Pendeltåg Göteborg–Kungsbacka", "operatorer": "Västtrafik", "restid_goteborg_min": null, "direkta_goteborg": null, "restid_malmo_min": null, "direkta_malmo": null }, "geometry": { "type": "Point", "coordinates": [ 12.04862, 57.60993 ] } },
{ "type": "Feature", "properties": { "station": "Laholm", "i_halland": 1, "kommun": "Laholm", "avgangar_dygn": 53, "avgangar_06_20": 42, "forsta_avgang": "05:26", "sista_avgang": "00:33", "produkter": "Pågatåg, Öresundståg", "operatorer": "Skånetrafiken, Öresundståg", "restid_goteborg_min": 79.0, "direkta_goteborg": 18, "restid_malmo_min": 82.0, "direkta_malmo": 18 }, "geometry": { "type": "Point", "coordinates": [ 12.9996, 56.50191 ] } },
{ "type": "Feature", "properties": { "station": "Landeryd", "i_halland": 1, "kommun": "Hylte", "avgangar_dygn": 10, "avgangar_06_20": 9, "forsta_avgang": "06:49", "sista_avgang": "21:01", "produkter": "Krösatåg", "operatorer": "Jönköpings Länstrafik", "restid_goteborg_min": 136.0, "direkta_goteborg": 0, "restid_malmo_min": 164.0, "direkta_malmo": 0 }, "geometry": { "type": "Point", "coordinates": [ 13.26618, 57.07688 ] } },
{ "type": "Feature", "properties": { "station": "Lerum", "i_halland": 0, "kommun": null, "avgangar_dygn": 85, "avgangar_06_20": 57, "forsta_avgang": "04:27", "sista_avgang": "01:00", "produkter": "Västtåg", "operatorer": "Västtrafik", "restid_goteborg_min": null, "direkta_goteborg": null, "restid_malmo_min": null, "direkta_malmo": null }, "geometry": { "type": "Point", "coordinates": [ 12.27232, 57.76936 ] } },
{ "type": "Feature", "properties": { "station": "Limmared", "i_halland": 0, "kommun": null, "avgangar_dygn": 8, "avgangar_06_20": 8, "forsta_avgang": "07:28", "sista_avgang": "19:29", "produkter": "SJ Regional", "operatorer": "SJ", "restid_goteborg_min": null, "direkta_goteborg": null, "restid_malmo_min": null, "direkta_malmo": null }, "geometry": { "type": "Point", "coordinates": [ 13.35274, 57.53612 ] } },
{ "type": "Feature", "properties": { "station": "Lindome", "i_halland": 0, "kommun": null, "avgangar_dygn": 121, "avgangar_06_20": 96, "forsta_avgang": "04:58", "sista_avgang": "01:13", "produkter": "Pendeltåg Göteborg–Kungsbacka", "operatorer": "Västtrafik", "restid_goteborg_min": null, "direkta_goteborg": null, "restid_malmo_min": null, "direkta_malmo": null }, "geometry": { "type": "Point", "coordinates": [ 12.07848, 57.5761 ] } },
{ "type": "Feature", "properties": { "station": "Liseberg", "i_halland": 0, "kommun": null, "avgangar_dygn": 137, "avgangar_06_20": 112, "forsta_avgang": "04:49", "sista_avgang": "01:24", "produkter": "Pendeltåg Göteborg–Kungsbacka, Västtåg", "operatorer": "Västtrafik", "restid_goteborg_min": null, "direkta_goteborg": null, "restid_malmo_min": null, "direkta_malmo": null }, "geometry": { "type": "Point", "coordinates": [ 11.99527, 57.69825 ] } },
{ "type": "Feature", "properties": { "station": "Maria", "i_halland": 0, "kommun": null, "avgangar_dygn": 60, "avgangar_06_20": 45, "forsta_avgang": "04:23", "sista_avgang": "00:35", "produkter": "Pågatåg", "operatorer": "Skånetrafiken", "restid_goteborg_min": null, "direkta_goteborg": null, "restid_malmo_min": null, "direkta_malmo": null }, "geometry": { "type": "Point", "coordinates": [ 12.71102, 56.07593 ] } },
{ "type": "Feature", "properties": { "station": "Markaryd", "i_halland": 0, "kommun": null, "avgangar_dygn": 11, "avgangar_06_20": 8, "forsta_avgang": "05:36", "sista_avgang": "23:11", "produkter": "Pågatåg", "operatorer": "Skånetrafiken", "restid_goteborg_min": null, "direkta_goteborg": null, "restid_malmo_min": null, "direkta_malmo": null }, "geometry": { "type": "Point", "coordinates": [ 13.59337, 56.45889 ] } },
{ "type": "Feature", "properties": { "station": "Månsarp", "i_halland": 0, "kommun": null, "avgangar_dygn": 28, "avgangar_06_20": 26, "forsta_avgang": "06:33", "sista_avgang": "20:56", "produkter": "Krösatåg", "operatorer": "Jönköpings Länstrafik", "restid_goteborg_min": null, "direkta_goteborg": null, "restid_malmo_min": null, "direkta_malmo": null }, "geometry": { "type": "Point", "coordinates": [ 14.0705, 57.65465 ] } },
{ "type": "Feature", "properties": { "station": "Mölndal", "i_halland": 0, "kommun": null, "avgangar_dygn": 201, "avgangar_06_20": 162, "forsta_avgang": "04:47", "sista_avgang": "01:20", "produkter": "Pendeltåg Göteborg–Kungsbacka, Snälltåget, Västtåg Göteborg–Varberg, Öresundståg", "operatorer": "Snälltåget, Västtrafik, Öresundståg", "restid_goteborg_min": null, "direkta_goteborg": null, "restid_malmo_min": null, "direkta_malmo": null }, "geometry": { "type": "Point", "coordinates": [ 12.01872, 57.65596 ] } },
{ "type": "Feature", "properties": { "station": "Mölnlycke", "i_halland": 0, "kommun": null, "avgangar_dygn": 16, "avgangar_06_20": 16, "forsta_avgang": "06:24", "sista_avgang": "19:14", "produkter": "Västtåg", "operatorer": "Västtrafik", "restid_goteborg_min": null, "direkta_goteborg": null, "restid_malmo_min": null, "direkta_malmo": null }, "geometry": { "type": "Point", "coordinates": [ 12.11737, 57.65669 ] } },
{ "type": "Feature", "properties": { "station": "Norrahammar", "i_halland": 0, "kommun": null, "avgangar_dygn": 28, "avgangar_06_20": 26, "forsta_avgang": "06:25", "sista_avgang": "20:48", "produkter": "Krösatåg", "operatorer": "Jönköpings Länstrafik", "restid_goteborg_min": null, "direkta_goteborg": null, "restid_malmo_min": null, "direkta_malmo": null }, "geometry": { "type": "Point", "coordinates": [ 14.11545, 57.70454 ] } },
{ "type": "Feature", "properties": { "station": "Osby", "i_halland": 0, "kommun": null, "avgangar_dygn": 58, "avgangar_06_20": 49, "forsta_avgang": "05:15", "sista_avgang": "23:05", "produkter": "Krösatåg, Öresundståg", "operatorer": "Krösatågen, Öresundståg", "restid_goteborg_min": null, "direkta_goteborg": null, "restid_malmo_min": null, "direkta_malmo": null }, "geometry": { "type": "Point", "coordinates": [ 13.99426, 56.37995 ] } },
{ "type": "Feature", "properties": { "station": "Oskarström", "i_halland": 1, "kommun": "Halmstad", "avgangar_dygn": 10, "avgangar_06_20": 9, "forsta_avgang": "06:17", "sista_avgang": "21:33", "produkter": "Krösatåg", "operatorer": "Jönköpings Länstrafik", "restid_goteborg_min": 103.0, "direkta_goteborg": 0, "restid_malmo_min": 132.0, "direkta_malmo": 0 }, "geometry": { "type": "Point", "coordinates": [ 12.97195, 56.80649 ] } },
{ "type": "Feature", "properties": { "station": "Partille", "i_halland": 0, "kommun": null, "avgangar_dygn": 83, "avgangar_06_20": 56, "forsta_avgang": "04:23", "sista_avgang": "01:12", "produkter": "Västtåg", "operatorer": "Västtrafik", "restid_goteborg_min": null, "direkta_goteborg": null, "restid_malmo_min": null, "direkta_malmo": null }, "geometry": { "type": "Point", "coordinates": [ 12.10285, 57.74087 ] } },
{ "type": "Feature", "properties": { "station": "Perstorp", "i_halland": 0, "kommun": null, "avgangar_dygn": 58, "avgangar_06_20": 45, "forsta_avgang": "05:04", "sista_avgang": "00:04", "produkter": "Pågatåg", "operatorer": "Skånetrafiken", "restid_goteborg_min": null, "direkta_goteborg": null, "restid_malmo_min": null, "direkta_malmo": null }, "geometry": { "type": "Point", "coordinates": [ 13.39719, 56.13636 ] } },
{ "type": "Feature", "properties": { "station": "Ramlösa", "i_halland": 0, "kommun": null, "avgangar_dygn": 145, "avgangar_06_20": 129, "forsta_avgang": "04:35", "sista_avgang": "23:55", "produkter": "Pågatåg, Öresundståg", "operatorer": "Skånetrafiken, Öresundståg", "restid_goteborg_min": null, "direkta_goteborg": null, "restid_malmo_min": null, "direkta_malmo": null }, "geometry": { "type": "Point", "coordinates": [ 12.72795, 56.02336 ] } },
{ "type": "Feature", "properties": { "station": "Reftele", "i_halland": 0, "kommun": null, "avgangar_dygn": 10, "avgangar_06_20": 9, "forsta_avgang": "06:25", "sista_avgang": "20:42", "produkter": "Krösatåg", "operatorer": "Jönköpings Länstrafik", "restid_goteborg_min": null, "direkta_goteborg": null, "restid_malmo_min": null, "direkta_malmo": null }, "geometry": { "type": "Point", "coordinates": [ 13.59341, 57.1758 ] } },
{ "type": "Feature", "properties": { "station": "Rocksjön", "i_halland": 0, "kommun": null, "avgangar_dygn": 28, "avgangar_06_20": 26, "forsta_avgang": "06:13", "sista_avgang": "20:42", "produkter": "Krösatåg", "operatorer": "Jönköpings Länstrafik", "restid_goteborg_min": null, "direkta_goteborg": null, "restid_malmo_min": null, "direkta_malmo": null }, "geometry": { "type": "Point", "coordinates": [ 14.19849, 57.77544 ] } },
{ "type": "Feature", "properties": { "station": "Rydebäck", "i_halland": 0, "kommun": null, "avgangar_dygn": 69, "avgangar_06_20": 56, "forsta_avgang": "05:00", "sista_avgang": "00:58", "produkter": "Pågatåg", "operatorer": "Skånetrafiken", "restid_goteborg_min": null, "direkta_goteborg": null, "restid_malmo_min": null, "direkta_malmo": null }, "geometry": { "type": "Point", "coordinates": [ 12.78358, 55.96585 ] } },
{ "type": "Feature", "properties": { "station": "Rävlanda", "i_halland": 0, "kommun": null, "avgangar_dygn": 16, "avgangar_06_20": 15, "forsta_avgang": "05:54", "sista_avgang": "19:38", "produkter": "Västtåg", "operatorer": "Västtrafik", "restid_goteborg_min": null, "direkta_goteborg": null, "restid_malmo_min": null, "direkta_malmo": null }, "geometry": { "type": "Point", "coordinates": [ 12.50042, 57.65459 ] } },
{ "type": "Feature", "properties": { "station": "Rörstorp", "i_halland": 0, "kommun": null, "avgangar_dygn": 20, "avgangar_06_20": 16, "forsta_avgang": "05:33", "sista_avgang": "22:11", "produkter": "Krösatåg", "operatorer": "Jönköpings Länstrafik", "restid_goteborg_min": null, "direkta_goteborg": null, "restid_malmo_min": null, "direkta_malmo": null }, "geometry": { "type": "Point", "coordinates": [ 14.06517, 57.17203 ] } },
{ "type": "Feature", "properties": { "station": "Sandared", "i_halland": 0, "kommun": null, "avgangar_dygn": 16, "avgangar_06_20": 15, "forsta_avgang": "05:37", "sista_avgang": "19:54", "produkter": "Västtåg", "operatorer": "Västtrafik", "restid_goteborg_min": null, "direkta_goteborg": null, "restid_malmo_min": null, "direkta_malmo": null }, "geometry": { "type": "Point", "coordinates": [ 12.79249, 57.70961 ] } },
{ "type": "Feature", "properties": { "station": "Sannarp", "i_halland": 1, "kommun": "Halmstad", "avgangar_dygn": 10, "avgangar_06_20": 9, "forsta_avgang": "06:03", "sista_avgang": "21:46", "produkter": "Krösatåg", "operatorer": "Jönköpings Länstrafik", "restid_goteborg_min": 89.0, "direkta_goteborg": 0, "restid_malmo_min": 118.0, "direkta_malmo": 0 }, "geometry": { "type": "Point", "coordinates": [ 12.89279, 56.68624 ] } },
{ "type": "Feature", "properties": { "station": "Skene", "i_halland": 0, "kommun": null, "avgangar_dygn": 25, "avgangar_06_20": 22, "forsta_avgang": "05:54", "sista_avgang": "21:30", "produkter": "Västtåg, Västtåg Viskadalsbanan", "operatorer": "Västtrafik", "restid_goteborg_min": null, "direkta_goteborg": null, "restid_malmo_min": null, "direkta_malmo": null }, "geometry": { "type": "Point", "coordinates": [ 12.64861, 57.48819 ] } },
{ "type": "Feature", "properties": { "station": "Skillingaryd", "i_halland": 0, "kommun": null, "avgangar_dygn": 30, "avgangar_06_20": 29, "forsta_avgang": "06:02", "sista_avgang": "21:18", "produkter": "Krösatåg", "operatorer": "Jönköpings Länstrafik", "restid_goteborg_min": null, "direkta_goteborg": null, "restid_malmo_min": null, "direkta_malmo": null }, "geometry": { "type": "Point", "coordinates": [ 14.09079, 57.42857 ] } },
{ "type": "Feature", "properties": { "station": "Smålandsstenar", "i_halland": 0, "kommun": null, "avgangar_dygn": 10, "avgangar_06_20": 9, "forsta_avgang": "06:34", "sista_avgang": "20:51", "produkter": "Krösatåg", "operatorer": "Jönköpings Länstrafik", "restid_goteborg_min": null, "direkta_goteborg": null, "restid_malmo_min": null, "direkta_malmo": null }, "geometry": { "type": "Point", "coordinates": [ 13.41501, 57.1616 ] } },
{ "type": "Feature", "properties": { "station": "Stenkullen", "i_halland": 0, "kommun": null, "avgangar_dygn": 83, "avgangar_06_20": 56, "forsta_avgang": "04:24", "sista_avgang": "00:56", "produkter": "Västtåg", "operatorer": "Västtrafik", "restid_goteborg_min": null, "direkta_goteborg": null, "restid_malmo_min": null, "direkta_malmo": null }, "geometry": { "type": "Point", "coordinates": [ 12.31475, 57.7918 ] } },
{ "type": "Feature", "properties": { "station": "Sävenäs", "i_halland": 0, "kommun": null, "avgangar_dygn": 41, "avgangar_06_20": 28, "forsta_avgang": "04:43", "sista_avgang": "01:16", "produkter": "Västtåg", "operatorer": "Västtrafik", "restid_goteborg_min": null, "direkta_goteborg": null, "restid_malmo_min": null, "direkta_malmo": null }, "geometry": { "type": "Point", "coordinates": [ 12.02532, 57.72478 ] } },
{ "type": "Feature", "properties": { "station": "Sösdala", "i_halland": 0, "kommun": null, "avgangar_dygn": 43, "avgangar_06_20": 28, "forsta_avgang": "04:36", "sista_avgang": "01:23", "produkter": "Pågatåg", "operatorer": "Skånetrafiken", "restid_goteborg_min": null, "direkta_goteborg": null, "restid_malmo_min": null, "direkta_malmo": null }, "geometry": { "type": "Point", "coordinates": [ 13.68042, 56.03627 ] } },
{ "type": "Feature", "properties": { "station": "Taberg", "i_halland": 0, "kommun": null, "avgangar_dygn": 28, "avgangar_06_20": 26, "forsta_avgang": "06:29", "sista_avgang": "20:52", "produkter": "Krösatåg", "operatorer": "Jönköpings Länstrafik", "restid_goteborg_min": null, "direkta_goteborg": null, "restid_malmo_min": null, "direkta_malmo": null }, "geometry": { "type": "Point", "coordinates": [ 14.08706, 57.67876 ] } },
{ "type": "Feature", "properties": { "station": "Tjörnarp", "i_halland": 0, "kommun": null, "avgangar_dygn": 43, "avgangar_06_20": 28, "forsta_avgang": "04:40", "sista_avgang": "01:19", "produkter": "Pågatåg", "operatorer": "Skånetrafiken", "restid_goteborg_min": null, "direkta_goteborg": null, "restid_malmo_min": null, "direkta_malmo": null }, "geometry": { "type": "Point", "coordinates": [ 13.62985, 56.00032 ] } },
{ "type": "Feature", "properties": { "station": "Tofta", "i_halland": 1, "kommun": "Varberg", "avgangar_dygn": 24, "avgangar_06_20": 22, "forsta_avgang": "06:16", "sista_avgang": "21:13", "produkter": "Västtåg Viskadalsbanan", "operatorer": "Västtrafik", "restid_goteborg_min": 52.0, "direkta_goteborg": 0, "restid_malmo_min": 130.0, "direkta_malmo": 0 }, "geometry": { "type": "Point", "coordinates": [ 12.3004, 57.17349 ] } },
{ "type": "Feature", "properties": { "station": "Torup", "i_halland": 1, "kommun": "Hylte", "avgangar_dygn": 10, "avgangar_06_20": 9, "forsta_avgang": "06:33", "sista_avgang": "21:17", "produkter": "Krösatåg", "operatorer": "Jönköpings Länstrafik", "restid_goteborg_min": 119.0, "direkta_goteborg": 0, "restid_malmo_min": 148.0, "direkta_malmo": 0 }, "geometry": { "type": "Point", "coordinates": [ 13.07987, 56.95757 ] } },
{ "type": "Feature", "properties": { "station": "Tyringe", "i_halland": 0, "kommun": null, "avgangar_dygn": 58, "avgangar_06_20": 45, "forsta_avgang": "05:14", "sista_avgang": "00:14", "produkter": "Pågatåg", "operatorer": "Skånetrafiken", "restid_goteborg_min": null, "direkta_goteborg": null, "restid_malmo_min": null, "direkta_malmo": null }, "geometry": { "type": "Point", "coordinates": [ 13.5982, 56.15979 ] } },
{ "type": "Feature", "properties": { "station": "Vaggeryd", "i_halland": 0, "kommun": null, "avgangar_dygn": 34, "avgangar_06_20": 31, "forsta_avgang": "06:09", "sista_avgang": "21:11", "produkter": "Krösatåg", "operatorer": "Jönköpings Länstrafik", "restid_goteborg_min": null, "direkta_goteborg": null, "restid_malmo_min": null, "direkta_malmo": null }, "geometry": { "type": "Point", "coordinates": [ 14.14513, 57.49833 ] } },
{ "type": "Feature", "properties": { "station": "Vallåkra", "i_halland": 0, "kommun": null, "avgangar_dygn": 38, "avgangar_06_20": 28, "forsta_avgang": "04:45", "sista_avgang": "00:14", "produkter": "Pågatåg", "operatorer": "Skånetrafiken", "restid_goteborg_min": null, "direkta_goteborg": null, "restid_malmo_min": null, "direkta_malmo": null }, "geometry": { "type": "Point", "coordinates": [ 12.86168, 55.9638 ] } },
{ "type": "Feature", "properties": { "station": "Varberg", "i_halland": 1, "kommun": "Varberg", "avgangar_dygn": 82, "avgangar_06_20": 67, "forsta_avgang": "04:50", "sista_avgang": "00:36", "produkter": "Snälltåget, Västtåg Göteborg–Varberg, Västtåg Viskadalsbanan, Öresundståg", "operatorer": "Snälltåget, Västtrafik, Öresundståg", "restid_goteborg_min": 39.0, "direkta_goteborg": 38, "restid_malmo_min": 111.0, "direkta_malmo": 18 }, "geometry": { "type": "Point", "coordinates": [ 12.24976, 57.11109 ] } },
{ "type": "Feature", "properties": { "station": "Veddige", "i_halland": 1, "kommun": "Varberg", "avgangar_dygn": 24, "avgangar_06_20": 22, "forsta_avgang": "06:28", "sista_avgang": "21:03", "produkter": "Västtåg Viskadalsbanan", "operatorer": "Västtrafik", "restid_goteborg_min": 61.0, "direkta_goteborg": 0, "restid_malmo_min": 140.0, "direkta_malmo": 0 }, "geometry": { "type": "Point", "coordinates": [ 12.3376, 57.26694 ] } },
{ "type": "Feature", "properties": { "station": "Vinslöv", "i_halland": 0, "kommun": null, "avgangar_dygn": 59, "avgangar_06_20": 45, "forsta_avgang": "04:15", "sista_avgang": "00:16", "produkter": "Pågatåg", "operatorer": "Skånetrafiken", "restid_goteborg_min": null, "direkta_goteborg": null, "restid_malmo_min": null, "direkta_malmo": null }, "geometry": { "type": "Point", "coordinates": [ 13.9169, 56.1049 ] } },
{ "type": "Feature", "properties": { "station": "Viskafors", "i_halland": 0, "kommun": null, "avgangar_dygn": 25, "avgangar_06_20": 22, "forsta_avgang": "05:34", "sista_avgang": "21:49", "produkter": "Västtåg, Västtåg Viskadalsbanan", "operatorer": "Västtrafik", "restid_goteborg_min": null, "direkta_goteborg": null, "restid_malmo_min": null, "direkta_malmo": null }, "geometry": { "type": "Point", "coordinates": [ 12.84371, 57.62856 ] } },
{ "type": "Feature", "properties": { "station": "Vittsjö", "i_halland": 0, "kommun": null, "avgangar_dygn": 22, "avgangar_06_20": 16, "forsta_avgang": "05:17", "sista_avgang": "23:20", "produkter": "Pågatåg", "operatorer": "Skånetrafiken", "restid_goteborg_min": null, "direkta_goteborg": null, "restid_malmo_min": null, "direkta_malmo": null }, "geometry": { "type": "Point", "coordinates": [ 13.66326, 56.34211 ] } },
{ "type": "Feature", "properties": { "station": "Värnamo", "i_halland": 0, "kommun": null, "avgangar_dygn": 38, "avgangar_06_20": 33, "forsta_avgang": "05:30", "sista_avgang": "20:27", "produkter": "Krösatåg, SJ Regional", "operatorer": "Jönköpings Länstrafik, SJ", "restid_goteborg_min": null, "direkta_goteborg": null, "restid_malmo_min": null, "direkta_malmo": null }, "geometry": { "type": "Point", "coordinates": [ 14.03572, 57.18628 ] } },
{ "type": "Feature", "properties": { "station": "Älmhult", "i_halland": 0, "kommun": null, "avgangar_dygn": 66, "avgangar_06_20": 56, "forsta_avgang": "05:01", "sista_avgang": "23:15", "produkter": "Krösatåg, Pågatåg, SJ Snabbtåg, Öresundståg", "operatorer": "Krösatågen, SJ, Skånetrafiken, Öresundståg", "restid_goteborg_min": null, "direkta_goteborg": null, "restid_malmo_min": null, "direkta_malmo": null }, "geometry": { "type": "Point", "coordinates": [ 14.13698, 56.55143 ] } },
{ "type": "Feature", "properties": { "station": "Ängelholm", "i_halland": 0, "kommun": null, "avgangar_dygn": 99, "avgangar_06_20": 74, "forsta_avgang": "04:39", "sista_avgang": "00:20", "produkter": "Pågatåg, Öresundståg", "operatorer": "Skånetrafiken, Öresundståg", "restid_goteborg_min": null, "direkta_goteborg": null, "restid_malmo_min": null, "direkta_malmo": null }, "geometry": { "type": "Point", "coordinates": [ 12.85419, 56.2452 ] } },
{ "type": "Feature", "properties": { "station": "Åsa", "i_halland": 1, "kommun": "Kungsbacka", "avgangar_dygn": 44, "avgangar_06_20": 37, "forsta_avgang": "05:04", "sista_avgang": "00:23", "produkter": "Västtåg Göteborg–Varberg, Öresundståg", "operatorer": "Västtrafik, Öresundståg", "restid_goteborg_min": 28.0, "direkta_goteborg": 21, "restid_malmo_min": 124.0, "direkta_malmo": 0 }, "geometry": { "type": "Point", "coordinates": [ 12.13564, 57.36312 ] } },
{ "type": "Feature", "properties": { "station": "Åstorp", "i_halland": 0, "kommun": null, "avgangar_dygn": 78, "avgangar_06_20": 59, "forsta_avgang": "04:44", "sista_avgang": "00:14", "produkter": "Pågatåg, SJ Snabbtåg", "operatorer": "SJ, Skånetrafiken", "restid_goteborg_min": null, "direkta_goteborg": null, "restid_malmo_min": null, "direkta_malmo": null }, "geometry": { "type": "Point", "coordinates": [ 12.94918, 56.13397 ] } },
{ "type": "Feature", "properties": { "station": "Ödåkra", "i_halland": 0, "kommun": null, "avgangar_dygn": 60, "avgangar_06_20": 45, "forsta_avgang": "04:26", "sista_avgang": "00:31", "produkter": "Pågatåg", "operatorer": "Skånetrafiken", "restid_goteborg_min": null, "direkta_goteborg": null, "restid_malmo_min": null, "direkta_malmo": null }, "geometry": { "type": "Point", "coordinates": [ 12.74474, 56.10487 ] } },
{ "type": "Feature", "properties": { "station": "Önnestad", "i_halland": 0, "kommun": null, "avgangar_dygn": 59, "avgangar_06_20": 45, "forsta_avgang": "04:10", "sista_avgang": "00:10", "produkter": "Pågatåg", "operatorer": "Skånetrafiken", "restid_goteborg_min": null, "direkta_goteborg": null, "restid_malmo_min": null, "direkta_malmo": null }, "geometry": { "type": "Point", "coordinates": [ 14.02913, 56.06057 ] } }
]
}
